{"type":"Feature","properties":{"GID_2":"GEO.11.5_1","GID_0":"GEO","country":"Georgia","GID_1":"GEO.11_1","province":"ShidaKartli","NL_NAME_1":"NA","county":"Khashuri","VARNAME_2":"NA","NL_NAME_2":"NA","TYPE_2":"Raioni","ENGTYPE_2":"District","CC_2":"NA","HASC_2":"GE.SD.KS","name":"Khashuri.county"},
"geometry":{"type": "MultiPolygon","coordinates": [[[[43.4262,41.9167,1480.0303],[43.4454,41.9202,1058.8425],[43.4566,41.92,918.3763],[43.4762,41.9131,746.9302],[43.5008,41.9115,818.9092],[43.5179,41.9015,937.4278],[43.5383,41.8996,1219.4238],[43.5597,41.892,1792.5347],[43.5653,41.8862,1871.0811],[43.5666,41.8653,1657.5305],[43.5724,41.86,1684.5845],[43.5845,41.8548,1647.1184],[43.5906,41.8497,1533.9187],[43.5994,41.823,2038.5577],[43.6065,41.8214,1840.5393],[43.6573,41.8215,1742.8748],[43.657,41.8338,1774.6384],[43.6614,41.8434,2063.4531],[43.6628,41.8555,1972.8435],[43.6823,41.8845,1634.8274],[43.6841,41.8976,1317.9326],[43.6878,41.9051,1462.8767],[43.6905,41.9159,1236.3212],[43.6947,41.9189,1211.1604],[43.7217,41.9285,1133.6354],[43.7353,41.937,987.7959],[43.7464,41.9418,1141.9252],[43.7529,41.9488,835.8189],[43.7528,41.9564,862.5388],[43.7487,41.9638,988.4979],[43.7469,41.9769,852.3804],[43.738,41.9991,676.4317],[43.7362,42.0084,660.2754],[43.7222,42.0376,664.2979],[43.72,42.0477,703.1462],[43.7161,42.055,727.9645],[43.7167,42.0605,769.6016],[43.7252,42.0727,762.3922],[43.7248,42.0771,816.1006],[43.7141,42.0927,768.6174],[43.6911,42.1176,819.9439],[43.6596,42.1299,1007.8235],[43.6119,42.1644,1000.3564],[43.6079,42.1663,1065.9265],[43.5865,42.1584,1168.9907],[43.5825,42.1553,1130.0425],[43.5774,42.1475,1072.9604],[43.5641,42.112,1042.7271],[43.5587,42.1042,1167.4316],[43.5466,42.0941,1189.5887],[43.5404,42.0864,1068.6228],[43.5331,42.0819,1115.7725],[43.4906,42.0657,1066.4451],[43.4896,42.0591,1064.332],[43.4853,42.0486,1156.9528],[43.4846,41.9885,943.4764],[43.4812,41.9849,864.6799],[43.4426,41.9639,1140.5706],[43.4271,41.9518,1055.652],[43.4219,41.9439,934.2979],[43.4207,41.9379,1282.915],[43.4213,41.9307,1649.3853],[43.4253,41.9233,1522.1389],[43.4262,41.9167,1480.0303]]]]}}