{"type": "Feature","bbox": [43.2182,42.3948,43.919,42.896],"geometry": {"type": "MultiPolygon","coordinates": [[[[43.5875,42.3948,1580.4406],[43.5874,42.4077,1137.2072],[43.593,42.4239,1688.5295],[43.5957,42.4266,1677.9053],[43.6036,42.4298,1734.939],[43.6174,42.4311,1576.7228],[43.6663,42.4418,2147.8987],[43.7293,42.4418,1720.1233],[43.7474,42.4454,2099.8083],[43.7767,42.4459,2045.1327],[43.8032,42.4526,1799.6074],[43.8171,42.454,1541.6805],[43.8261,42.4575,1775.5222],[43.8321,42.4644,2053.2759],[43.8347,42.4764,1958.0029],[43.8403,42.4835,2204.5212],[43.8761,42.4969,2008.3257],[43.8866,42.5027,2568.7056],[43.9038,42.5089,2174.4819],[43.9076,42.5122,2441.5195],[43.9132,42.5247,2281.6714],[43.919,42.544,3190.0527],[43.9096,42.564,2849.8506],[43.9085,42.57,3054.4189],[43.8929,42.5748,3057.7864],[43.8759,42.5756,2812.6772],[43.864,42.5849,2677.1348],[43.8578,42.5865,2707.3752],[43.8507,42.5852,2899.6772],[43.8425,42.5793,2830.2622],[43.8351,42.5775,3056.9617],[43.8273,42.5794,3095.4658],[43.813,42.5933,3316.1057],[43.8003,42.5934,2886.0168],[43.781,42.5878,3113.7266],[43.7702,42.5877,3017.2112],[43.7613,42.5946,3273.6606],[43.7314,42.6276,3358.7227],[43.7303,42.6356,3047.8223],[43.7331,42.6424,3207.7656],[43.7423,42.6518,2942.4558],[43.7554,42.6567,2905.9819],[43.7669,42.6642,2983.9434],[43.8037,42.7184,3358.0566],[43.8051,42.7284,3530.7388],[43.8037,42.7353,3588.1621],[43.7991,42.7422,4010.0813],[43.7909,42.7501,3950.4058],[43.7742,42.7578,4121.9189],[43.7225,42.7732,3646.2209],[43.7084,42.7809,3804.7661],[43.6995,42.7901,3841.8623],[43.689,42.7964,3865.9971],[43.6704,42.8004,3265.3809],[43.6554,42.7973,3238.4856],[43.6449,42.7999,3483.1003],[43.6326,42.8116,3856.7461],[43.6166,42.822,3415.387],[43.6123,42.8266,3444.2014],[43.6047,42.8425,3140.3123],[43.5778,42.8594,3510.9026],[43.5617,42.8661,3526.8459],[43.5064,42.8728,3273.3608],[43.4894,42.8832,3759.7285],[43.4652,42.8909,3659.4709],[43.403,42.896,3855.0156],[43.383,42.8951,3362.4861],[43.357,42.8896,3421.1021],[43.3207,42.8564,2713.9429],[43.3041,42.8322,2955.9863],[43.3035,42.8228,3100.9951],[43.3132,42.7999,2131.042],[43.3134,42.7952,2125.3491],[43.3108,42.791,1988.1176],[43.2947,42.7772,1770.8647],[43.3293,42.7652,2666.4863],[43.3331,42.7615,2965.7703],[43.3096,42.726,1951.0475],[43.3034,42.7058,1551.443],[43.3345,42.6583,1688.746],[43.3355,42.6352,1460.3357],[43.3406,42.6229,1088.8679],[43.3404,42.6079,1079.6781],[43.3382,42.6049,1164.8466],[43.3306,42.6016,974.9233],[43.2917,42.5917,744.2458],[43.2579,42.579,1311.6492],[43.2506,42.5652,993.1987],[43.2486,42.555,723.0831],[43.2425,42.5416,800.1219],[43.2364,42.5329,941.8774],[43.2235,42.5222,948.971],[43.2182,42.5144,1177.7439],[43.2182,42.507,941.6832],[43.2242,42.496,886.9678],[43.2512,42.4853,1242.1633],[43.27,42.4709,1659.9535],[43.2751,42.463,1785.0568],[43.2772,42.4528,1884.2522],[43.2807,42.4463,1770.4968],[43.2822,42.4342,1512.765],[43.2861,42.4266,1481.172],[43.2882,42.4155,1259.5647],[43.3143,42.4198,1186.4463],[43.3653,42.4197,1237.1776],[43.3959,42.4124,931.7256],[43.4338,42.4076,948.4377],[43.487,42.4187,1244.0085],[43.4968,42.4191,1398.326],[43.5501,42.4002,1833.2117],[43.5739,42.3957,1724.0143],[43.5875,42.3948,1580.4406]]]]}
,"properties": {"GID_2": "GEO.8.3_1","GID_0": "GEO","country": "Georgia","GID_1": "GEO.8_1","province": "Racha-Lechkhumi-KvemoSvaneti","NL_NAME_1": "NA","county": "Oni","VARNAME_2": "NA","NL_NAME_2": "NA","TYPE_2": "Raioni","ENGTYPE_2": "District","CC_2": "NA","HASC_2": "GE.RK.ON","name": "Oni.county","area_km2": 1981.529,"hist_schema_id": "Elevation0-9000","hist_area_km2": {"625": 0.281,"650": 1.562,"675": 2.436,"700": 2.358,"725": 2.28,"750": 2.999,"775": 3.529,"800": 4.685,"825": 4.966,"850": 6.465,"875": 7.574,"900": 9.214,"925": 10.432,"950": 10.62,"975": 11.291,"1000": 12.665,"1025": 12.712,"1050": 13.54,"1075": 14.493,"1100": 15.679,"1125": 17.131,"1150": 17.318,"1175": 18.209,"1200": 17.255,"1225": 17.302,"1250": 18.784,"1275": 19.923,"1300": 19.078,"1325": 20.017,"1350": 20.158,"1375": 21.795,"1400": 22.013,"1425": 23.199,"1450": 21.795,"1475": 23.403,"1500": 23.326,"1525": 24.479,"1550": 24.107,"1575": 26.447,"1600": 26.838,"1625": 29.291,"1650": 29.275,"1675": 31.885,"1700": 34.041,"1725": 36.81,"1750": 35.371,"1775": 37.839,"1800": 37.257,"1825": 35.273,"1850": 34.566,"1875": 35.845,"1900": 34.563,"1925": 35.652,"1950": 33.369,"1975": 31.898,"2000": 31.103,"2025": 29.318,"2050": 28.847,"2075": 27.144,"2100": 25.504,"2125": 25.096,"2150": 25.015,"2175": 24.453,"2200": 23.014,"2225": 22.622,"2250": 22.355,"2275": 21.887,"2300": 20.203,"2325": 20.885,"2350": 20.028,"2375": 19.449,"2400": 19.667,"2425": 19.886,"2450": 18.717,"2475": 19.012,"2500": 18.389,"2525": 17.907,"2550": 17.906,"2575": 18.139,"2600": 18.0,"2625": 16.628,"2650": 16.908,"2675": 17.129,"2700": 16.456,"2725": 15.646,"2750": 14.632,"2775": 13.837,"2800": 14.224,"2825": 13.15,"2850": 12.245,"2875": 11.187,"2900": 11.061,"2925": 10.079,"2950": 9.69,"2975": 9.737,"3000": 9.159,"3025": 8.193,"3050": 8.052,"3075": 6.494,"3100": 7.117,"3125": 6.741,"3150": 5.901,"3175": 5.495,"3200": 5.511,"3225": 5.152,"3250": 4.902,"3275": 4.357,"3300": 4.357,"3325": 4.761,"3350": 3.983,"3375": 3.625,"3400": 3.376,"3425": 3.359,"3450": 2.956,"3475": 2.924,"3500": 2.924,"3525": 2.426,"3550": 2.458,"3575": 2.318,"3600": 1.726,"3625": 1.695,"3650": 2.271,"3675": 1.836,"3700": 1.68,"3725": 1.447,"3750": 1.276,"3775": 1.229,"3800": 1.431,"3825": 1.338,"3850": 1.198,"3875": 0.778,"3900": 0.591,"3925": 0.498,"3950": 0.575,"3975": 0.435,"4000": 0.311,"4025": 0.28,"4050": 0.358,"4075": 0.311,"4100": 0.202,"4125": 0.202,"4150": 0.109,"4175": 0.202,"4200": 0.078,"4225": 0.171,"4250": 0.093,"4275": 0.047,"4300": 0.125,"4325": 0.047}}}