{"type":"Feature","properties":{"GID_2":"GEO.4.1_1","GID_0":"GEO","country":"Georgia","GID_1":"GEO.4_1","province":"Imereti","NL_NAME_1":"NA","county":"Bagdati","VARNAME_2":"NA","NL_NAME_2":"NA","TYPE_2":"Raioni","ENGTYPE_2":"District","CC_2":"NA","HASC_2":"GE.IM.BG","name":"Bagdati.county"},
"geometry":{"type": "MultiPolygon","coordinates": [[[[42.9945,42.0082,888.1556],[42.988,42.0171,632.8572],[42.9852,42.029,486.3009],[42.9765,42.0392,701.0493],[42.9529,42.0478,522.6687],[42.9191,42.0483,638.3722],[42.9123,42.0502,599.7023],[42.9026,42.0638,858.1828],[42.8998,42.0717,913.9547],[42.8947,42.0797,577.9496],[42.8728,42.1105,194.1646],[42.8511,42.118899999999996,175.0083],[42.8157,42.1204,180.4821],[42.7933,42.1345,155.2193],[42.76,42.1399,113.5342],[42.7569,42.1422,108.0266],[42.7552,42.1499,126.5277],[42.7518,42.1564,120.1062],[42.7504,42.167,115.4991],[42.7205,42.1665,88.3423],[42.7143,42.1541,87.8447],[42.7126,42.1448,94.3902],[42.7069,42.1323,76.1095],[42.6959,42.1199,75.9556],[42.6915,42.1169,75.1187],[42.6559,42.1035,64.1101],[42.6499,42.0965,63.5708],[42.6438,42.085,102.0262],[42.6808,42.0761,136.9573],[42.7149,42.0635,268.863],[42.7325,42.0397,778.8083],[42.7612,42.0326,628.5513],[42.7692,42.0277,731.45],[42.7865,42.0071,672.6555],[42.7929,41.9911,506.1491],[42.7877,41.9825,433.028],[42.7687,41.9631,847.6738],[42.7499,41.9355,858.9865],[42.7419,41.9279,881.7822],[42.7359,41.9193,1397.5164],[42.7338,41.9002,1162.6002],[42.7084,41.8627,1756.3738],[42.7083,41.8521,1792.4413],[42.7134,41.8411,2112.5513],[42.7125,41.8337,1829.5027],[42.7021,41.825,2004.187],[42.6863,41.8174,2455.6826],[42.6783,41.8097,2085.7561],[42.6957,41.8092,2242.8025],[42.7179,41.8019,2241.7578],[42.7425,41.802,2243.926],[42.7487,41.8041,2135.4336],[42.7674,41.8167,2132.7437],[42.7996,41.8281,2141.6011],[42.8139,41.8291,2014.874],[42.8295,41.8283,2019.1487],[42.8519,41.8211,2008.5814],[42.8925,41.8204,2081.1135],[42.9241,41.8093,2012.085],[42.9446,41.8091,2155.7075],[42.9558,41.8174,2363.0664],[42.9631,41.8201,2319.3232],[42.9782,41.8209,2034.9485],[42.9926,41.8241,1934.7626],[43.0198,41.8244,1794.0752],[43.0342,41.8277,2000.0701],[43.0679,41.8281,2065.6975],[43.081,41.8312,2205.3796],[43.0996,41.833,2037.041],[43.0988,41.8452,2163.5581],[43.0943,41.8544,1805.0525],[43.0929,41.8706,1973.5671],[43.087,41.8793,1664.6682],[43.0735,41.891,1925.8738],[43.0634,41.906,1366.1056],[43.0607,41.9139,1609.2311],[43.0555,41.9219,1167.5701],[43.0024,41.9621,716.3434],[42.9878,41.9778,1094.3438],[42.9869,41.9901,1333.0596],[42.9945,42.0082,888.1556]]]]}}