{"type":"Feature","properties":{"GID_2":"GEO.4.9_1","GID_0":"GEO","country":"Georgia","GID_1":"GEO.4_1","province":"Imereti","NL_NAME_1":"NA","county":"Tkibuli","VARNAME_2":"NA","NL_NAME_2":"NA","TYPE_2":"Raioni","ENGTYPE_2":"District","CC_2":"NA","HASC_2":"GE.IM.TQ","name":"Tkibuli.county"},
"geometry":{"type": "MultiPolygon","coordinates": [[[[43.1217,42.3444,943.1582],[43.1048,42.3461,900.0417],[43.0911,42.3428,804.673],[43.0742,42.3418,775.087],[43.0597,42.3332,773.2762],[43.0553,42.3325,811.2883],[43.0196,42.3532,612.4468],[42.9982,42.3612,602.8438],[42.9625,42.3632,649.5123],[42.9553,42.3755,811.4766],[42.9539,42.3928,1070.9869],[42.9461,42.4079,1079.9415],[42.8985,42.4429,790.4519],[42.8801,42.4519,923.05],[42.8671,42.4551,695.7934],[42.8627,42.4457,555.0931],[42.8551,42.4355,519.9366],[42.8372,42.4261,512.7343],[42.8186,42.4124,509.759],[42.8162,42.4091,550.4963],[42.8144,42.3993,452.759],[42.8065,42.3923,504.8495],[42.7871,42.3837,507.9884],[42.7709,42.3868,696.687],[42.7406,42.3873,456.7444],[42.7319,42.3865,800.1063],[42.7265,42.3813,730.2678],[42.7242,42.3762,706.7329],[42.7248,42.3686,493.7213],[42.7452,42.3377,480.4643],[42.7457,42.3135,355.8571],[42.7385,42.2923,309.214],[42.718,42.2753,219.7409],[42.7194,42.2638,197.5078],[42.7236,42.2551,160.0687],[42.7242,42.2457,111.7857],[42.7528,42.2528,256.2902],[42.7693,42.2538,243.0312],[42.7871,42.2572,251.5659],[42.7946,42.2561,275.1263],[42.8331,42.2418,253.9776],[42.8752,42.2413,328.4797],[42.8881,42.2445,378.4775],[42.9059,42.2458,359.6905],[42.9734,42.2675,615.3843],[42.9864,42.2636,472.583],[43.0153,42.2489,268.1359],[43.0494,42.2487,316.3732],[43.073,42.263,310.0804],[43.093,42.2637,416.0624],[43.1093,42.2886,525.6589],[43.1105,42.3164,796.8392],[43.12,42.3317,806.9175],[43.1217,42.3444,943.1582]]]]}}