{"type":"Feature","properties":{"GID_2":"GEO.1.4_1","GID_0":"GEO","country":"Georgia","GID_1":"GEO.1_1","province":"Abkhazia","NL_NAME_1":"NA","county":"Gulripshi","VARNAME_2":"NA","NL_NAME_2":"NA","TYPE_2":"Raioni","ENGTYPE_2":"District","CC_2":"NA","HASC_2":"GE.AB.GP","name":"Gulripshi.county"},
"geometry":{"type": "MultiPolygon","coordinates": [[[[41.173,42.7921,2.9705],[41.1837,42.8007,4.3946],[41.1857,42.8041,6.2504],[41.1861,42.8365,32.0962],[41.1885,42.8409,36.2437],[41.2447,42.8615,91.8879],[41.2839,42.8851,134.1488],[41.2927,42.8973,188.8354],[41.2975,42.9083,240.7965],[41.3001,42.9229,272.2581],[41.3037,42.9305,220.1615],[41.3051,42.9465,158.6971],[41.3101,42.9575,276.5882],[41.3153,42.9619,441.059],[41.3367,42.9737,702.8885],[41.3475,42.9775,930.9563],[41.3703,42.9815,1108.1711],[41.4001,42.9829,1353.3163],[41.4299,42.9933,1540.936],[41.4497,42.9937,1446.7831],[41.4601,42.9965,1720.2906],[41.4723,42.9975,1644.868],[41.5035,42.9971,1336.5782],[41.5175,42.9935,1313.0291],[41.5291,42.9933,1188.7234],[41.5651,43.0015,1027.5005],[41.5771,43.0055,1130.6254],[41.5929,43.0153,1273.0638],[41.6101,43.0235,1185.0461],[41.6735,43.0443,1669.4531],[41.6907,43.0527,1864.7366],[41.7059,43.0623,2223.9502],[41.7197,43.0667,1584.6423],[41.7447,43.0667,1144.3555],[41.7601,43.0631,1066.4343],[41.7967,43.0627,1472.0079],[41.8137,43.0589,1972.5217],[41.8517,43.0583,2158.3499],[41.8659,43.0549,2102.7141],[41.8947,43.0543,2002.8586],[41.9101,43.0507,1668.1643],[41.9287,43.0499,1612.1014],[41.9423,43.0465,1709.2655],[41.9789,43.0473,2169.0],[42.0379,43.0693,2472.896],[42.0667,43.0905,3144.2642],[42.0903,43.1151,3456.0413],[42.1051,43.1263,3161.2212],[42.1125,43.1355,3563.7393],[42.1295,43.1461,2877.479],[42.1302,43.1739,2737.1089],[42.1497,43.2069,2730.8535],[42.1551,43.2189,3302.2886],[42.1454,43.2212,3230.9805],[42.1368,43.2207,3240.1003],[42.1129,43.2075,3113.7156],[42.1039,43.2054,3370.145],[42.0811,43.2045,3881.7251],[42.0577,43.1941,3137.1538],[42.0483,43.1947,3058.5959],[42.0387,43.1969,3212.333],[42.0301,43.2063,3350.3501],[42.0177,43.2145,3167.6997],[42.0008,43.2158,2785.1396],[41.9799,43.2149,3059.5347],[41.967,43.2102,2918.7227],[41.9593,43.2097,2803.6095999999998],[41.9543,43.2125,2801.1824],[41.9427,43.2253,3425.769],[41.917,43.2283,2712.188],[41.8906,43.2368,2749.7512],[41.8782,43.2461,3239.6819],[41.8719,43.2469,2887.2917],[41.8663,43.2457,2765.0403],[41.8609,43.2371,2802.9482],[41.8621,43.2323,3110.5464],[41.8679,43.2229,2734.3921],[41.8633,43.2157,3067.5061],[41.8523,43.2109,3479.5884],[41.8201,43.2038,2825.7744],[41.8147,43.2038,2979.4368],[41.7937,43.2109,3072.8521],[41.7817,43.2117,2509.8984],[41.7629,43.2156,2743.47],[41.748,43.227,2417.9556],[41.736,43.2328,2430.9165],[41.7274,43.2314,2690.5781],[41.7224,43.2239,2870.6243],[41.7156,43.2183,2824.2339],[41.7073,43.2151,2530.7681],[41.6919,43.2167,3012.0413],[41.6575,43.2301,3026.6113],[41.6499,43.2295,3202.6294],[41.6407,43.2239,3282.8887],[41.6307,43.2229,3294.5315],[41.5991,43.2333,3329.1975],[41.5825,43.2354,3501.959],[41.5733,43.2435,3265.5039],[41.5543,43.2488,3202.9839],[41.5507,43.2559,3224.613],[41.5453,43.2608,3044.9248],[41.5257,43.2702,3188.1729],[41.5038,43.2781,3703.1462],[41.4943,43.2833,3396.5093],[41.4787,43.2969,3096.0254],[41.4681,43.3001,3178.209],[41.4377,43.3026,2947.9795],[41.4255,43.3058,2871.2563],[41.4229,43.3095,3110.6487],[41.4203,43.3531,3043.5737],[41.4078,43.3614,3079.895],[41.4015,43.3627,2868.8079],[41.3929,43.3619,2571.9722],[41.3825,43.3585,2450.0276],[41.3686,43.3616,2772.1948],[41.3615,43.3583,2929.9199],[41.3505,43.3453,2814.9038],[41.3337,43.3359,2428.8262],[41.3265,43.3189,2492.866],[41.3241,43.2999,1679.9418],[41.3149,43.2871,2140.564],[41.2845,43.2735,1941.272],[41.2489,43.2375,2205.2617],[41.2363,43.2267,1822.9412],[41.2201,43.2071,1091.5236],[41.2031,43.1701,1113.4821],[41.2019,43.1273,906.2653],[41.1929,43.1043,923.0136],[41.1903,43.0893,856.0734],[41.1817,43.0681,873.6668],[41.1801,43.0311,219.8909],[41.1475,42.9977,143.6408],[41.1267,42.9867,215.3933],[41.0779,42.9519,2.4276],[41.089,42.9174,1.7858],[41.1037,42.8493,0.0],[41.1074,42.841,0.0],[41.1224,42.8285,0.4412],[41.1243,42.8235,0.0],[41.1307,42.8201,0.1375],[41.1415,42.811,0.37],[41.1429,42.8046,0.0],[41.1488,42.7971,0.9619],[41.173,42.7921,2.9705]]]]}}