{"type": "Feature","bbox": [41.173,42.6585,42.1397,43.1461],"geometry": {"type": "MultiPolygon","coordinates": [[[[41.8989,42.8069,1638.4885],[41.8989,42.8109,1729.968],[41.8867,42.8199,1816.8027],[41.8853,42.8229,1896.6683],[41.8867,42.8257,1954.7719],[41.9017,42.8402,2365.4238],[41.9243,42.8477,2098.062],[41.9299,42.8533,2159.0249],[41.9357,42.8625,2294.4631],[41.9363,42.8667,2121.7649],[41.9349,42.8699,2005.9176],[41.9275,42.8755,2484.9277],[41.9241,42.8931,2313.6475],[41.9123,42.9005,2065.9983],[41.9099,42.9047,2256.2139],[41.9099,42.9283,1738.2957],[41.9145,42.938,1879.6477],[41.9153,42.9419,2017.1703],[41.9139,42.9465,2196.1343],[41.91,42.9483,2163.9666],[41.8943,42.9485,2135.0425],[41.8888,42.9501,1995.7302],[41.8834,42.9576,2219.0071],[41.8823,42.9647,2701.2849],[41.8784,42.973,2831.1338],[41.8793,42.9764,2872.7144],[41.8833,42.9794,2838.1682],[41.9041,42.9865,2879.1458],[41.9241,42.9883,1981.9275],[41.9479,42.9926,2458.075],[41.9757,43.0024,1805.4216],[41.9923,43.0035,1600.5261],[42.0053,43.0066,1542.5096],[42.0313,43.0075,1882.9939],[42.053,43.0118,1796.6758],[42.059,43.0195,2232.8872],[42.0615,43.0307,2266.835],[42.0661,43.0377,2129.5361],[42.0733,43.0437,1916.1925],[42.0909,43.0527,2163.7058],[42.1049,43.0633,2262.6843],[42.1232,43.0901,2764.4805],[42.125,43.0956,2446.4402],[42.1334,43.1085,1825.4038],[42.1357,43.118899999999996,2350.272],[42.1397,43.1261,2874.9189],[42.1389,43.1321,2504.0151],[42.1295,43.1461,2877.479],[42.1125,43.1355,3563.7393],[42.1051,43.1263,3161.2212],[42.0903,43.1151,3456.0413],[42.0667,43.0905,3144.2642],[42.0379,43.0693,2472.896],[41.9789,43.0473,2169.0],[41.9423,43.0465,1709.2655],[41.9287,43.0499,1612.1014],[41.9101,43.0507,1668.1643],[41.8947,43.0543,2002.8586],[41.8659,43.0549,2102.7141],[41.8517,43.0583,2158.3499],[41.8137,43.0589,1972.5217],[41.7967,43.0627,1472.0079],[41.7601,43.0631,1066.4343],[41.7447,43.0667,1144.3555],[41.7197,43.0667,1584.6423],[41.7059,43.0623,2223.9502],[41.6907,43.0527,1864.7366],[41.6735,43.0443,1669.4531],[41.6101,43.0235,1185.0461],[41.5929,43.0153,1273.0638],[41.5771,43.0055,1130.6254],[41.5651,43.0015,1027.5005],[41.5291,42.9933,1188.7234],[41.5175,42.9935,1313.0291],[41.5035,42.9971,1336.5782],[41.4723,42.9975,1644.868],[41.4601,42.9965,1720.2906],[41.4497,42.9937,1446.7831],[41.4299,42.9933,1540.936],[41.4001,42.9829,1353.3163],[41.3703,42.9815,1108.1711],[41.3475,42.9775,930.9563],[41.3367,42.9737,702.8885],[41.3153,42.9619,441.059],[41.3101,42.9575,276.5882],[41.3051,42.9465,158.6971],[41.3037,42.9305,220.1615],[41.3001,42.9229,272.2581],[41.2975,42.9083,240.7965],[41.2927,42.8973,188.8354],[41.2839,42.8851,134.1488],[41.2447,42.8615,91.8879],[41.1885,42.8409,36.2437],[41.1861,42.8365,32.0962],[41.1857,42.8041,6.2504],[41.1837,42.8007,4.3946],[41.173,42.7921,2.9705],[41.1796,42.791,0.8421],[41.1963,42.7996,1.6242],[41.2085,42.8026,1.7385],[41.2232,42.8021,9.5852],[41.2574,42.7924,10.5407],[41.2687,42.7915,0.0],[41.2887,42.7871,10.7864],[41.3032,42.7782,0.7941],[41.3149,42.7735,0.0],[41.3349,42.7726,5.2483],[41.3582,42.7657,2.4314],[41.3824,42.764,5.8743],[41.4026,42.7576,6.0506],[41.419,42.744,2.4405],[41.4218,42.7393,0.4964],[41.4232,42.7429,1.7434],[41.4221,42.7451,1.658],[41.4254,42.7465,1.9212],[41.4257,42.7451,2.1078],[41.4232,42.7449,1.658],[41.4271,42.7435,2.0296],[41.4243,42.7415,0.0],[41.4246,42.7401,0.0],[41.4368,42.741,5.2661],[41.4449,42.7343,3.6158],[41.456,42.7199,0.494],[41.4676,42.7007,2.4802],[41.4868,42.6585,0.0],[41.5191,42.6645,24.765],[41.5297,42.6683,25.4812],[41.5385,42.6777,19.8095],[41.5457,42.6821,25.7065],[41.5877,42.6951,21.1885],[41.6085,42.7039,57.3537],[41.6159,42.7135,81.3214],[41.6221,42.7173,62.0769],[41.6871,42.7295,98.1683],[41.6943,42.7337,104.8717],[41.7001,42.7407,126.8274],[41.7071,42.7443,137.2371],[41.7493,42.7449,189.164],[41.7531,42.7467,205.6784],[41.7545,42.7501,213.8711],[41.7539,42.7781,373.5476],[41.7555,42.7823,386.1522],[41.7599,42.7833,597.8359],[41.7751,42.7793,680.5277],[41.8085,42.7667,843.7321],[41.8167,42.7621,573.3655],[41.8249,42.7613,712.025],[41.8377,42.7649,752.4696],[41.8539,42.7859,1157.9423],[41.8627,42.7923,1354.8276],[41.8887,42.8061,1412.8892],[41.8989,42.8069,1638.4885]]]]}
,"properties": {"GID_2": "GEO.1.5_1","GID_0": "GEO","country": "Georgia","GID_1": "GEO.1_1","province": "Abkhazia","NL_NAME_1": "NA","county": "Ochamchire","VARNAME_2": "NA","NL_NAME_2": "NA","TYPE_2": "Raioni","ENGTYPE_2": "District","CC_2": "NA","HASC_2": "GE.AB.OC","name": "Ochamchire.county","area_km2": 1742.576,"hist_schema_id": "Elevation0-9000","hist_area_km2": {"0": 43.428,"25": 141.882,"50": 107.176,"75": 80.668,"100": 74.787,"125": 72.02,"150": 62.477,"175": 46.912,"200": 41.747,"225": 36.519,"250": 30.424,"275": 24.517,"300": 20.662,"325": 19.666,"350": 16.619,"375": 15.111,"400": 12.268,"425": 11.461,"450": 10.592,"475": 10.344,"500": 9.94,"525": 10.142,"550": 10.236,"575": 9.956,"600": 9.133,"625": 9.428,"650": 9.18,"675": 9.133,"700": 9.584,"725": 8.45,"750": 8.388,"775": 9.118,"800": 9.661,"825": 9.366,"850": 9.724,"875": 9.848,"900": 8.713,"925": 9.475,"950": 9.444,"975": 9.101,"1000": 8.991,"1025": 8.417,"1050": 8.665,"1075": 8.338,"1100": 8.493,"1125": 9.656,"1150": 8.835,"1175": 7.917,"1200": 8.912,"1225": 9.392,"1250": 8.274,"1275": 8.833,"1300": 8.973,"1325": 8.444,"1350": 9.159,"1375": 8.32,"1400": 8.817,"1425": 7.807,"1450": 8.49,"1475": 8.087,"1500": 8.66,"1525": 8.226,"1550": 8.723,"1575": 8.955,"1600": 9.218,"1625": 8.877,"1650": 8.984,"1675": 9.232,"1700": 9.62,"1725": 9.791,"1750": 10.038,"1775": 9.944,"1800": 9.618,"1825": 9.912,"1850": 9.819,"1875": 9.571,"1900": 11.075,"1925": 11.338,"1950": 11.075,"1975": 11.385,"2000": 11.804,"2025": 11.882,"2050": 11.974,"2075": 11.571,"2100": 12.036,"2125": 11.198,"2150": 11.26,"2175": 10.965,"2200": 11.027,"2225": 11.105,"2250": 10.935,"2275": 10.609,"2300": 10.531,"2325": 10.764,"2350": 10.143,"2375": 10.113,"2400": 10.47,"2425": 9.632,"2450": 9.059,"2475": 8.64,"2500": 7.865,"2525": 8.282,"2550": 7.212,"2575": 7.01,"2600": 6.297,"2625": 5.831,"2650": 5.025,"2675": 4.776,"2700": 3.644,"2725": 3.504,"2750": 3.007,"2775": 2.821,"2800": 2.402,"2825": 2.015,"2850": 1.86,"2875": 2.061,"2900": 1.704,"2925": 1.611,"2950": 1.317,"2975": 1.441,"3000": 0.991,"3025": 1.162,"3050": 0.991,"3075": 0.743,"3100": 0.96,"3125": 0.945,"3150": 0.805,"3175": 0.929,"3200": 0.697,"3225": 0.65,"3250": 0.464,"3275": 0.341,"3300": 0.418,"3325": 0.31,"3350": 0.433,"3375": 0.217,"3400": 0.248,"3425": 0.325,"3450": 0.201,"3475": 0.124,"3500": 0.248,"3525": 0.124,"3550": 0.17,"3575": 0.093,"3600": 0.046,"3625": 0.108,"3650": 0.124,"3675": 0.062,"3725": 0.031,"3750": 0.031}}}