{"type":"Feature","properties":{"GID_1":"GEO.2_1","GID_0":"GEO","country":"Georgia","province":"Ajaria","VARNAME_1":"Batumi","NL_NAME_1":"NA","TYPE_1":"AvtonomiuriRespublika","ENGTYPE_1":"AutonomousRepublic","CC_1":"NA","HASC_1":"GE.AJ","ISO_1":"GE-AJ","name":"Ajaria.province"},
"geometry":{"type": "MultiPolygon","coordinates": [[[[42.2072,41.7954,2428.584],[42.2027,41.7943,2411.1523],[42.1927,41.8115,2170.1208],[42.1877,41.8153,2145.1843],[42.1623,41.8237,1947.335],[42.1163,41.8237,969.3757],[42.0977,41.8195,1726.6554],[42.0709,41.8095,1693.8748],[42.0631,41.8089,1392.2917],[42.0601,41.8119,1399.174],[42.0579,41.8231,1450.7532],[42.0555,41.8247,1390.3488],[42.0485,41.8275,1127.552],[42.0319,41.8295,869.8278],[42.0167,41.8335,664.2636],[42.0125,41.8355,610.9281],[42.0027,41.8465,279.701],[41.9955,41.8511,407.9086],[41.9499,41.8529,208.824],[41.9467,41.8579,161.0707],[41.9467,41.8817,100.4567],[41.9419,41.8869,100.5207],[41.9199,41.8947,94.8113],[41.8675,41.8959,17.1],[41.8499,41.8997,11.1838],[41.7977,41.9001,4.2957],[41.7859,41.9031,2.3895],[41.773,41.9041,0.7644],[41.7704,41.9028,1.5594],[41.7707,41.8946,0.2381],[41.7732,41.8804,0.0],[41.7774,41.8679,7.0478],[41.7782,41.8574,9.5746],[41.7754,41.831,10.4946],[41.771,41.8085,1.0981],[41.7546,41.7713,0.0],[41.7482,41.7624,0.0],[41.7415,41.7582,14.4039],[41.7346,41.7393,8.4389],[41.7171,41.704,1.1156],[41.7124,41.6974,16.3315],[41.7057,41.6949,42.7997],[41.6937,41.676,0.5698],[41.686,41.6682,2.2803],[41.6818,41.6665,1.5333],[41.6704,41.6532,6.594],[41.6646,41.6501,3.9804],[41.6601,41.6504,2.4537],[41.6585,41.6526,0.0],[41.6501,41.6501,3.3213],[41.6554,41.649,1.6859],[41.656,41.6471,2.1055],[41.6465,41.6471,0.0],[41.6432,41.6565,1.8205],[41.6346,41.6571,0.0],[41.626,41.6529,0.0],[41.6132,41.6435,1.8626],[41.5865,41.6185,2.5733],[41.5838,41.6126,0.0],[41.5735,41.6043,0.0],[41.5685,41.5932,0.9229],[41.5657,41.5815,1.6623],[41.5657,41.5657,2.6251],[41.5626,41.5476,1.2575],[41.5599,41.5435,127.6033],[41.5524,41.5401,2.1427],[41.5521,41.5368,65.61],[41.549,41.5337,82.7697],[41.5482,41.5263,0.0],[41.5577,41.523,277.6707],[41.5711,41.5222,487.0649],[41.5787,41.52,656.6766],[41.5828,41.515,792.2681],[41.6079,41.508,1051.4111],[41.6209,41.499,1216.649],[41.6461,41.4865,1104.1166],[41.655,41.4836,885.0632],[41.6759,41.4868,1025.5804],[41.7088,41.4977,126.1874],[41.7186,41.4944,140.835],[41.7215,41.4898,100.0302],[41.7206,41.486,87.2018],[41.7158,41.4832,56.8264],[41.7135,41.4783,65.8461],[41.7157,41.4751,170.1918],[41.7285,41.473,303.6183],[41.754,41.4737,728.1141],[41.7812,41.4642,1299.0256],[41.7877,41.4615,1413.5151],[41.7902,41.4544,1325.1488],[41.811,41.4487,1424.4591],[41.8231,41.4346,2031.296],[41.8277,41.4344,2038.0171],[41.8413,41.4401,1783.2045],[41.8499,41.4493,1865.4512],[41.852,41.4546,1459.2837],[41.8786,41.461,1184.0269],[41.8855,41.4701,969.4765],[41.896,41.4793,433.8329],[41.8964,41.487,696.147],[41.9034,41.4917,1177.03],[41.9075,41.5004,1497.2294],[41.9229,41.5038,1592.7598],[41.9474,41.5166,1788.8],[41.9552,41.5246,1937.9012],[41.9771,41.5253,1905.4379],[41.9891,41.5162,2050.8564],[41.9895,41.5108,2004.9163],[41.9926,41.5067,2024.6447],[42.0185,41.5055,1862.3274],[42.0481,41.4945,2080.5852],[42.0536,41.4955,2124.2754],[42.079,41.5094,2258.772],[42.0872,41.5118,2356.3989],[42.1021,41.5094,2368.8354],[42.1118,41.5138,2323.6226],[42.1185,41.5129,2230.9414],[42.1204,41.5058,2354.9585],[42.152,41.5093,2234.2568],[42.1714,41.5149,2350.0635],[42.1839,41.5145,2477.2014],[42.19,41.5095,2517.2461],[42.1983,41.5059,2507.218],[42.2039,41.4936,2727.7493],[42.2094,41.4957,2650.4841],[42.2498,41.4971,2429.999],[42.2642,41.4931,2568.7339],[42.2818,41.4952,2574.6716],[42.2888,41.4941,2513.4102],[42.3032,41.4857,2505.0098],[42.3178,41.4805,2582.8987],[42.3252,41.4737,2508.8376],[42.334,41.471,2370.929],[42.3523,41.4729,2400.6021],[42.3712,41.4646,2517.9971],[42.4077,41.4666,2195.2729],[42.4147,41.4572,2288.6958],[42.4297,41.4502,2278.0999],[42.4395,41.4429,2324.2246],[42.4471,41.4404,2256.7268],[42.4714,41.4394,2232.8843],[42.4966,41.4452,2511.21],[42.5045,41.4455,2499.1965],[42.5136,41.4398,2666.6006],[42.5203,41.44,2732.0688],[42.523,41.4433,2949.2183],[42.5233,41.4469,2920.4636],[42.5208,41.4549,2638.8042],[42.5101,41.4686,2553.689],[42.5161,41.4792,2389.624],[42.5304,41.4863,2237.248],[42.5316,41.4916,2230.9399],[42.5358,41.4943,2173.5107],[42.5489,41.4935,2161.1699],[42.556399999999996,41.5045,2218.832],[42.5628,41.5088,2178.95],[42.5695,41.5109,2392.9148],[42.5682,41.5221,2372.283],[42.5652,41.5253,2368.4358],[42.5775,41.5444,2387.9143],[42.5787,41.5503,2454.7046],[42.5781,41.5618,2434.6423],[42.5799,41.5661,2450.8276],[42.5841,41.5702,2362.8262],[42.5893,41.5725,2519.3188],[42.5753,41.6025,2128.7993],[42.5717,41.6153,1921.4547],[42.5497,41.6323,1791.1907],[42.5391,41.6475,2139.3105],[42.5319,41.6523,2286.0659],[42.5121,41.6603,2334.0371],[42.5081,41.6657,2308.2271],[42.4953,41.6767,2010.7578],[42.4836,41.6942,2037.0469],[42.4775,41.7086,2279.0969],[42.4779,41.7182,2384.3472],[42.4807,41.7225,2224.1826],[42.4984,41.7372,2090.7212],[42.4991,41.764,1530.2048],[42.4979,41.771,1663.8514],[42.4841,41.7914,1933.5284],[42.4817,41.7987,2078.9958],[42.4406,41.7998,2197.3623],[42.4355,41.8033,2218.3242],[42.4216,41.824,2279.7185],[42.4066,41.8356,2113.3892],[42.3982,41.8384,2032.9929],[42.3721,41.8387,1940.5414],[42.3643,41.8374,2184.4192],[42.3496,41.8282,2135.8313],[42.3301,41.8208,2592.2703],[42.3061,41.8035,2586.9963],[42.2549,41.8041,2496.3633],[42.2413,41.8009,2404.5684],[42.2221,41.7993,2287.2217],[42.2072,41.7954,2428.584]]]]}}