{"type":"Feature","properties":{"ISO3166-1-Alpha-3":"GEO","country":"Georgia","fill":"#F0F","id":"3027","name":"Ajaria"},
"geometry":{"type": "Polygon","coordinates": [[[42.48168,41.79866,2078.9958],[42.45629,41.8005,2210.8489],[42.44348,41.80547,2319.7634],[42.4055,41.83491,2044.8384],[42.38308,41.83864,1833.9062],[42.3559,41.83241,2350.0471],[42.30236,41.80732,2560.0842],[42.248,41.80079,2500.1855],[42.22981,41.79861,2274.0615],[42.20046,41.80425,2301.4167],[42.18244,41.81208,2095.0952],[42.15053,41.82458,1899.3156],[42.10185,41.82016,1583.8424],[42.07695,41.81335,1707.49],[42.07571,41.813,1707.49],[42.06299,41.81143,1432.1432],[42.03243,41.82937,869.8278],[42.0202,41.83344,729.3937],[42.00067,41.84298,349.5803],[41.95158,41.85832,150.737],[41.94631,41.8793,87.6367],[41.93112,41.88603,105.0325],[41.90466,41.89775,67.5668],[41.77394,41.90261,1.3375],[41.77394,41.8216,4.1066],[41.77182,41.81257,2.0941],[41.76629,41.80419,0.0],[41.75001,41.7875,0.0],[41.74391,41.77863,0.0],[41.74244,41.7707,0.0],[41.74236,41.76166,0.0],[41.73976,41.7499,3.3771],[41.69288,41.69229,0.0],[41.67604,41.66218,0.0],[41.61573,41.63264,5.8459],[41.58627,41.60273,7.1708],[41.52076,41.51423,0.0],[41.62726,41.48052,854.8647],[41.63997,41.47871,636.3069],[41.66984,41.48047,907.4409],[41.69495,41.4891,619.5759],[41.7026,41.48904,304.4669],[41.70394,41.48512,229.6043],[41.70281,41.47762,194.8328],[41.7026,41.46946,433.0139],[41.70684,41.46316,270.3356],[41.71852,41.45959,218.3816],[41.74777,41.45685,794.6694],[41.761,41.45354,1003.8764],[41.80079,41.42569,1755.696],[41.81298,41.42181,1792.1802],[41.82259,41.426,2053.0139],[41.86269,41.45179,1585.9014],[41.89401,41.48553,616.0859],[41.90776,41.49349,1345.4458],[41.94796,41.50558,1440.9966],[42.01958,41.48507,1464.2985],[42.05493,41.49349,1978.6857],[42.0694,41.49861,2143.7605],[42.08346,41.5001,2265.7119],[42.09751,41.49835,2051.209],[42.11178,41.49349,2115.0779],[42.14319,41.50026,2207.9675],[42.15839,41.4999,2176.0515],[42.17265,41.49349,2058.2729],[42.18929,41.48171,2157.5681],[42.21327,41.48021,2309.8157],[42.26246,41.48233,2327.5295],[42.43785,41.43086,1890.8225],[42.45103,41.43137,2119.9451],[42.46307,41.43184,2076.1084],[42.48385,41.44217,2359.5227],[42.51382,41.47623,2434.7598],[42.53552,41.49349,2210.4863],[42.54555,41.50961,2007.6099],[42.55495,41.55033,1817.9207],[42.56518,41.56713,2203.876],[42.58523,41.57876,2532.7883],[42.58665,41.57911,2521.1216],[42.57676,41.60015,2171.0386],[42.54731,41.63555,1857.1732],[42.52384,41.65598,2344.9817],[42.4977,41.67425,2059.1311],[42.48788,41.68673,1970.7509],[42.48116,41.70099,2137.3281],[42.48354,41.71991,2241.5767],[42.49501,41.73301,1961.3958],[42.49594,41.76771,1687.1561],[42.48617,41.78892,1918.5845],[42.48168,41.79866,2078.9958]]]}}