{"type": "Feature","bbox": [42.3526,42.6304,43.357,42.943],"geometry": {"type": "MultiPolygon","coordinates": [[[[43.2947,42.7772,1770.8647],[43.3108,42.791,1988.1176],[43.3134,42.7952,2125.3491],[43.3132,42.7999,2131.042],[43.3035,42.8228,3100.9951],[43.3041,42.8322,2955.9863],[43.3207,42.8564,2713.9429],[43.357,42.8896,3421.1021],[43.3431,42.89,3512.8979],[43.3295,42.8946,3663.3564],[43.3205,42.9015,3164.2974],[43.2618,42.9219,3298.6016],[43.1921,42.9344,3688.2085],[43.1745,42.943,3117.5864],[43.1654,42.9368,2726.3535],[43.1549,42.9325,2190.666],[43.1395,42.9218,2203.5598],[43.1249,42.9146,2434.0186],[43.1171,42.9044,2491.0144],[43.114,42.8956,2330.9497],[43.1086,42.8895,2292.4299],[43.0844,42.8825,3186.4265],[43.0831,42.8778,3045.4307],[43.0835,42.8403,2545.0015],[43.0823,42.8337,2374.7793],[43.0692,42.8234,1702.5167],[43.0497,42.8182,2121.9214],[43.0438,42.8182,2328.5181],[43.0402,42.8202,2378.1145],[43.0358,42.8269,2594.3767],[43.0337,42.838,2703.959],[43.0292,42.8437,2761.4861],[43.0249,42.8453,2763.7781],[43.0168,42.8452,2684.5669],[43.0008,42.8417,2431.4575],[42.9487,42.8416,1455.2596],[42.9354,42.8384,1366.182],[42.9165,42.8377,1217.8481],[42.8987,42.8345,1116.8621],[42.8915,42.8372,1073.9292],[42.8686,42.8533,1211.6987],[42.8578,42.8571,1286.038],[42.8439,42.8586,1457.2399],[42.8266,42.8628,1952.0825],[42.7967,42.8732,2057.947],[42.7772,42.8649,2055.2861],[42.7624,42.8556,2146.2578],[42.7388,42.8471,2124.9429],[42.7312,42.8472,1771.4823],[42.7173,42.8506,2122.7305],[42.6816,42.8508,1638.5449],[42.6369,42.8661,2034.1343],[42.62,42.8672,2356.9333],[42.6063,42.8706,2149.2231],[42.5612,42.8713,2657.0513],[42.5202,42.886,2028.7515],[42.4919,42.8872,2761.6785],[42.4841,42.8849,3095.3582],[42.4765,42.8599,2248.98],[42.4621,42.8451,1595.7822],[42.4421,42.8432,1535.8174],[42.4303,42.8403,1632.2466],[42.3926,42.8403,2381.8147],[42.3842,42.838,2639.0635],[42.3526,42.7938,1798.8752],[42.3615,42.7879,1924.0668],[42.3674,42.7802,1933.3876],[42.3733,42.7756,1892.9972],[42.4096,42.76,2712.3567],[42.431399999999996,42.7451,2654.6907],[42.446,42.7387,2087.6238],[42.46,42.7372,1690.1582],[42.4784,42.7327,1553.3727],[42.4996,42.7227,1518.855],[42.5276,42.7124,2035.5426],[42.5345,42.7073,2186.9656],[42.5557,42.6845,2296.6401],[42.5649,42.6779,1861.7573],[42.571,42.6692,1504.6272],[42.5787,42.6637,1435.5137],[42.5863,42.6624,1684.1367],[42.5952,42.6633,1642.7432],[42.6109,42.6731,2191.0486],[42.6209,42.6739,1848.0126],[42.6391,42.669,1693.4038],[42.6764,42.6511,1133.0281],[42.7289,42.6317,576.5364],[42.7377,42.6304,673.5631],[42.7774,42.6352,619.1617],[42.7946,42.6433,643.5247],[42.8083,42.6521,1245.1531],[42.8192,42.6568,1005.1042],[42.8712,42.6947,1719.0212],[42.8926,42.7238,1908.7983],[42.9015,42.7273,2005.2795],[42.928,42.7318,1414.7036],[42.9584,42.7272,1251.0647],[42.9757,42.723,1960.6056],[43.0034,42.7128,1550.2247],[43.0207,42.7085,1644.4897],[43.0346,42.707,2081.6147],[43.0614,42.6993,2281.5854],[43.081,42.681399999999996,1906.7981],[43.0916,42.6678,1531.6411],[43.1333,42.6685,1891.1943],[43.137,42.6706,2004.776],[43.1409,42.6755,2091.0432],[43.1435,42.6835,2263.5254],[43.1518,42.696,2733.7925],[43.1594,42.7149,2804.4182],[43.1651,42.7221,3251.584],[43.176,42.7265,2815.2778],[43.2222,42.7354,2227.9656],[43.2652,42.7508,1842.0731],[43.2739,42.7566,1821.8322],[43.2887,42.7739,1808.9413],[43.2947,42.7772,1770.8647]]]]}
,"properties": {"GID_2": "GEO.8.2_1","GID_0": "GEO","country": "Georgia","GID_1": "GEO.8_1","province": "Racha-Lechkhumi-KvemoSvaneti","NL_NAME_1": "NA","county": "Lentekhi","VARNAME_2": "NA","NL_NAME_2": "NA","TYPE_2": "Raioni","ENGTYPE_2": "District","CC_2": "NA","HASC_2": "GE.RK.LE","name": "Lentekhi.county","area_km2": 1446.94,"hist_schema_id": "Elevation0-9000","hist_area_km2": {"475": 1.232,"500": 2.495,"525": 1.185,"550": 1.699,"575": 1.793,"600": 1.917,"625": 2.525,"650": 2.229,"675": 2.493,"700": 2.711,"725": 3.131,"750": 3.941,"775": 3.91,"800": 4.003,"825": 4.345,"850": 4.656,"875": 4.843,"900": 4.531,"925": 5.917,"950": 5.808,"975": 7.426,"1000": 7.799,"1025": 8.732,"1050": 8.172,"1075": 9.012,"1100": 9.168,"1125": 10.21,"1150": 10.147,"1175": 10.661,"1200": 10.863,"1225": 11.19,"1250": 12.139,"1275": 13.587,"1300": 14.192,"1325": 13.648,"1350": 13.819,"1375": 14.332,"1400": 14.317,"1425": 15.235,"1450": 14.846,"1475": 15.483,"1500": 15.701,"1525": 16.028,"1550": 16.727,"1575": 16.805,"1600": 17.505,"1625": 17.957,"1650": 18.3,"1675": 18.751,"1700": 19.404,"1725": 20.011,"1750": 20.136,"1775": 20.276,"1800": 21.319,"1825": 22.003,"1850": 21.536,"1875": 23.168,"1900": 23.776,"1925": 23.309,"1950": 23.791,"1975": 24.133,"2000": 25.301,"2025": 26.188,"2050": 25.658,"2075": 25.863,"2100": 26.25,"2125": 25.005,"2150": 24.756,"2175": 24.568,"2200": 24.911,"2225": 23.9,"2250": 24.181,"2275": 24.055,"2300": 23.527,"2325": 23.279,"2350": 23.184,"2375": 22.359,"2400": 21.862,"2425": 21.146,"2450": 20.632,"2475": 19.869,"2500": 18.453,"2525": 17.721,"2550": 17.69,"2575": 17.442,"2600": 16.071,"2625": 15.604,"2650": 14.453,"2675": 14.142,"2700": 14.002,"2725": 12.85,"2750": 12.414,"2775": 11.482,"2800": 9.443,"2825": 8.634,"2850": 7.342,"2875": 7.062,"2900": 5.895,"2925": 5.148,"2950": 3.779,"2975": 3.654,"3000": 2.846,"3025": 2.55,"3050": 2.052,"3075": 1.788,"3100": 1.741,"3125": 1.601,"3150": 1.259,"3175": 1.212,"3200": 1.212,"3225": 0.995,"3250": 0.948,"3275": 1.026,"3300": 0.792,"3325": 0.528,"3350": 0.373,"3375": 0.621,"3400": 0.357,"3425": 0.295,"3450": 0.435,"3475": 0.481,"3500": 0.233,"3525": 0.311,"3550": 0.295,"3575": 0.217,"3600": 0.217,"3625": 0.279,"3650": 0.186,"3675": 0.093,"3700": 0.233,"3725": 0.186,"3750": 0.047,"3775": 0.109,"3800": 0.062,"3825": 0.047,"3850": 0.155,"3875": 0.093,"3900": 0.062,"3925": 0.016,"3950": 0.062,"3975": 0.016,"4000": 0.031,"4025": 0.016,"4075": 0.047,"4125": 0.016,"4150": 0.031,"4175": 0.016}}}