{"type": "Feature","bbox": [40.7211,42.9519,41.3317,43.4987],"geometry": {"type": "MultiPolygon","coordinates": [[[[40.8951,43.0494,1.1339],[40.8996,43.0421,3.5263],[40.904,43.0407,18.2216],[40.9074,43.036,3.6142],[40.9207,43.0301,2.2482],[40.9301,43.0204,1.0908],[40.9368,43.0079,0.1693],[40.9457,43.004,1.8756],[40.9487,42.9996,0.0],[40.9549,42.9971,3.589],[40.9607,42.9918,4.2972],[40.9637,42.9846,0.3764],[40.9674,42.9821,2.2364],[40.9721,42.9807,4.4282],[40.9776,42.9818,0.0],[40.9924,42.9918,0.0],[40.9912,42.9935,1.2418],[40.9943,42.9949,0.5904],[40.994,42.9963,4.0447],[41.0163,42.9946,0.0],[41.0226,42.9963,0.0],[41.0224,42.9976,0.8424],[41.0254,42.9987,0.0],[41.0337,42.9985,0.0],[41.0424,42.9957,4.8557],[41.0546,42.9868,0.2344],[41.0629,42.9726,0.2161],[41.0679,42.9693,5.6712],[41.0707,42.9615,0.0],[41.0779,42.9519,2.4276],[41.1267,42.9867,215.3933],[41.1475,42.9977,143.6408],[41.1801,43.0311,219.8909],[41.1817,43.0681,873.6668],[41.1903,43.0893,856.0734],[41.1929,43.1043,923.0136],[41.2019,43.1273,906.2653],[41.2023,43.1663,896.0786],[41.2187,43.2045,1278.048],[41.2247,43.2141,1513.9349],[41.2363,43.2267,1822.9412],[41.2489,43.2375,2205.2617],[41.2845,43.2735,1941.272],[41.3149,43.2871,2140.564],[41.3241,43.2999,1679.9418],[41.3265,43.3189,2492.866],[41.3297,43.3243,2669.5356],[41.3317,43.3341,2524.6917],[41.3119,43.334,2520.5938],[41.3013,43.3447,2667.1689],[41.292,43.3509,2511.6831],[41.2841,43.3535,2794.689],[41.2529,43.3579,2879.9839],[41.2357,43.3671,3247.3218],[41.2193,43.3733,2691.9053],[41.1392,43.3946,2559.0371],[41.1197,43.395,2593.9414],[41.114,43.3912,2389.3657],[41.1064,43.3809,2521.5776],[41.1014,43.3777,2505.6802],[41.0901,43.3773,2272.3914],[41.0614,43.3823,2502.811],[41.0432,43.3907,2312.7751],[41.0422,43.4029,2549.6907],[41.0305,43.4159,2493.7866],[41.0191,43.4199,2281.4136],[40.9971,43.4317,2775.8574],[40.9897,43.4339,2658.9395],[40.9835,43.4331,2787.5549],[40.9737,43.4253,2703.1094],[40.9647,43.4231,2703.9807],[40.949,43.4221,2642.0562],[40.9357,43.4255,2587.9973],[40.9255,43.4425,2654.3022],[40.918,43.4477,2668.3779],[40.8999,43.4543,2488.9675],[40.8955,43.4581,2376.0552],[40.895,43.4611,2425.0935],[40.8985,43.4705,2380.0676],[40.8973,43.4755,2370.303],[40.8791,43.4851,2572.8264],[40.8318,43.4855,2194.2136],[40.8187,43.4925,2402.9546],[40.8023,43.4987,2518.4482],[40.7937,43.4867,1811.8467],[40.7819,43.4779,1838.5784],[40.7745,43.4757,1395.04],[40.7431,43.4753,1472.4739],[40.7353,43.4715,1534.5654],[40.7231,43.4623,1879.9312],[40.7211,43.4595,2013.8877],[40.7215,43.4559,2107.7915],[40.7407,43.4275,1619.366],[40.7427,43.4211,1409.1156],[40.7477,43.4131,1706.5229],[40.7667,43.3857,473.0618],[40.7693,43.3709,1124.0179],[40.7737,43.3607,1458.7119],[40.7725,43.3503,2085.9932],[40.7673,43.3423,2170.3889],[40.7565,43.3267,1755.8394],[40.7431,43.3151,1580.8113],[40.7375,43.3073,2070.2217],[40.7357,43.3019,2258.001],[40.7373,43.2927,1895.2744],[40.7473,43.2879,1928.9834],[40.7843,43.2791,944.9799],[40.7961,43.2793,1029.5544],[40.8113,43.2831,1170.5681],[40.8255,43.2825,1230.3137],[40.8349,43.2775,1412.0997],[40.8465,43.2651,1398.6658],[40.8623,43.2527,860.3461],[40.8647,43.2453,813.0355],[40.8645,43.2153,902.5628],[40.8657,43.2085,976.1066],[40.8717,43.1961,1333.5244],[40.8751,43.1925,1239.8816],[40.8997,43.1739,1102.4305],[40.9017,43.1703,1479.3293],[40.9035,43.1573,976.1226],[40.9075,43.1489,797.8673],[40.9061,43.1407,1039.0208],[40.8929,43.1213,1066.1528],[40.8953,43.1177,1258.3867],[40.9163,43.1177,1240.0828],[40.9227,43.1155,1205.1498],[40.9245,43.0993,558.277],[40.9289,43.0897,657.477],[40.9285,43.0803,452.218],[40.9265,43.0769,313.6361],[40.9149,43.0643,149.2218],[40.8951,43.0494,1.1339]]]]}
,"properties": {"GID_2": "GEO.1.6_1","GID_0": "GEO","country": "Georgia","GID_1": "GEO.1_1","province": "Abkhazia","NL_NAME_1": "NA","county": "Sokhumi","VARNAME_2": "Sukhumi","NL_NAME_2": "NA","TYPE_2": "K'alak'i","ENGTYPE_2": "City","CC_2": "NA","HASC_2": "GE.AB.SU","name": "Sokhumi.county","area_km2": 1517.179,"hist_schema_id": "Elevation0-9000","hist_area_km2": {"0": 17.243,"25": 16.463,"50": 16.213,"75": 16.569,"100": 19.729,"125": 20.039,"150": 19.108,"175": 17.2,"200": 15.17,"225": 12.006,"250": 12.824,"275": 9.508,"300": 8.175,"325": 7.927,"350": 8.157,"375": 8.683,"400": 9.007,"425": 9.594,"450": 9.408,"475": 11.154,"500": 12.638,"525": 13.777,"550": 13.915,"575": 14.656,"600": 14.53,"625": 15.486,"650": 16.398,"675": 17.713,"700": 16.938,"725": 17.524,"750": 18.066,"775": 19.006,"800": 17.784,"825": 18.23,"850": 19.219,"875": 18.6,"900": 17.116,"925": 17.671,"950": 17.299,"975": 16.602,"1000": 17.684,"1025": 16.539,"1050": 17.188,"1075": 17.511,"1100": 16.413,"1125": 17.276,"1150": 16.132,"1175": 16.056,"1200": 15.747,"1225": 15.498,"1250": 15.482,"1275": 14.831,"1300": 15.618,"1325": 14.907,"1350": 15.448,"1375": 15.662,"1400": 15.431,"1425": 14.937,"1450": 15.894,"1475": 15.522,"1500": 15.829,"1525": 14.333,"1550": 15.212,"1575": 15.906,"1600": 15.009,"1625": 15.518,"1650": 15.579,"1675": 14.576,"1700": 15.271,"1725": 14.637,"1750": 15.285,"1775": 15.455,"1800": 14.605,"1825": 15.252,"1850": 15.561,"1875": 14.928,"1900": 14.773,"1925": 14.018,"1950": 14.587,"1975": 13.818,"2000": 13.956,"2025": 13.492,"2050": 13.339,"2075": 14.665,"2100": 12.876,"2125": 13.741,"2150": 13.092,"2175": 13.246,"2200": 12.168,"2225": 12.06,"2250": 11.304,"2275": 11.136,"2300": 10.996,"2325": 10.35,"2350": 10.75,"2375": 9.486,"2400": 9.732,"2425": 8.869,"2450": 8.005,"2475": 7.774,"2500": 6.771,"2525": 6.386,"2550": 5.845,"2575": 5.366,"2600": 4.981,"2625": 4.58,"2650": 3.932,"2675": 3.763,"2700": 2.976,"2725": 2.745,"2750": 3.362,"2775": 2.22,"2800": 2.082,"2825": 1.804,"2850": 2.205,"2875": 1.758,"2900": 1.681,"2925": 1.434,"2950": 1.187,"2975": 0.925,"3000": 0.879,"3025": 0.586,"3050": 0.432,"3075": 0.385,"3100": 0.262,"3125": 0.108,"3150": 0.062,"3175": 0.046,"3200": 0.031,"3225": 0.015,"3250": 0.046,"3300": 0.015}}}