{"type": "Feature","bbox": [43.1239,41.1761,43.7103,41.6729],"geometry": {"type": "MultiPolygon","coordinates": [[[[43.7103,41.6729,2177.001],[43.6999,41.6713,2126.853],[43.6871,41.6665,2092.0713],[43.6624,41.6489,2038.3191],[43.6576,41.6444,2027.2842],[43.6525,41.6365,2035.687],[43.6498,41.6285,2010.9453],[43.6437,41.6219,2039.1926],[43.6256,41.6175,2006.5145],[43.5863,41.6165,1976.9536],[43.5584,41.604,1801.9817],[43.5395,41.5913,1821.6912],[43.5267,41.5868,1752.7034],[43.5219,41.5875,1763.6494],[43.5181,41.5907,1781.2875],[43.5129,41.6033,1872.7872],[43.5109,41.6135,1940.7281],[43.5027,41.6241,2066.6963],[43.4739,41.6379,2337.7654],[43.4484,41.6562,2506.9683],[43.4369,41.6576,2789.5793],[43.4175,41.6564,2409.1504],[43.4111,41.6495,2203.5454],[43.3979,41.6297,2228.4468],[43.3865,41.6203,2230.1001],[43.3802,41.6122,2136.6865],[43.3721,41.6075,2130.6487],[43.3475,41.6015,2162.7959],[43.3412,41.5859,2065.5378],[43.3401,41.5667,1944.3618],[43.3363,41.5593,1862.9189],[43.3349,41.5527,1921.3176],[43.3352,41.5431,1897.8634],[43.3446,41.5278,1836.4885],[43.3466,41.5176,1741.2314],[43.3523,41.5049,1684.4939],[43.3613,41.4915,1647.707],[43.3625,41.4831,1327.2197],[43.3617,41.4797,1586.3413],[43.3595,41.4781,1626.1519],[43.3485,41.4807,1569.1027],[43.3419,41.4799,1627.7489],[43.3319,41.4677,1651.6628],[43.3053,41.4543,1254.8114],[43.3056,41.4513,1184.0601],[43.3097,41.4453,1150.1443],[43.3219,41.4353,1329.8423],[43.3343,41.4209,1324.1833],[43.3348,41.3939,1421.575],[43.3279,41.3815,1568.3392],[43.323,41.3761,1706.7515],[43.3187,41.3751,1720.1177],[43.3058,41.3754,1584.0781],[43.2881,41.3793,1230.1254],[43.2779,41.3787,1259.5095],[43.2721,41.3763,1280.3617],[43.2525,41.3619,1337.7834],[43.2415,41.3467,1658.0964],[43.2241,41.3329,1657.2959],[43.2183,41.324,1572.21],[43.2151,41.3113,1490.1842],[43.2087,41.3027,1443.1721],[43.2028,41.2987,1442.7614],[43.2011,41.2946,1446.0382],[43.1971,41.2924,1469.6639],[43.1965,41.2894,1454.5088],[43.188,41.2851,1405.8467],[43.1749,41.275,1397.9473],[43.1594,41.2682,1360.9072],[43.1406,41.263,1508.0576],[43.1282,41.2575,1469.1589],[43.1239,41.2541,1462.7021],[43.1315,41.2497,1495.2528],[43.1533,41.2456,1847.9742],[43.176,41.2547,1996.9414],[43.1921,41.2521,2025.4021],[43.1981,41.2475,1985.6516],[43.2318,41.1927,1796.5],[43.2336,41.1873,1925.5264],[43.2265,41.1761,2199.272],[43.248,41.1774,2285.8562],[43.2744,41.1816,2327.5564],[43.3178,41.1929,2503.334],[43.3654,41.2024,2730.2715],[43.3841,41.1995,2626.1414],[43.3983,41.1915,2687.5691],[43.4115,41.1865,2796.696],[43.4209,41.1979,2725.5066],[43.4309,41.2237,2549.1523],[43.4295,41.2307,2366.1538],[43.4315,41.2443,2183.9409],[43.4315,41.2839,1897.9696],[43.4299,41.2887,1875.4823],[43.4214,41.3013,1863.1395],[43.4207,41.3065,1870.3412],[43.4268,41.3224,1968.054],[43.4301,41.3257,1961.5612],[43.4731,41.3413,1776.6392],[43.4785,41.3393,1780.4081],[43.4903,41.3217,1785.3594],[43.4953,41.3193,1809.9866],[43.5041,41.3199,1815.5237],[43.5115,41.3258,1798.7501],[43.523,41.3303,1802.2963],[43.5509,41.3311,1863.3383],[43.5547,41.3345,1899.7666],[43.5555,41.3483,1877.3798],[43.5595,41.3567,1857.99],[43.5603,41.3704,1864.0905],[43.5628,41.3734,1901.8782],[43.5865,41.3749,2074.0664],[43.6208,41.3891,2195.4834],[43.6307,41.3893,2231.0415],[43.6423,41.386,2264.7122],[43.6521,41.3855,2382.9976],[43.6659,41.3893,2382.6797],[43.6718,41.3937,2305.2649],[43.6725,41.3981,2260.321],[43.6681,41.4073,2461.7078],[43.6665,41.4195,2625.1667],[43.6575,41.4384,3107.3718],[43.6605,41.4433,2880.071],[43.6801,41.4577,2889.7539],[43.6833,41.4631,3168.311],[43.6827,41.4783,2819.6125],[43.6729,41.4947,2584.6616],[43.6727,41.5313,3221.4043],[43.6777,41.5375,2950.7349],[43.6971,41.5453,2764.5906],[43.7043,41.5644,2891.8679],[43.7049,41.5997,2510.009],[43.7003,41.6105,2602.7771],[43.6997,41.6167,2629.0767],[43.7099,41.6439,2171.1033],[43.7103,41.6729,2177.001]]]]}
,"properties": {"GID_2": "GEO.10.2_1","GID_0": "GEO","country": "Georgia","GID_1": "GEO.10_1","province": "Samtskhe-Javakheti","NL_NAME_1": "NA","county": "Akhalkalaki","VARNAME_2": "NA","NL_NAME_2": "NA","TYPE_2": "Raioni","ENGTYPE_2": "District","CC_2": "NA","HASC_2": "GE.SJ.AK","name": "Akhalkalaki.county","area_km2": 1228.7367,"hist_schema_id": "Elevation0-9000","hist_area_km2": {"1175": 0.0954,"1200": 0.1589,"1225": 0.3339,"1250": 0.9861,"1275": 1.6866,"1300": 2.53,"1325": 3.4058,"1350": 3.6604,"1375": 4.2333,"1400": 4.0106,"1425": 3.7393,"1450": 3.8031,"1475": 3.357,"1500": 3.4683,"1525": 3.5314,"1550": 3.6584,"1575": 4.0244,"1600": 3.9612,"1625": 6.9019,"1650": 19.7213,"1675": 71.8787,"1700": 69.7363,"1725": 106.3239,"1750": 105.8961,"1775": 51.7746,"1800": 69.2689,"1825": 37.9953,"1850": 46.5872,"1875": 39.8812,"1900": 35.2911,"1925": 37.2223,"1950": 33.1479,"1975": 35.7421,"2000": 28.2427,"2025": 30.8743,"2050": 28.9109,"2075": 27.5669,"2100": 23.8669,"2125": 20.7091,"2150": 17.0426,"2175": 15.9316,"2200": 16.5055,"2225": 15.4591,"2250": 15.9204,"2275": 12.6621,"2300": 10.7896,"2325": 10.567,"2350": 8.7552,"2375": 8.9469,"2400": 8.7428,"2425": 7.2973,"2450": 7.1536,"2475": 6.8667,"2500": 5.9943,"2525": 5.8838,"2550": 5.6912,"2575": 6.5337,"2600": 6.0912,"2625": 5.2002,"2650": 4.6436,"2675": 5.1521,"2700": 5.0586,"2725": 4.9466,"2750": 3.7499,"2775": 3.3526,"2800": 3.1914,"2825": 2.8424,"2850": 2.9376,"2875": 2.2867,"2900": 2.3504,"2925": 2.2868,"2950": 1.6993,"2975": 1.5247,"3000": 1.3656,"3025": 1.1116,"3050": 1.0163,"3075": 0.7941,"3100": 0.6035,"3125": 0.4606,"3150": 0.2383,"3175": 0.3494,"3200": 0.1747,"3225": 0.0953,"3250": 0.1112,"3275": 0.1748}}}