{"type":"Feature","properties":{"ISO3166-1-Alpha-3":"GEO","country":"Georgia","fill":"#FF0","id":"3028","name":"Guria"},
"geometry":{"type": "Polygon","coordinates": [[[42.22898,42.0972,17.7788],[42.17606,42.11704,13.1534],[42.11209,42.12314,10.9417],[42.06155,42.14841,10.0549],[42.00615,42.15862,16.8908],[41.88213,42.14306,16.1144],[41.81805,42.14141,8.9121],[41.75511,42.13254,0.6863],[41.741459999999996,42.10482,0.7995],[41.73702,42.08565,0.0],[41.73175,42.08064,0.0],[41.71526,42.05936,0.0],[41.71526,42.05935,0.0],[41.75571,42.00642,0.0],[41.76026,41.99258,6.5572],[41.76197,41.96988,5.4542],[41.77394,41.90693,1.6298],[41.77394,41.90261,1.3375],[41.77394,41.90261,1.3375],[41.90466,41.89775,67.5668],[41.93112,41.88603,105.0325],[41.94631,41.8793,87.6367],[41.95158,41.85832,150.737],[42.00067,41.84298,349.5803],[42.0202,41.83344,729.3937],[42.03243,41.82937,869.8278],[42.06299,41.81143,1432.1432],[42.07571,41.813,1707.49],[42.07695,41.81335,1707.49],[42.10185,41.82016,1583.8424],[42.15053,41.82458,1899.3156],[42.18244,41.81208,2095.0952],[42.20046,41.80425,2301.4167],[42.22981,41.79861,2274.0615],[42.248,41.80079,2500.1855],[42.30236,41.80732,2560.0842],[42.3559,41.83241,2350.0471],[42.38308,41.83864,1833.9062],[42.4055,41.83491,2044.8384],[42.44348,41.80547,2319.7634],[42.45629,41.8005,2210.8489],[42.48168,41.79866,2078.9958],[42.53118,41.80267,2199.6299],[42.5534,41.79662,2179.5728],[42.57614,41.7936,2401.2466],[42.59268,41.80381,2222.5413],[42.60167,41.82166,2248.6501],[42.62389,41.83295,2674.7366],[42.64962,41.83344,2656.3801],[42.64756,41.88406,2283.7744],[42.63226,41.92742,1948.735],[42.60198,41.93372,1666.1965],[42.57035,41.93186,1300.2683],[42.5502,41.93909,1268.212],[42.53118,41.94801,1046.9281],[42.50369,41.95803,1290.8412],[42.47806,41.97243,969.5685],[42.4424,41.98033,815.4614],[42.41346,41.99315,956.2504],[42.40054,42.02245,639.6661],[42.38091,42.04622,328.4756],[42.34525,42.05263,195.9026],[42.31486,42.0379,142.6545],[42.29812,42.03395,156.1449],[42.27993,42.038,310.2531],[42.23032,42.04449,244.2516],[42.20603,42.07087,455.0704],[42.22898,42.0972,17.7788]]]}}