{"type": "Feature","bbox": [41.704,41.7911,42.6497,42.1601],"geometry": {"type": "MultiPolygon","coordinates": [[[[42.1981,41.8039,2276.6987],[42.2027,41.7943,2411.1523],[42.2221,41.7993,2287.2217],[42.2413,41.8009,2404.5684],[42.2549,41.8041,2496.3633],[42.3061,41.8035,2586.9963],[42.3301,41.8208,2592.2703],[42.3496,41.8282,2135.8313],[42.3643,41.8374,2184.4192],[42.3942,41.8387,1992.187],[42.4044,41.8368,2104.1821],[42.4191,41.8263,2297.9961],[42.4361,41.8026,2275.1707],[42.4431,41.7992,2079.356],[42.4956,41.7988,2260.8418],[42.5157,41.8027,2233.6458],[42.5345,41.8027,2215.812],[42.5426,41.8012,2107.9253],[42.5549,41.7931,2024.311],[42.5609,41.7911,2180.9475],[42.5865,41.7949,2449.1218],[42.5895,41.7963,2472.0664],[42.594,41.8018,2377.7288],[42.5967,41.8137,2133.1921],[42.6017,41.8217,2248.6501],[42.6127,41.8307,2346.8105],[42.6227,41.8337,2655.6165],[42.6497,41.8335,2656.3801],[42.6485,41.8469,2348.1851],[42.6439,41.8589,2134.2134],[42.6437,41.9126,2043.1324],[42.6403,41.9185,1787.9155],[42.6277,41.9307,1726.9935],[42.6159,41.9321,1608.192],[42.5597,41.9326,1327.8224],[42.5372,41.9466,1128.9304],[42.5078,41.9538,971.0598],[42.4859,41.9693,1074.2266],[42.4729,41.9747,889.161],[42.4491,41.9831,954.5717],[42.4201,41.9849,554.764],[42.4091,41.9999,940.6638],[42.4034,42.0127,895.5689],[42.4014,42.0228,657.0898],[42.3866,42.0449,337.5739],[42.3605,42.0506,248.0091],[42.3271,42.0508,168.6326],[42.3222,42.0485,159.2017],[42.3101,42.0325,166.1554],[42.2987,42.0311,161.3485],[42.2893,42.0327,191.5661],[42.2682,42.0425,440.502],[42.2341,42.0437,226.1252],[42.2208,42.0481,225.5486],[42.2159,42.0518,226.3878],[42.2039,42.0705,479.4089],[42.2044,42.0798,149.6863],[42.2067,42.0844,109.2272],[42.2175,42.0924,37.0536],[42.229,42.0972,17.7788],[42.2235,42.1059,16.6325],[42.1985,42.1137,15.5556],[42.1445,42.1149,11.8052],[42.1203,42.1191,12.625],[42.1125,42.1229,10.9417],[42.0811,42.1453,9.7402],[42.0429,42.1535,11.3867],[42.0287,42.1551,8.1625],[42.0164,42.1601,17.3231],[41.9838,42.1546,11.4499],[41.9357,42.1547,11.1803],[41.9145,42.1481,16.6211],[41.8611,42.1397,19.9511],[41.7881,42.1397,4.6636],[41.7601,42.1349,2.7881],[41.7551,42.1318,0.1397],[41.7582,42.1293,0.0968],[41.7651,42.1279,0.4254],[41.7679,42.1251,0.3864],[41.7571,42.1229,0.1815],[41.7576,42.1121,0.0],[41.7543,42.1074,0.1425],[41.7518,42.1054,2.6954],[41.7449,42.1063,0.3113],[41.7346,42.1043,0.1324],[41.7254,42.0993,0.1185],[41.7224,42.101,0.1407],[41.7232,42.1018,0.1407],[41.7157,42.1021,0.0],[41.7143,42.0982,0.235],[41.7121,42.0971,0.0],[41.7137,42.0965,0.0],[41.7174,42.0985,0.0],[41.7182,42.0962,0.0707],[41.7215,42.0957,0.3811],[41.7226,42.0938,0.3135],[41.7282,42.0929,0.7809],[41.7304,42.0874,0.2744],[41.736,42.0871,0.6137],[41.7371,42.0857,0.0],[41.7315,42.0815,0.0],[41.7349,42.079,0.3566],[41.7296,42.0765,0.076],[41.7329,42.0721,0.7288],[41.7318,42.0693,0.3416],[41.7287,42.0693,0.0],[41.7299,42.0668,1.3157],[41.7263,42.0687,0.2735],[41.7263,42.0715,0.0],[41.7221,42.0718,0.0929],[41.7243,42.0674,0.3475],[41.7285,42.064,0.4733],[41.7282,42.0621,0.2992],[41.731,42.0624,0.3287],[41.7293,42.0604,1.2524],[41.7274,42.0612,1.3504],[41.7221,42.0699,0.4749],[41.7168,42.0726,1.3367],[41.7165,42.076,0.6762],[41.7188,42.0726,0.9724],[41.7235,42.0738,0.0],[41.7207,42.0732,0.981],[41.7207,42.076,0.0],[41.7179,42.0757,0.0],[41.7188,42.0782,0.3033],[41.7154,42.0829,0.181],[41.7118,42.0962,0.0],[41.7088,42.0946,0.0],[41.7118,42.0868,0.0],[41.7093,42.0913,0.4555],[41.7051,42.0921,0.5438],[41.704,42.0907,0.0],[41.704,42.0879,0.0],[41.7235,42.0612,0.8099],[41.7287,42.0488,5.4523],[41.7399,42.0321,0.0],[41.7421,42.0301,0.2789],[41.7446,42.031,4.4189],[41.7471,42.0279,-1.5584],[41.7463,42.0265,0.4662],[41.7515,42.0204,0.0],[41.7535,42.021,0.2928],[41.756,42.0288,2.1452],[41.7576,42.029,0.7127],[41.754,42.0163,1.2539],[41.7596,42.0021,7.2185],[41.7579,42.0001,0.0],[41.7593,41.9824,6.8821],[41.7657,41.9365,3.3432],[41.7668,41.9168,0.0],[41.7701,41.9029,1.5594],[41.7805,41.9037,1.7869],[41.7977,41.9001,4.2957],[41.8499,41.8997,11.1838],[41.8675,41.8959,17.1],[41.9199,41.8947,94.8113],[41.9419,41.8869,100.5207],[41.9467,41.8817,100.4567],[41.9467,41.8579,161.0707],[41.9499,41.8529,208.824],[41.9955,41.8511,407.9086],[42.0027,41.8465,279.701],[42.0125,41.8355,610.9281],[42.0167,41.8335,664.2636],[42.0319,41.8295,869.8278],[42.0485,41.8275,1127.552],[42.0555,41.8247,1390.3488],[42.0579,41.8231,1450.7532],[42.0601,41.8119,1399.174],[42.0631,41.8089,1392.2917],[42.0709,41.8095,1693.8748],[42.0977,41.8195,1726.6554],[42.1163,41.8237,969.3757],[42.1623,41.8237,1947.335],[42.1877,41.8153,2145.1843],[42.1927,41.8115,2170.1208],[42.1981,41.8039,2276.6987]]],
[[[41.7296,42.0738,0.4306],[41.7274,42.0735,0.2099],[41.7265,42.0721,0.2099],[41.7304,42.0715,0.0],[41.7296,42.0738,0.4306]]],
[[[41.7268,42.0738,0.1222],[41.729,42.074,0.4306],[41.7301,42.0749,0.1969],[41.7257,42.0735,0.0],[41.7268,42.0738,0.1222]]],
[[[41.7282,42.0796,0.1494],[41.7268,42.0807,0.0],[41.7243,42.0782,0.0],[41.726,42.0779,0.1956],[41.7257,42.0765,0.0],[41.729,42.0762,0.076],[41.7282,42.0785,0.0],[41.7296,42.0793,0.1494],[41.7282,42.0796,0.1494]]],
[[[41.726,42.0924,0.5413],[41.7232,42.0929,0.0],[41.7243,42.0907,0.7877],[41.7215,42.0896,0.0],[41.724,42.0887,0.0],[41.7268,42.0901,0.0],[41.726,42.0924,0.5413]]]]}
,"properties": {"GID_1": "GEO.3_1","GID_0": "GEO","country": "Georgia","province": "Guria","VARNAME_1": "Ozurgeti","NL_NAME_1": "NA","TYPE_1": "Region","ENGTYPE_1": "Region","CC_1": "NA","HASC_1": "GE.GU","ISO_1": "GE-GU","name": "Guria.province","area_km2": 1924.558,"hist_schema_id": "Elevation0-9000","hist_area_km2": {"0": 294.524,"25": 141.712,"50": 78.887,"75": 99.621,"100": 106.65,"125": 87.918,"150": 64.55,"175": 50.556,"200": 39.791,"225": 32.937,"250": 28.54,"275": 23.275,"300": 20.156,"325": 18.928,"350": 18.552,"375": 17.45,"400": 16.552,"425": 16.932,"450": 15.215,"475": 14.034,"500": 13.545,"525": 12.616,"550": 13.404,"575": 12.789,"600": 12.932,"625": 12.35,"650": 12.16,"675": 11.703,"700": 11.83,"725": 9.873,"750": 11.294,"775": 11.058,"800": 11.089,"825": 10.679,"850": 9.702,"875": 10.317,"900": 9.624,"925": 9.372,"950": 8.678,"975": 9.073,"1000": 8.552,"1025": 8.442,"1050": 8.364,"1075": 8.316,"1100": 8.001,"1125": 7.938,"1150": 8.727,"1175": 8.791,"1200": 7.86,"1225": 8.223,"1250": 8.949,"1275": 9.092,"1300": 9.06,"1325": 8.966,"1350": 9.14,"1375": 9.96,"1400": 9.566,"1425": 10.166,"1450": 10.735,"1475": 10.908,"1500": 10.988,"1525": 10.956,"1550": 10.324,"1575": 10.435,"1600": 9.994,"1625": 10.83,"1650": 9.489,"1675": 9.442,"1700": 9.174,"1725": 8.874,"1750": 9.79,"1775": 9.364,"1800": 9.696,"1825": 9.333,"1850": 10.501,"1875": 10.455,"1900": 10.786,"1925": 9.87,"1950": 10.044,"1975": 9.745,"2000": 9.303,"2025": 9.445,"2050": 9.413,"2075": 9.019,"2100": 8.356,"2125": 7.55,"2150": 7.093,"2175": 6.761,"2200": 6.24,"2225": 6.714,"2250": 5.956,"2275": 5.735,"2300": 5.467,"2325": 5.166,"2350": 4.44,"2375": 4.424,"2400": 3.666,"2425": 3.239,"2450": 2.939,"2475": 2.212,"2500": 1.691,"2525": 1.564,"2550": 1.438,"2575": 1.327,"2600": 1.296,"2625": 1.201,"2650": 0.806,"2675": 0.79,"2700": 0.411,"2725": 0.19}}}