{"type": "Feature","bbox": [41.7388,41.4945,42.1079,41.7177],"geometry": {"type": "MultiPolygon","coordinates": [[[[41.9347,41.5101,1813.6947],[41.9474,41.5166,1788.8],[41.9552,41.5246,1937.9012],[41.9771,41.5253,1905.4379],[41.9891,41.5162,2050.8564],[41.9895,41.5108,2004.9163],[41.9926,41.5067,2024.6447],[42.0185,41.5055,1862.3274],[42.0481,41.4945,2080.5852],[42.0536,41.4955,2124.2754],[42.079,41.5094,2258.772],[42.0864,41.5116,2356.3989],[42.0863,41.5309,1785.4972],[42.0916,41.5455,1718.3928],[42.0915,41.5577,1899.9572],[42.0772,41.58,1150.8622],[42.0766,41.5835,1267.0648],[42.0818,41.5921,1578.4733],[42.0899,41.5997,1422.8823],[42.0961,41.6083,1391.8844],[42.1066,41.6279,895.7945],[42.1079,41.6567,750.6132],[42.106,41.6635,1061.9],[42.0873,41.683,1319.3743],[42.082,41.6909,1740.6865],[42.0792,41.6988,1483.4301],[42.048,41.6985,1621.9124],[42.0375,41.6999,1634.49],[42.0234,41.7057,1346.5419],[42.0121,41.7133,1093.6896],[41.999,41.7177,1181.1361],[41.9527,41.71,1476.9316],[41.9421,41.7043,1206.5789],[41.9371,41.6939,1326.2587],[41.9347,41.6829,1122.2686],[41.9271,41.6689,1407.1476],[41.9071,41.6543,842.4115],[41.8999,41.6523,1005.1476],[41.8724,41.6514,1079.2839],[41.8235,41.6335,1196.9434],[41.8053,41.6289,1008.6095],[41.7598,41.6126,788.2485],[41.7428,41.6046,846.6279],[41.7389,41.6009,843.8186],[41.7388,41.5943,608.0283],[41.7475,41.5739,742.8727],[41.7499,41.5589,459.002],[41.7549,41.5491,245.0757],[41.7589,41.5467,54.5542],[41.7711,41.5466,209.8001],[41.7853,41.5503,214.1059],[41.8137,41.5505,282.654],[41.8349,41.5465,480.1084],[41.8783,41.5461,1261.3384],[41.8835,41.5449,1368.8389],[41.897,41.5361,1409.9777],[41.9069,41.5318,1450.5891],[41.9347,41.5101,1813.6947]]]]}
,"properties": {"GID_2": "GEO.2.2_1","GID_0": "GEO","country": "Georgia","GID_1": "GEO.2_1","province": "Ajaria","NL_NAME_1": "NA","county": "Keda","VARNAME_2": "NA","NL_NAME_2": "NA","TYPE_2": "Raioni","ENGTYPE_2": "District","CC_2": "NA","HASC_2": "GE.AJ.KD","name": "Keda.county","area_km2": 455.3353,"hist_schema_id": "Elevation0-9000","hist_area_km2": {"50": 0.0635,"75": 0.6188,"100": 1.0629,"125": 1.0946,"150": 1.5545,"175": 2.3791,"200": 2.6644,"225": 3.7741,"250": 3.9324,"275": 4.3445,"300": 4.7884,"325": 5.6602,"350": 6.0248,"375": 6.0567,"400": 5.8348,"425": 6.3893,"450": 6.5002,"475": 6.9128,"500": 6.5317,"525": 7.261,"550": 7.2614,"575": 7.3084,"600": 6.8964,"625": 8.1962,"650": 7.3083,"675": 7.6573,"700": 7.3716,"725": 8.5291,"750": 8.6082,"775": 8.101,"800": 8.4653,"825": 8.5767,"850": 8.1956,"875": 9.0996,"900": 8.8141,"925": 8.8297,"950": 9.1468,"975": 9.3526,"1000": 8.9882,"1025": 9.8125,"1050": 8.8455,"1075": 9.3367,"1100": 9.0513,"1125": 9.3048,"1150": 9.2262,"1175": 9.0353,"1200": 8.6386,"1225": 8.8446,"1250": 8.4327,"1275": 7.941,"1300": 7.4816,"1325": 6.8316,"1350": 6.6415,"1375": 6.4354,"1400": 6.3407,"1425": 5.6587,"1450": 5.8964,"1475": 6.1348,"1500": 5.5646,"1525": 5.5479,"1550": 5.0101,"1575": 4.9151,"1600": 4.3127,"1625": 4.2816,"1650": 3.5996,"1675": 3.4421,"1700": 3.2997,"1725": 2.7923,"1750": 2.1265,"1775": 1.9204,"1800": 1.5873,"1825": 1.6509,"1850": 1.5556,"1875": 1.3811,"1900": 1.1429,"1925": 1.2699,"1950": 0.9842,"1975": 1.0159,"2000": 1.0318,"2025": 1.0001,"2050": 0.889,"2075": 0.8414,"2100": 0.6191,"2125": 0.5874,"2150": 0.4763,"2175": 0.5398,"2200": 0.3652,"2225": 0.4922,"2250": 0.4128,"2275": 0.3176,"2300": 0.1747,"2325": 0.1111,"2350": 0.0318}}}