{"type":"Feature","properties":{"GID_2":"GEO.7.5_1","GID_0":"GEO","country":"Georgia","GID_1":"GEO.7_1","province":"Mtskheta-Mtianeti","NL_NAME_1":"NA","county":"Tianeti","VARNAME_2":"NA","NL_NAME_2":"NA","TYPE_2":"Raioni","ENGTYPE_2":"District","CC_2":"NA","HASC_2":"GE.MM.TI","name":"Tianeti.county"},
"geometry":{"type": "MultiPolygon","coordinates": [[[[45.2247,42.3526,2781.5186],[45.2032,42.3535,1936.0126],[45.1892,42.357,2014.785],[45.1699,42.3567,2356.1729],[45.1658,42.3548,2302.0991],[45.1568,42.3463,2253.093],[45.1192,42.3405,1869.5474],[45.1085,42.3366,2311.02],[45.0777,42.3194,1972.9409],[45.0649,42.315,2340.1985],[45.0558,42.3179,2020.7845],[45.0471,42.3284,1719.8274],[45.0403,42.333,1690.2727],[45.0287,42.3345,1982.163],[45.0175,42.3331,1936.6041],[45.0134,42.33,2097.4233],[45.0003,42.3102,2172.4805],[44.9515,42.2588,2002.1411],[44.9453,42.2562,1933.0273],[44.9235,42.2562,1369.6868],[44.9178,42.2549,1394.3131],[44.9161,42.2516,1374.4128],[44.9161,42.2407,1663.8977],[44.9144,42.2359,1631.3887],[44.8825,42.2009,1269.4734],[44.8581,42.1918,1359.3091],[44.8578,42.1829,1228.0807],[44.8616,42.1765,1317.0266],[44.8638,42.1663,1538.0775],[44.8717,42.1547,1467.7444],[44.8723,42.1513,1330.1272],[44.8662,42.138,1313.1692],[44.853,42.1264,1336.5288],[44.8521,42.1141,1201.2623],[44.8563,42.1058,1414.3407],[44.8588,42.0948,1287.4618],[44.8833,42.0586,1467.8224],[44.8843,42.0328,1354.5819],[44.8892,42.0206,1287.2051],[44.8858,42.0145,1183.6907],[44.8673,42.0076,1408.8032],[44.8632,42.0035,1268.8019],[44.8627,41.9521,1103.5846],[44.8756,41.9248,1173.5968],[44.8802,41.9195,1200.1404],[44.8941,41.9117,1316.6603],[44.8946,41.8917,1084.8318],[44.8965,41.8882,1049.0012],[44.9347,41.8827,1069.2139],[44.9505,41.8832,1113.2347],[44.9651,41.8865,1265.387],[44.989,41.8865,1322.5544],[45.0213,41.8811,1274.2349],[45.0657,41.9136,1268.6377],[45.0731,41.917,1315.2118],[45.0894,41.912,1075.1047],[45.1148,41.8945,1113.057],[45.1256,41.8907,1004.1738],[45.1481,41.8866,1149.3953],[45.1697,41.8931,1071.3314],[45.1866,41.894,1329.1597],[45.1965,41.8969,1367.2102],[45.2129,41.8984,1509.4844],[45.2032,41.9145,1516.4569],[45.1795,41.9316,1432.6075],[45.1598,41.9365,1379.652],[45.1401,41.9372,1144.0067],[45.1276,41.9405,1317.0138],[45.1108,41.9416,1478.7947],[45.102,41.9443,1519.7994],[45.0881,41.9459,1461.9027],[45.0726,41.9509,1358.2234],[45.0664,41.9678,1426.0521],[45.0666,41.9783,1589.3009],[45.0794,41.9934,1549.7236],[45.0907,42.0025,1454.0631],[45.0921,42.0069,1441.6501],[45.076,42.0351,768.6354],[45.0579,42.0505,897.2828],[45.0584,42.0535,892.2678],[45.0693,42.0716,1022.1916],[45.051,42.1003,1170.1592],[45.0533,42.1046,1176.4908],[45.0676,42.1151,1105.0173],[45.0709,42.1192,1228.9456],[45.0722,42.1354,1524.48],[45.0768,42.1456,1394.576],[45.0775,42.1668,1779.8423],[45.0814,42.1742,1652.8541],[45.0832,42.1834,1482.0834],[45.0888,42.1961,1770.0797],[45.1105,42.213,1582.8618],[45.1138,42.2172,1540.0585],[45.1144,42.2462,1803.4521],[45.1162,42.2519,1760.2821],[45.1488,42.2766,1684.735],[45.1667,42.2965,1966.1306],[45.1846,42.3012,1627.9043],[45.2146,42.3063,2314.5752],[45.2202,42.3094,2551.3979],[45.231,42.325,2722.5361],[45.2324,42.3295,2649.814],[45.2318,42.3361,2279.2283],[45.2247,42.3526,2781.5186]]]]}}