{"type":"Feature","properties":{"ISO3166-1-Alpha-3":"GEO","country":"Georgia","fill":"#F00","id":"3039","name":"Shida Kartli"},
"geometry":{"type": "Polygon","coordinates": [[[44.29449,41.99718,884.1573],[44.28973,42.02286,740.5571],[44.26193,42.03397,715.0724],[44.25769,42.05066,720.3083],[44.26609,42.06894,747.9306],[44.26679,42.07046,750.0402],[44.26896,42.12193,1041.9413],[44.28436,42.17076,1395.6104],[44.29635,42.1788,1252.1055],[44.30895,42.18513,1510.1796],[44.31784,42.19724,1386.5117],[44.32477,42.21047,1551.0967],[44.34544,42.2222,1487.0651],[44.36259,42.23964,1606.8771],[44.35464,42.27104,1645.6101],[44.33769,42.29757,2033.228],[44.3412,42.32899,2449.4597],[44.33903,42.35912,2170.8833],[44.32528,42.37263,1847.4023],[44.31185,42.38268,2203.6411],[44.3074,42.39816,2781.7607],[44.30534,42.41423,2829.1167],[44.29821,42.42439,2336.1995],[44.28694,42.42937,2038.8987],[44.30224,42.46511,2639.6548],[44.33438,42.49472,3183.7603],[44.31888,42.51115,3024.3264],[44.30172,42.52234,2985.8057],[44.26834,42.56627,2416.0361],[44.2209,42.57593,2194.9077],[44.20043,42.59678,2680.6323],[44.18783,42.62319,3004.2961],[44.1858,42.62651,3188.9624],[44.15082,42.61867,2912.4407],[44.05507,42.61531,2500.6968],[44.0115,42.60032,2556.7854],[43.99802,42.58937,2565.2747],[43.97321,42.56399,2994.3264],[43.95843,42.55441,3084.0408],[43.93973,42.55221,3475.9629],[43.92081,42.55911,3024.5405],[43.90816,42.56628,2880.312],[43.90815,42.56621,2880.312],[43.90216,42.51565,2613.6304],[43.84893,42.48736,1974.9001],[43.82712,42.45824,1747.3186],[43.808,42.45147,1754.9569],[43.66899,42.44333,2282.2698],[43.58745,42.39473,1580.4406],[43.6228,42.37871,1155.5333],[43.66166,42.37426,1005.1349],[43.6907,42.37951,1296.2102],[43.71829,42.3908,1799.6521],[43.75013,42.394,1729.3333],[43.77276,42.37398,1672.6995],[43.76087,42.34171,1535.3644],[43.76015,42.30899,1388.7236],[43.68346,42.29354,1340.0326],[43.63622,42.26858,1287.8651],[43.61587,42.25783,1095.9619],[43.61256,42.2458,1180.7318],[43.60771,42.22812,1251.7156],[43.61391,42.19629,975.0373],[43.60822,42.17019,958.2803],[43.60305,42.1661,1114.3463],[43.59634,42.16079,1101.6394],[43.58073,42.15112,1136.2921],[43.56729,42.12213,1065.2987],[43.549,42.09629,1197.7163],[43.51665,42.07816,1182.082],[43.48885,42.05738,1057.0406],[43.48472,42.01514,997.5233],[43.46952,41.9793,923.1],[43.43345,41.95537,987.6047],[43.42622,41.91661,1480.0303],[43.45412,41.91796,1003.3167],[43.51903,41.90612,873.2249],[43.55438,41.89383,1627.4927],[43.56378,41.88003,1402.5898],[43.56905,41.86372,1631.3204],[43.58259,41.85525,1570.5798],[43.59241,41.84375,1686.1169],[43.62662,41.82176,1692.6936],[43.65742,41.81786,1840.9705],[43.6722,41.79143,1810.6732],[43.70455,41.78215,1808.5001],[43.73896,41.76737,1775.8042],[43.77669,41.77156,1753.2698],[43.84407,41.77246,2045.0359],[43.88624,41.7342,2131.2517],[44.11755,41.71717,1775.798],[44.14845,41.72479,1764.9642],[44.18007,41.72882,1826.4629],[44.2272,41.72009,1457.1799],[44.27568,41.72645,1535.6921],[44.33593,41.74843,1484.9897],[44.35412,41.74179,1417.1227],[44.37024,41.72719,1485.402],[44.39329,41.7203,1422.7712],[44.46305,41.72159,1448.3147],[44.47918,41.74797,1760.9752],[44.47897,41.77357,1713.3022],[44.4984,41.79083,1086.7007],[44.49509,41.82928,877.6951],[44.5229,41.84928,594.4247],[44.55969,41.85057,529.5458],[44.57323,41.87889,491.9984],[44.54605,41.91036,542.4518],[44.51318,41.93925,632.0209],[44.50564,41.97516,620.0322],[44.497,41.9965,721.1],[44.49303,42.00633,714.9494],[44.45861,42.02056,831.6205],[44.38699,42.03258,727.8351],[44.35267,42.03343,809.9027],[44.32363,42.01731,729.8914],[44.30797,42.00649,852.9945],[44.29449,41.99718,884.1573]]]}}