{"type": "Feature","bbox": [43.4207,41.7167,44.5733,42.6232],"geometry": {"type": "MultiPolygon","coordinates": [[[[44.4832,41.7399,1572.8229],[44.4773,41.7502,1807.1704],[44.4757,41.7576,1613.8579],[44.4718,41.7643,1705.6327],[44.4714,41.7712,1604.6838],[44.4737,41.7744,1705.6918],[44.4948,41.7825,1301.3794],[44.4979,41.7861,1225.6034],[44.4979,41.8097,1315.3495],[44.4933,41.8202,1157.5322],[44.4925,41.8293,874.3563],[44.4934,41.8363,822.0286],[44.499,41.8474,679.6063],[44.5057,41.8494,634.5892],[44.5361,41.8492,558.3657],[44.559,41.8456,568.3371],[44.5666,41.8523,499.2293],[44.5731,41.8651,490.2131],[44.5733,41.8789,491.9984],[44.5714,41.8849,495.0673],[44.5519,41.9039,527.6167],[44.522,41.9264,614.4374],[44.505,41.9509,604.057],[44.5034,41.9578,600.9844],[44.5036,41.9936,647.3772],[44.5019,41.9991,651.9591],[44.4699,42.0228,810.3143],[44.4329,42.0227,914.2257],[44.3999,42.0298,799.197],[44.3606,42.0346,835.4879],[44.336,42.0289,756.2023],[44.3198,42.0083,813.9044],[44.2945,41.9972,884.1573],[44.2949,42.0239,730.4641],[44.2927,42.0296,732.4727],[44.2787,42.0312,725.2051],[44.2606,42.028,720.6323],[44.2577,42.0294,717.414],[44.2566,42.032,713.9318],[44.2577,42.0533,721.7337],[44.2729,42.0811,773.8983],[44.2726,42.0878,792.1301],[44.2679,42.0981,825.2598],[44.2676,42.1169,987.7042],[44.2688,42.1249,1110.7234],[44.2779,42.1391,1249.6643],[44.2776,42.1437,1395.8021],[44.2737,42.1509,1582.2389],[44.2741,42.1564,1415.4766],[44.2878,42.1752,1360.1072],[44.3105,42.1863,1612.326],[44.3196,42.1992,1418.2896],[44.3228,42.208,1514.4822],[44.328,42.2144,1643.4727],[44.3379,42.2184,1374.6201],[44.3487,42.2203,1412.5277],[44.3572,42.2242,1652.6981],[44.3637,42.241,1665.587],[44.3643,42.2462,1913.9924],[44.363,42.2659,1835.8729],[44.3437,42.2863,1708.1211],[44.3374,42.2981,2033.228],[44.3377,42.3269,2189.5747],[44.3407,42.3309,2496.1057],[44.3523,42.3374,2191.5117],[44.3538,42.3433,2021.9539],[44.3529,42.3515,2364.2947],[44.3397,42.3702,1973.2286],[44.3123,42.3815,2103.8809],[44.3105,42.3858,2346.4097],[44.3102,42.3968,2629.1296],[44.3059,42.4063,2712.8501],[44.3042,42.4219,2444.9165],[44.2961,42.4261,2260.2979],[44.2865,42.4283,2067.657],[44.2836,42.4328,1981.744],[44.2843,42.4382,2054.0732],[44.2914,42.4514,2237.3821],[44.2966,42.4562,2299.5891],[44.309,42.4625,2875.7534],[44.3122,42.4791,2921.0],[44.3344,42.4948,3183.7603],[44.3284,42.5017,3137.7581],[44.3256,42.5097,3063.647],[44.3207,42.5162,3134.0981],[44.3112,42.5206,3120.6208],[44.2986,42.5236,2954.5522],[44.2854,42.5371,2939.5659],[44.2792,42.5468,2501.2441],[44.2785,42.5607,2952.2146],[44.2768,42.564,2839.8384],[44.2594,42.5689,2553.8931],[44.2333,42.5695,2849.467],[44.2241,42.5737,2347.1821],[44.2044,42.5894,2749.4685],[44.1939,42.6052,2375.0972],[44.1919,42.6154,2628.8027],[44.1879,42.6232,3004.2961],[44.1754,42.6212,2942.7112],[44.1585,42.6138,2925.1816],[44.1489,42.6114,2965.5854],[44.1346,42.6104,2852.3364],[44.1198,42.6147,2840.5916],[44.1133,42.615,2732.8428],[44.104,42.614,3029.6868],[44.0601,42.6027,2718.2495],[44.0347,42.605,2642.241],[44.026,42.6019,2802.9102],[44.0163,42.5956,2831.6953],[43.9711,42.5617,3253.1226],[43.9558,42.5584,3052.6453],[43.9481,42.5585,3449.7534],[43.9312,42.5648,3233.8804],[43.9085,42.57,3054.4189],[43.9096,42.564,2849.8506],[43.919,42.544,3190.0527],[43.9132,42.5247,2281.6714],[43.9076,42.5122,2441.5195],[43.9038,42.5089,2174.4819],[43.8866,42.5027,2568.7056],[43.8761,42.4969,2008.3257],[43.8403,42.4835,2204.5212],[43.8347,42.4764,1958.0029],[43.8321,42.4644,2053.2759],[43.827,42.458,1747.3186],[43.8193,42.4546,1630.0065],[43.8032,42.4526,1799.6074],[43.7767,42.4459,2045.1327],[43.7474,42.4454,2099.8083],[43.7323,42.442,1741.212],[43.6663,42.4418,2147.8987],[43.6174,42.4311,1576.7228],[43.6036,42.4298,1734.939],[43.5941,42.4255,1767.6388],[43.5874,42.4077,1137.2072],[43.5875,42.3948,1580.4406],[43.6025,42.3837,940.2872],[43.6102,42.38,895.0805],[43.6343,42.3756,1018.6517],[43.6591,42.3749,920.0312],[43.6728,42.3715,941.7564],[43.6789,42.3724,1016.507],[43.6992,42.3798,1185.812],[43.7149,42.3896,1827.3621],[43.7281,42.3942,1935.528],[43.7489,42.3945,1729.3333],[43.7626,42.3896,1758.4646],[43.7727,42.3762,1692.6978],[43.7744,42.3709,1484.0605],[43.7627,42.3438,1579.6567],[43.7536,42.3296,1408.7017],[43.7539,42.3211,1489.432],[43.7602,42.3091,1388.7236],[43.7269,42.3034,1328.1351],[43.7032,42.2932,1320.6836],[43.6667,42.2915,1705.5576],[43.6564,42.2848,1415.7163],[43.6489,42.2758,1172.3176],[43.6404,42.2691,1280.0151],[43.6154,42.258,1095.9619],[43.6095,42.2495,1179.2114],[43.6035,42.235,1204.7267],[43.6042,42.2305,1225.5991],[43.6131,42.2132,1179.5229],[43.6139,42.2083,1201.434],[43.6137,42.1871,895.0051],[43.6091,42.177,1040.2114],[43.6079,42.1663,1065.9265],[43.5875,42.1589,1152.7053],[43.5825,42.1553,1130.0425],[43.5721,42.1357,1010.6],[43.5701,42.1255,1009.9012],[43.5641,42.112,1042.7271],[43.5587,42.1042,1167.4316],[43.5466,42.0941,1189.5887],[43.5404,42.0864,1068.6228],[43.5331,42.0819,1115.7725],[43.4906,42.0657,1066.4451],[43.4896,42.0591,1064.332],[43.4853,42.0486,1156.9528],[43.4846,41.9885,943.4764],[43.4812,41.9849,864.6799],[43.4426,41.9639,1140.5706],[43.4271,41.9518,1055.652],[43.4219,41.9439,934.2979],[43.4207,41.9379,1282.915],[43.4213,41.9307,1649.3853],[43.4253,41.9233,1522.1389],[43.4262,41.9167,1480.0303],[43.4454,41.9202,1058.8425],[43.4566,41.92,918.3763],[43.4762,41.9131,746.9302],[43.5008,41.9115,818.9092],[43.5179,41.9015,937.4278],[43.5383,41.8996,1219.4238],[43.5597,41.892,1792.5347],[43.5653,41.8862,1871.0811],[43.5666,41.8653,1657.5305],[43.5724,41.86,1684.5845],[43.5845,41.8548,1647.1184],[43.5906,41.8497,1533.9187],[43.5994,41.823,2038.5577],[43.6065,41.8214,1840.5393],[43.6573,41.8215,1742.8748],[43.6572,41.808,1677.5393],[43.6622,41.7937,1773.282],[43.6647,41.7908,1702.7607],[43.6871,41.7893,1773.7212],[43.6992,41.7852,1739.7263],[43.7233,41.7685,1648.9216],[43.7294,41.7664,1730.7638],[43.7609,41.7663,1753.9705],[43.7823,41.7738,1840.6592],[43.8217,41.7737,2095.2871],[43.8331,41.7727,2002.7474],[43.8652,41.7647,2207.0598],[43.8774,41.7606,2012.8033],[43.8861,41.7558,2162.3555],[43.8874,41.751,2166.8899],[43.8862,41.7342,2131.2517],[43.9321,41.7335,2200.2886],[43.9576,41.726,2244.0776],[44.0417,41.7254,1946.3514],[44.0565,41.722,1830.4325],[44.0861,41.7212,1807.1494],[44.098,41.7181,1806.1593],[44.1099,41.7172,1787.8536],[44.1278,41.7182,1772.4033],[44.1597,41.7294,1772.2209],[44.1801,41.7289,1826.4629],[44.1879,41.7277,1802.9043],[44.2043,41.7208,1797.4995],[44.2206,41.7206,1546.7849],[44.233,41.7172,1486.6344],[44.2435,41.7167,1536.0743],[44.2522,41.7179,1504.5664],[44.2992,41.735,1496.4164],[44.3111,41.7374,1436.212],[44.3415,41.7501,1419.043],[44.3471,41.7487,1573.7427],[44.3528,41.7445,1474.1705],[44.3612,41.7347,1348.5741],[44.3741,41.7244,1496.8882],[44.3794,41.7214,1437.2993],[44.386,41.7201,1396.969],[44.4695,41.7202,1474.6969],[44.4745,41.7227,1556.1326],[44.4839,41.7331,1424.3755],[44.485,41.7355,1483.6145],[44.4832,41.7399,1572.8229]]]]}
,"properties": {"GID_1": "GEO.11_1","GID_0": "GEO","country": "Georgia","province": "ShidaKartli","VARNAME_1": "Gori","NL_NAME_1": "NA","TYPE_1": "Region","ENGTYPE_1": "Region","CC_1": "NA","HASC_1": "GE.SD","ISO_1": "GE-SK","name": "Shida_Kartli.province","area_km2": 5736.223,"hist_schema_id": "Elevation0-9000","hist_area_km2": {"475": 2.384,"500": 19.067,"525": 28.117,"550": 41.658,"575": 47.837,"600": 66.883,"625": 95.113,"650": 151.306,"675": 174.317,"700": 199.287,"725": 193.237,"750": 170.73,"775": 155.923,"800": 145.964,"825": 130.731,"850": 119.487,"875": 113.784,"900": 106.571,"925": 100.492,"950": 91.852,"975": 87.326,"1000": 82.327,"1025": 78.666,"1050": 77.812,"1075": 74.843,"1100": 74.91,"1125": 73.126,"1150": 73.578,"1175": 71.702,"1200": 73.652,"1225": 71.908,"1250": 69.133,"1275": 69.106,"1300": 68.954,"1325": 66.801,"1350": 67.499,"1375": 65.078,"1400": 70.434,"1425": 69.276,"1450": 72.05,"1475": 72.474,"1500": 75.843,"1525": 77.069,"1550": 77.127,"1575": 77.037,"1600": 75.14,"1625": 75.312,"1650": 75.899,"1675": 72.557,"1700": 70.136,"1725": 68.524,"1750": 64.345,"1775": 64.965,"1800": 65.273,"1825": 64.474,"1850": 58.574,"1875": 53.724,"1900": 48.789,"1925": 47.487,"1950": 44.436,"1975": 42.931,"2000": 39.454,"2025": 37.517,"2050": 35.985,"2075": 32.637,"2100": 31.554,"2125": 29.907,"2150": 27.522,"2175": 27.107,"2200": 25.262,"2225": 24.55,"2250": 23.363,"2275": 20.353,"2300": 19.765,"2325": 19.34,"2350": 18.79,"2375": 18.538,"2400": 17.755,"2425": 17.409,"2450": 16.953,"2475": 15.652,"2500": 15.011,"2525": 14.023,"2550": 13.097,"2575": 13.157,"2600": 12.641,"2625": 11.576,"2650": 11.76,"2675": 11.385,"2700": 11.632,"2725": 10.351,"2750": 9.959,"2775": 9.787,"2800": 9.88,"2825": 9.584,"2850": 8.801,"2875": 8.239,"2900": 8.113,"2925": 7.957,"2950": 6.784,"2975": 5.908,"3000": 5.205,"3025": 5.064,"3050": 4.485,"3075": 4.298,"3100": 3.219,"3125": 2.781,"3150": 2.703,"3175": 2.39,"3200": 2.265,"3225": 1.765,"3250": 1.203,"3275": 1.359,"3300": 0.828,"3325": 0.797,"3350": 0.922,"3375": 0.734,"3400": 0.453,"3425": 0.5,"3450": 0.359,"3475": 0.328,"3500": 0.187,"3525": 0.141,"3550": 0.062,"3575": 0.047}}}