{"type":"Feature","properties":{"GID_2":"GEO.5.7_1","GID_0":"GEO","country":"Georgia","GID_1":"GEO.5_1","province":"Kakheti","NL_NAME_1":"NA","county":"Signagi","VARNAME_2":"NA","NL_NAME_2":"NA","TYPE_2":"Raioni","ENGTYPE_2":"District","CC_2":"NA","HASC_2":"GE.KA.SI","name":"Signagi.county"},
"geometry":{"type": "MultiPolygon","coordinates": [[[[45.7709,41.2401,753.6154],[45.8096,41.2688,375.231],[45.8471,41.2831,319.0406],[45.8488,41.2873,323.0809],[45.8484,41.307,374.7779],[45.8497,41.3129,329.1901],[45.8535,41.3162,312.4999],[45.8705,41.3223,299.1603],[45.8743,41.3254,310.9259],[45.8802,41.3379,360.925],[45.8801,41.3435,328.5992],[45.8759,41.3484,328.4053],[45.8572,41.3622,321.9072],[45.8547,41.3657,323.4494],[45.8538,41.3707,327.4032],[45.8543,41.4043,364.3906],[45.8585,41.4127,380.2908],[45.8606,41.4229,396.1898],[45.8697,41.4412,427.3985],[45.8709,41.4651,516.9249],[45.8819,41.4897,555.7158],[45.8877,41.4985,587.8658],[45.8941,41.5033,603.8882],[45.9061,41.5085,644.2224],[45.9119,41.5137,693.3643],[45.9129,41.5329,784.0304],[45.9153,41.5381,777.0744],[45.9391,41.5513,691.387],[45.9669,41.5636,680.6208],[45.9831,41.5681,591.3729],[46.0129,41.5681,406.7552],[46.0207,41.5667,354.4866],[46.0247,41.5637,403.7601],[46.0327,41.5518,434.7674],[46.0441,41.5391,462.3509],[46.0761,41.5111,581.1251],[46.0902,41.5056,645.8196],[46.1322,41.4959,492.0958],[46.1492,41.4897,474.3899],[46.2748,41.4877,223.1494],[46.2775,41.4847,229.6241],[46.2778,41.4799,263.3706],[46.2767,41.4739,326.508],[46.2721,41.4645,511.8583],[46.2731,41.4495,639.9476],[46.2779,41.4457,622.3779],[46.3046,41.4339,593.8221],[46.3161,41.4333,599.0128],[46.3413,41.4379,667.812],[46.41,41.4751,179.9877],[46.3519,41.4926,187.4602],[46.3422,41.4989,187.019],[46.3379,41.5048,184.4126],[46.3406,41.5191,184.3365],[46.3383,41.5279,189.9124],[46.3109,41.5561,188.2569],[46.3039,41.5673,196.3881],[46.3015,41.5781,187.3005],[46.3059,41.5866,193.1452],[46.2981,41.5983,191.1685],[46.2686,41.6079,193.8199],[46.2744,41.6228,201.0516],[46.2715,41.6249,206.213],[46.1696,41.6432,209.4897],[46.1495,41.6567,204.49],[46.0947,41.6769,208.1452],[46.0261,41.6907,223.1533],[46.0016,41.7038,222.4801],[45.9943,41.7097,223.0138],[45.9619,41.6871,226.752],[45.9489,41.6827,230.1431],[45.9349,41.6815,235.7561],[45.9201,41.6757,260.8941],[45.8945,41.6568,546.6061],[45.8831,41.6415,851.8356],[45.8427,41.6265,851.689],[45.8289,41.6177,760.9923],[45.8185,41.6132,728.5344],[45.7848,41.5889,653.8873],[45.7749,41.5779,648.4152],[45.7583,41.5663,625.005],[45.7297,41.565,636.2964],[45.7171,41.5619,672.766],[45.6948,41.5602,588.7739],[45.6862,41.543,508.8747],[45.6663,41.5371,508.4973],[45.6465,41.5229,389.4679],[45.6113,41.4711,455.19],[45.5877,41.4576,491.7737],[45.578,41.4537,558.4009],[45.5714,41.4485,519.3079],[45.5555,41.425,584.0635],[45.5482,41.4103,672.7723],[45.5616,41.4057,711.4799],[45.5664,41.3974,642.1071],[45.5698,41.3825,689.559],[45.5807,41.3745,619.7007],[45.5891,41.3717,501.1823],[45.5974,41.3696,512.444],[45.6155,41.3735,564.5103],[45.6332,41.3747,583.5113],[45.6444,41.3726,570.5311],[45.6712,41.3605,579.9449],[45.6885,41.3573,587.484],[45.7095,41.3671,479.8106],[45.7152,41.3668,459.6976],[45.7366,41.3501,426.7269],[45.738,41.347,432.668],[45.7357,41.3444,407.6875],[45.7305,41.3431,401.6705],[45.7151,41.3427,427.3395],[45.7055,41.3404,412.8433],[45.6951,41.3324,388.8112],[45.685,41.3185,634.5195],[45.6796,41.3176,573.3043],[45.6767,41.3133,701.0124],[45.6765,41.3099,738.0314],[45.7172,41.2648,643.9549],[45.7454,41.2503,722.2521],[45.7709,41.2401,753.6154]]]]}}