{"type":"Feature","properties":{"GID_2":"GEO.4.11_1","GID_0":"GEO","country":"Georgia","GID_1":"GEO.4_1","province":"Imereti","NL_NAME_1":"NA","county":"Vani","VARNAME_2":"NA","NL_NAME_2":"NA","TYPE_2":"Raioni","ENGTYPE_2":"District","CC_2":"NA","HASC_2":"GE.IM.VA","name":"Vani.county"},
"geometry":{"type": "MultiPolygon","coordinates": [[[[42.6497,41.8335,2656.3801],[42.6669,41.8203,2498.6533],[42.6729,41.8127,2231.4771],[42.6783,41.8097,2085.7561],[42.6863,41.8174,2455.6826],[42.7021,41.825,2004.187],[42.7125,41.8337,1829.5027],[42.7134,41.8411,2112.5513],[42.7083,41.8521,1792.4413],[42.7084,41.8627,1756.3738],[42.7338,41.9002,1162.6002],[42.7359,41.9193,1397.5164],[42.7419,41.9279,881.7822],[42.7499,41.9355,858.9865],[42.7687,41.9631,847.6738],[42.7877,41.9825,433.028],[42.7929,41.9911,506.1491],[42.7865,42.0071,672.6555],[42.7692,42.0277,731.45],[42.7612,42.0326,628.5513],[42.7325,42.0397,778.8083],[42.7149,42.0635,268.863],[42.6808,42.0761,136.9573],[42.6487,42.0841,108.0083],[42.6309,42.0855,83.8828],[42.6119,42.0891,60.0093],[42.5945,42.0889,54.5087],[42.5817,42.0857,52.9473],[42.5703,42.0851,75.812],[42.5559,42.0859,70.5498],[42.5429,42.0891,46.0558],[42.5275,42.0889,58.4526],[42.5205,42.0973,42.0283],[42.5151,42.0933,48.1351],[42.5022,42.0937,69.549],[42.4825,42.0987,35.3053],[42.4423,42.1129,31.2774],[42.4153,42.1174,27.3876],[42.3941,42.1177,23.3505],[42.3877,42.1158,22.9497],[42.3871,42.1107,22.8142],[42.3909,42.1038,23.5587],[42.3931,42.0943,107.5798],[42.4012,42.0826,102.5272],[42.4025,42.0781,147.6662],[42.4002,42.0731,200.5833],[42.3907,42.0686,343.3436],[42.3873,42.0651,305.7657],[42.3866,42.0449,337.5739],[42.4014,42.0228,657.0898],[42.4034,42.0127,895.5689],[42.4091,41.9999,940.6638],[42.4186,41.9862,579.7012],[42.4259,41.9837,581.7327],[42.4491,41.9831,954.5717],[42.4825,41.971,894.1471],[42.5078,41.9538,971.0598],[42.5372,41.9466,1128.9304],[42.5585,41.9329,1250.1351],[42.6202,41.932,1690.7129],[42.6305,41.9291,1845.4873],[42.6419,41.9167,1841.4315],[42.6437,41.9126,2043.1324],[42.6439,41.8589,2134.2134],[42.6485,41.8469,2348.1851],[42.6497,41.8335,2656.3801]]]]}}