{"type": "Feature","bbox": [44.5514,41.1856,45.1183,41.5692],"geometry": {"type": "MultiPolygon","coordinates": [[[[44.8817,41.2632,655.6817],[44.8864,41.2608,652.7587],[44.9034,41.2628,736.3987],[44.926,41.2583,917.3118],[44.946,41.2586,867.2258],[44.9517,41.266,782.5372],[44.9535,41.2745,772.2697],[44.957,41.2783,677.8666],[44.988,41.299,510.1953],[44.9957,41.3018,516.7516],[45.0041,41.3014,566.0067],[45.0465,41.3148,423.1357],[45.0691,41.3274,317.6635],[45.0912,41.3327,275.6465],[45.1032,41.3382,264.5587],[45.1183,41.3526,265.7355],[45.1013,41.3639,272.1622],[45.0654,41.3765,274.8604],[45.056399999999996,41.3813,278.1471],[45.0549,41.4008,277.4859],[45.0504,41.4104,280.1813],[45.0489,41.4302,289.8312],[45.0452,41.4335,286.2471],[45.0218,41.4441,294.8611],[45.0183,41.4486,295.8723],[45.0185,41.4532,299.5089],[45.0223,41.4595,297.4345],[45.0232,41.4646,296.473],[45.0222,41.4972,368.8385],[45.0163,41.5059,310.7163],[45.0083,41.5136,350.4835],[44.9896,41.5396,344.4492],[44.9706,41.5447,507.3014],[44.902,41.5452,613.5168],[44.8862,41.5487,708.8898],[44.8656,41.5496,742.6337],[44.8459,41.5563,611.4977],[44.8309,41.5581,502.2374],[44.7928,41.5692,546.9244],[44.7805,41.56,537.8672],[44.7738,41.5517,524.3065],[44.7562,41.5376,534.3686],[44.7399,41.5132,524.8416],[44.7399,41.5086,533.6112],[44.744,41.4989,507.4789],[44.7427,41.4959,515.1946],[44.7353,41.4904,519.8835],[44.7338,41.4853,511.3048],[44.7341,41.4703,396.7907],[44.7584,41.4604,384.1946],[44.765,41.4511,382.7544],[44.7702,41.4395,374.6114],[44.7696,41.4351,372.2025],[44.7616,41.4276,365.7227],[44.7574,41.4201,373.081],[44.7616,41.4125,388.1927],[44.7697,41.4049,386.8709],[44.7715,41.3993,395.4889],[44.771,41.3946,407.9562],[44.7666,41.3864,443.4149],[44.7653,41.3741,473.9865],[44.7603,41.3662,513.5607],[44.7454,41.3501,523.0992],[44.7131,41.3343,869.0969],[44.7011,41.3254,1014.2282],[44.6929,41.3163,963.1705],[44.6858,41.3177,997.9616],[44.6735,41.3275,916.6794],[44.6678,41.3349,953.191],[44.6631,41.3362,839.2658],[44.6598,41.3344,886.8706],[44.6527,41.3227,991.1105],[44.6476,41.3192,1089.4124],[44.6271,41.3176,1197.9033],[44.594,41.3057,920.1315],[44.5902,41.3025,937.2581],[44.5822,41.2844,1127.4574],[44.5737,41.2805,1179.1309],[44.5606,41.278,1150.3737],[44.5525,41.2739,1040.1216],[44.5514,41.2686,941.5282],[44.5518,41.233,1161.6477],[44.5563,41.2221,1187.1628],[44.5576,41.2072,1058.7325],[44.5608,41.2008,1156.5475],[44.5764,41.2037,1325.4614],[44.5797,41.1995,1283.194],[44.5796,41.1856,1444.4683],[44.59,41.1891,1534.5385],[44.5937,41.1927,1442.3215],[44.6002,41.2205,1215.5145],[44.6079,41.2334,1137.4763],[44.6109,41.235,1179.5468],[44.6284,41.2317,1072.1097],[44.6587,41.2322,966.4688],[44.6638,41.2303,963.0875],[44.6667,41.2245,1016.9722],[44.6723,41.2191,1145.0715],[44.678,41.2179,1145.0183],[44.7033,41.2205,767.1834],[44.7107,41.2167,880.3726],[44.7117,41.2082,1026.5577],[44.7171,41.2061,910.7065],[44.728,41.2084,757.0669],[44.7373,41.2144,703.7169],[44.7592,41.2154,713.0375],[44.7787,41.2204,616.459],[44.7868,41.2179,730.7249],[44.7945,41.221,766.5035],[44.8018,41.2216,638.9421],[44.8111,41.2198,514.2802],[44.8354,41.2109,620.4121],[44.8648,41.2113,523.5394],[44.8661,41.2156,456.6779],[44.8557,41.2225,450.0445],[44.8411,41.2287,435.5153],[44.8149,41.2351,427.5305],[44.7974,41.2576,419.9932],[44.7993,41.2708,403.9333],[44.8071,41.276,395.2926],[44.806,41.2794,394.3297],[44.8019,41.2834,394.2815],[44.8032,41.2881,388.8777],[44.809,41.2995,380.3329],[44.8161,41.3012,379.5557],[44.8321,41.2806,507.5346],[44.8498,41.2745,743.4243],[44.8664,41.2731,683.6983],[44.8817,41.2632,655.6817]]]]}
,"properties": {"GID_2": "GEO.6.4_1","GID_0": "GEO","country": "Georgia","GID_1": "GEO.6_1","province": "KvemoKartli","NL_NAME_1": "NA","county": "Marneuli","VARNAME_2": "NA","NL_NAME_2": "NA","TYPE_2": "Raioni","ENGTYPE_2": "District","CC_2": "NA","HASC_2": "GE.KK.MN","name": "Marneuli.county","area_km2": 947.5991,"hist_schema_id": "Elevation0-9000","hist_area_km2": {"250": 1.4803,"275": 27.5268,"300": 70.7564,"325": 101.2387,"350": 99.5641,"375": 83.3979,"400": 53.0001,"425": 39.6525,"450": 40.6972,"475": 41.6141,"500": 45.5555,"525": 38.6777,"550": 27.1593,"575": 23.5342,"600": 18.9279,"625": 17.798,"650": 14.4466,"675": 12.5872,"700": 11.2681,"725": 9.4428,"750": 8.2842,"775": 7.2184,"800": 7.5539,"825": 6.7091,"850": 6.3427,"875": 7.1234,"900": 7.1074,"925": 7.984,"950": 8.2548,"975": 8.7488,"1000": 9.7051,"1025": 9.4662,"1050": 9.1479,"1075": 9.5625,"1100": 8.7496,"1125": 8.2078,"1150": 6.8686,"1175": 6.2309,"1200": 5.657,"1225": 4.4458,"1250": 3.8879,"1275": 2.6452,"1300": 2.0876,"1325": 2.2469,"1350": 1.8488,"1375": 1.3389,"1400": 0.542,"1425": 0.4465,"1450": 0.2712,"1475": 0.2234,"1500": 0.1596,"1525": 0.1755,"1550": 0.0319}}}