{"type":"Feature","properties":{"GID_2":"GEO.4.5_1","GID_0":"GEO","country":"Georgia","GID_1":"GEO.4_1","province":"Imereti","NL_NAME_1":"NA","county":"Kutaisi","VARNAME_2":"NA","NL_NAME_2":"NA","TYPE_2":"K'alak'i","ENGTYPE_2":"City","CC_2":"NA","HASC_2":"GE.IM.KT","name":"Kutaisi.county"},
"geometry":{"type": "MultiPolygon","coordinates": [[[[42.7242,42.2457,111.7857],[42.7236,42.2551,160.0687],[42.7194,42.2638,197.5078],[42.718,42.2753,219.7409],[42.6928,42.2622,144.6558],[42.6849,42.2565,138.9022],[42.6821,42.2521,138.215],[42.6827,42.2491,139.6649],[42.7029,42.22,141.5323],[42.7097,42.2305,157.7681],[42.7242,42.2457,111.7857]]]]}}