{"type": "Feature","bbox": [43.6725,41.4674,44.2528,41.7342],"geometry": {"type": "MultiPolygon","coordinates": [[[[44.2528,41.5394,935.1339],[44.2508,41.5623,1065.8035],[44.237,41.5828,1348.057],[44.2355,41.5875,1494.0188],[44.2358,41.5997,1796.7964],[44.2409,41.6111,1700.8706],[44.2404,41.6199,1707.3518],[44.2375,41.6226,1804.6622],[44.2154,41.6316,1819.2045],[44.2096,41.6387,1623.0409],[44.2044,41.6504,1606.6057],[44.2061,41.6561,1615.218],[44.2205,41.6665,1660.9951],[44.2227,41.6698,1688.5779],[44.2109,41.6805,1700.7207],[44.1986,41.6946,1693.5426],[44.1981,41.7022,1708.6853],[44.2024,41.7104,1755.0555],[44.2043,41.7208,1797.4995],[44.2005,41.7229,1788.719],[44.1855,41.7283,1810.0325],[44.1597,41.7294,1772.2209],[44.1278,41.7182,1772.4033],[44.1099,41.7172,1787.8536],[44.098,41.7181,1806.1593],[44.0861,41.7212,1807.1494],[44.0565,41.722,1830.4325],[44.0417,41.7254,1946.3514],[43.9576,41.726,2244.0776],[43.9321,41.7335,2200.2886],[43.8862,41.7342,2131.2517],[43.8705,41.718,2011.406],[43.8298,41.6881,1699.0588],[43.8225,41.6842,1711.8477],[43.7977,41.6879,1753.4296],[43.7502,41.6989,1889.9102],[43.7279,41.699,2097.2349],[43.7171,41.6944,2157.8948],[43.7105,41.6807,2364.5247],[43.7099,41.6439,2171.1033],[43.6997,41.6167,2629.0767],[43.7003,41.6105,2602.7771],[43.7049,41.5997,2510.009],[43.7043,41.5644,2891.8679],[43.6971,41.5453,2764.5906],[43.6777,41.5375,2950.7349],[43.6739,41.5343,3083.7017],[43.6725,41.5221,2874.9207],[43.6731,41.515,2838.0984],[43.7497,41.5146,2564.3992],[43.7669,41.518,2427.8149],[43.7835,41.519,2327.9121],[43.8178,41.5293,2483.6196],[43.8278,41.5293,2409.2673],[43.8733,41.512,2213.0596],[43.8759,41.5088,2174.8169],[43.8765,41.5038,2149.6575],[43.8711,41.4912,2173.2639],[43.872,41.4831,2239.3398],[43.8758,41.4798,2311.865],[43.8917,41.4721,2195.5117],[43.9056,41.4674,2197.4595],[43.9295,41.4715,2236.1023],[43.9509,41.4791,2259.427],[43.9552,41.482,2178.3618],[43.9644,41.4936,2196.937],[43.9864,41.5016,1844.0773],[43.993899999999996,41.5011,1805.5129],[44.0215,41.4908,1607.3904],[44.0413,41.4861,1572.5123],[44.0544,41.486,1562.9448],[44.0669,41.4893,1539.0044],[44.0849,41.4905,1554.7932],[44.1073,41.5044,1563.1818],[44.1511,41.5108,1450.2345],[44.1779,41.5407,1368.7134],[44.1836,41.5438,1348.9512],[44.2239,41.5439,1473.0831],[44.2387,41.5405,1166.9794],[44.2528,41.5394,935.1339]]]]}
,"properties": {"GID_2": "GEO.6.6_1","GID_0": "GEO","country": "Georgia","GID_1": "GEO.6_1","province": "KvemoKartli","NL_NAME_1": "NA","county": "Tsalka","VARNAME_2": "NA","NL_NAME_2": "NA","TYPE_2": "Raioni","ENGTYPE_2": "District","CC_2": "NA","HASC_2": "GE.KK.TK","name": "Tsalka.county","area_km2": 1015.034,"hist_schema_id": "Elevation0-9000","hist_area_km2": {"875": 0.1904,"900": 0.5395,"925": 0.4125,"950": 0.7775,"975": 0.8409,"1000": 0.9678,"1025": 1.2059,"1050": 1.3011,"1075": 1.666,"1100": 1.9516,"1125": 1.9834,"1150": 2.0785,"1175": 2.4911,"1200": 2.38,"1225": 2.5704,"1250": 2.7291,"1275": 2.8402,"1300": 2.8719,"1325": 2.6815,"1350": 3.3638,"1375": 2.6656,"1400": 2.8559,"1425": 3.3162,"1450": 3.9821,"1475": 5.5994,"1500": 43.3758,"1525": 54.9422,"1550": 58.7298,"1575": 51.2469,"1600": 51.3884,"1625": 48.8475,"1650": 39.1623,"1675": 36.7051,"1700": 36.8401,"1725": 37.3569,"1750": 43.5474,"1775": 43.628,"1800": 35.9032,"1825": 29.2539,"1850": 23.5201,"1875": 22.9651,"1900": 18.6707,"1925": 15.6124,"1950": 12.9801,"1975": 10.8405,"2000": 10.5075,"2025": 10.0814,"2050": 10.6707,"2075": 15.8636,"2100": 16.4042,"2125": 13.9437,"2150": 10.3879,"2175": 9.9591,"2200": 9.1669,"2225": 9.992,"2250": 10.0714,"2275": 9.5005,"2300": 9.4044,"2325": 9.9109,"2350": 9.0228,"2375": 7.6282,"2400": 6.1068,"2425": 5.4723,"2450": 4.5048,"2475": 4.2033,"2500": 4.2984,"2525": 3.5849,"2550": 3.0615,"2575": 4.1406,"2600": 3.2204,"2625": 3.1885,"2650": 2.6175,"2675": 2.3955,"2700": 2.3959,"2725": 3.7287,"2750": 3.8718,"2775": 2.6342,"2800": 1.9674,"2825": 1.5074,"2850": 1.3488,"2875": 1.206,"2900": 1.095,"2925": 1.3014,"2950": 0.9682,"2975": 0.8095,"3000": 0.9048,"3025": 0.7619,"3050": 0.7143,"3075": 0.381,"3100": 0.1429,"3125": 0.0476,"3150": 0.0635,"3175": 0.0317,"3200": 0.0635}}}