{"type":"Feature","properties":{"ISO3166-1-Alpha-3":"GEO","country":"Georgia","fill":"#F0F","id":"3030","name":"Imereti"},
"geometry":{"type": "Polygon","coordinates": [[[42.63205,42.43545,738.0204],[42.63123,42.45679,1180.2188],[42.62337,42.47568,837.0873],[42.62306,42.50105,766.6991],[42.61438,42.5241,1255.7946],[42.59516,42.5234,1224.2955],[42.57697,42.5197,1010.3351],[42.52674,42.51715,1238.9918],[42.49635,42.49418,1045.0087],[42.48095,42.45979,925.2534],[42.46576,42.44976,884.0159],[42.45604,42.4341,639.7239],[42.45511,42.40496,177.2945],[42.44168,42.38142,158.2762],[42.3714,42.32145,101.926],[42.3282,42.26825,63.9591],[42.31672,42.24218,48.7294],[42.29802,42.2259,38.2303],[42.28799,42.18414,20.9003],[42.28934,42.13161,21.0633],[42.26867,42.10061,17.6924],[42.22898,42.0972,17.7788],[42.20603,42.07087,455.0704],[42.23032,42.04449,244.2516],[42.27993,42.038,310.2531],[42.29812,42.03395,156.1449],[42.31486,42.0379,142.6545],[42.34525,42.05263,195.9026],[42.38091,42.04622,328.4756],[42.40054,42.02245,639.6661],[42.41346,41.99315,956.2504],[42.4424,41.98033,815.4614],[42.47806,41.97243,969.5685],[42.50369,41.95803,1290.8412],[42.53118,41.94801,1046.9281],[42.5502,41.93909,1268.212],[42.57035,41.93186,1300.2683],[42.60198,41.93372,1666.1965],[42.63226,41.92742,1948.735],[42.64756,41.88406,2283.7744],[42.64962,41.83344,2656.3801],[42.71143,41.80587,2419.1587],[42.81706,41.82605,1920.4014],[42.90305,41.81238,1873.7731],[42.94811,41.81182,2206.5923],[42.9909,41.8252,1925.559],[43.09363,41.83202,2096.396],[43.11068,41.82732,2012.4154],[43.12742,41.82543,2207.991],[43.42622,41.91661,1480.0303],[43.43345,41.95537,987.6047],[43.46952,41.9793,923.1],[43.48472,42.01514,997.5233],[43.48885,42.05738,1057.0406],[43.51665,42.07816,1182.082],[43.549,42.09629,1197.7163],[43.56729,42.12213,1065.2987],[43.58073,42.15112,1136.2921],[43.59634,42.16079,1101.6394],[43.60305,42.1661,1114.3463],[43.60822,42.17019,958.2803],[43.61391,42.19629,975.0373],[43.60771,42.22812,1251.7156],[43.61256,42.2458,1180.7318],[43.61587,42.25783,1095.9619],[43.63622,42.26858,1287.8651],[43.68346,42.29354,1340.0326],[43.76015,42.30899,1388.7236],[43.76087,42.34171,1535.3644],[43.77276,42.37398,1672.6995],[43.75013,42.394,1729.3333],[43.71829,42.3908,1799.6521],[43.6907,42.37951,1296.2102],[43.66166,42.37426,1005.1349],[43.6228,42.37871,1155.5333],[43.58745,42.39473,1580.4406],[43.56646,42.40045,1715.5818],[43.50198,42.41803,1418.7908],[43.39997,42.41186,1171.5114],[43.29393,42.42038,1345.8142],[43.19894,42.38361,1557.9735],[43.1638,42.35721,1096.5587],[43.12164,42.34434,943.1582],[43.05001,42.33959,1011.5146],[43.00237,42.35943,591.4708],[42.98097,42.36238,738.3996],[42.95607,42.37726,825.4545],[42.94335,42.40868,1030.2189],[42.89261,42.44374,741.9678],[42.83742,42.46976,867.1449],[42.81261,42.46914,812.4205],[42.79049,42.45265,818.1977],[42.76424,42.4542,359.3088],[42.73902,42.46201,745.6862],[42.63205,42.43545,738.0204]]]}}