{"type":"Feature","properties":{"GID_1":"GEO.4_1","GID_0":"GEO","country":"Georgia","province":"Imereti","VARNAME_1":"Kutaisi","NL_NAME_1":"NA","TYPE_1":"Region","ENGTYPE_1":"Region","CC_1":"NA","HASC_1":"GE.IM","ISO_1":"GE-IM","name":"Imereti.province"},
"geometry":{"type": "MultiPolygon","coordinates": [[[[42.6455,41.8526,2203.0234],[42.6485,41.8469,2348.1851],[42.6497,41.8335,2656.3801],[42.6669,41.8203,2498.6533],[42.6737,41.8121,2231.4771],[42.6783,41.8097,2085.7561],[42.6957,41.8092,2242.8025],[42.7179,41.8019,2241.7578],[42.7451,41.8025,2201.4043],[42.7674,41.8167,2132.7437],[42.8051,41.8289,1935.7458],[42.8295,41.8283,2019.1487],[42.8519,41.8211,2008.5814],[42.8925,41.8204,2081.1135],[42.9241,41.8093,2012.085],[42.9446,41.8091,2155.7075],[42.9605,41.8195,2350.822],[42.9782,41.8209,2034.9485],[42.9926,41.8241,1934.7626],[43.0198,41.8244,1794.0752],[43.0342,41.8277,2000.0701],[43.0679,41.8281,2065.6975],[43.081,41.8312,2205.3796],[43.0996,41.833,2037.041],[43.1231,41.824,2276.6936],[43.1962,41.85,1714.761],[43.2606,41.8654,1665.2686],[43.2768,41.8674,1524.4386],[43.2982,41.8752,1730.1586],[43.3119,41.884,1797.2068],[43.3237,41.8885,1390.3027],[43.3614,41.8942,1389.8219],[43.3815,41.9073,1196.7839],[43.3934,41.9118,1411.1956],[43.4262,41.9167,1480.0303],[43.4253,41.9233,1522.1389],[43.4213,41.9307,1649.3853],[43.4207,41.9379,1282.915],[43.4219,41.9439,934.2979],[43.4271,41.9518,1055.652],[43.4426,41.9639,1140.5706],[43.4812,41.9849,864.6799],[43.4846,41.9885,943.4764],[43.4853,42.0486,1156.9528],[43.4896,42.0591,1064.332],[43.4906,42.0657,1066.4451],[43.5331,42.0819,1115.7725],[43.5404,42.0864,1068.6228],[43.5466,42.0941,1189.5887],[43.5587,42.1042,1167.4316],[43.5641,42.112,1042.7271],[43.5701,42.1255,1009.9012],[43.5721,42.1357,1010.6],[43.5825,42.1553,1130.0425],[43.5875,42.1589,1152.7053],[43.6079,42.1663,1065.9265],[43.6091,42.177,1040.2114],[43.6137,42.1871,895.0051],[43.6139,42.2083,1201.434],[43.6131,42.2132,1179.5229],[43.6042,42.2305,1225.5991],[43.6035,42.235,1204.7267],[43.6095,42.2495,1179.2114],[43.6142,42.2565,1076.9363],[43.6197,42.2609,1155.4019],[43.6404,42.2691,1280.0151],[43.6489,42.2758,1172.3176],[43.6564,42.2848,1415.7163],[43.6667,42.2915,1705.5576],[43.7032,42.2932,1320.6836],[43.7269,42.3034,1328.1351],[43.7602,42.3091,1388.7236],[43.7539,42.3211,1489.432],[43.7536,42.3296,1408.7017],[43.7627,42.3438,1579.6567],[43.7736,42.3672,1462.1288],[43.7737,42.3746,1671.0201],[43.7626,42.3896,1758.4646],[43.7489,42.3945,1729.3333],[43.7257,42.3936,1826.3296],[43.7149,42.3896,1827.3621],[43.6992,42.3798,1185.812],[43.6789,42.3724,1016.507],[43.6728,42.3715,941.7564],[43.6591,42.3749,920.0312],[43.6343,42.3756,1018.6517],[43.609,42.3803,895.0805],[43.5875,42.3948,1580.4406],[43.5739,42.3957,1724.0143],[43.5501,42.4002,1833.2117],[43.4996,42.4187,1335.5834],[43.487,42.4187,1244.0085],[43.4338,42.4076,948.4377],[43.3959,42.4124,931.7256],[43.3696,42.4194,1294.5085],[43.3143,42.4198,1186.4463],[43.2882,42.4155,1259.5647],[43.2536,42.4158,1448.4624],[43.2427,42.4055,1150.5107],[43.2051,42.3913,1624.2357],[43.1894,42.3724,1280.6407],[43.1761,42.3633,1028.0898],[43.159,42.355,1006.2413],[43.1471,42.3508,1027.1647],[43.132,42.3491,1049.866],[43.1217,42.3444,943.1582],[43.1048,42.3461,900.0417],[43.0911,42.3428,804.673],[43.0742,42.3418,775.087],[43.0597,42.3332,773.2762],[43.0553,42.3325,811.2883],[43.0196,42.3532,612.4468],[42.9982,42.3612,602.8438],[42.9616,42.3637,649.5123],[42.9553,42.3755,811.4766],[42.9539,42.3928,1070.9869],[42.9461,42.4079,1079.9415],[42.8985,42.4429,790.4519],[42.8791,42.4523,879.3235],[42.8671,42.4551,695.7934],[42.8651,42.4567,805.6982],[42.8523,42.4585,772.4665],[42.8444,42.4638,903.6874],[42.8381,42.4711,874.0951],[42.8193,42.4767,863.9091],[42.8135,42.4767,919.998],[42.8098,42.4737,905.3789],[42.8027,42.4549,654.4944],[42.7773,42.4497,776.0545],[42.7665,42.4509,500.1506],[42.7493,42.4611,434.9953],[42.7367,42.4624,748.22],[42.7267,42.4655,765.846],[42.7165,42.4657,1028.0884],[42.7103,42.4628,943.1829],[42.7012,42.4497,926.3253],[42.6959,42.4464,732.2375],[42.6529,42.4351,866.2709],[42.6321,42.4355,738.0204],[42.6329,42.4628,1399.8055],[42.6312,42.4665,1322.8448],[42.6236,42.4743,920.3699],[42.6222,42.4802,704.2613],[42.6229,42.4913,363.0576],[42.6276,42.5007,663.5721],[42.6277,42.5099,584.3762],[42.6253,42.5146,786.947],[42.6144,42.5242,1255.7946],[42.5878,42.5248,1188.472],[42.5748,42.5187,976.9753],[42.5683,42.5174,977.4541],[42.5293,42.5177,1257.5315],[42.5201,42.5164,1192.5579],[42.516,42.5133,1187.0093],[42.5058,42.4991,1189.4745],[42.4909,42.4918,1046.8898],[42.4847,42.4869,1029.4009],[42.4828,42.4789,1007.9149],[42.4832,42.4641,967.0942],[42.4814,42.4584,918.4666],[42.4772,42.4555,901.3034],[42.4611,42.45,895.4009],[42.4573,42.4468,728.8834],[42.456,42.4401,549.1954],[42.4564,42.3982,442.4404],[42.4546,42.3916,291.7603],[42.438,42.3786,155.8373],[42.4261,42.3662,144.9744],[42.4075,42.3528,132.9015],[42.3945,42.3469,123.4256],[42.3835,42.3387,116.4009],[42.3587,42.3025,88.9015],[42.3507,42.2949,83.9628],[42.342,42.2821,74.8811],[42.3238,42.2635,61.7543],[42.3147,42.2508,52.5556],[42.3172,42.2396,48.4693],[42.3158,42.2298,42.896],[42.3129,42.2281,41.0825],[42.2886,42.2238,34.1937],[42.2858,42.222,33.0672],[42.2851,42.2182,31.5],[42.289,42.2108,30.8461],[42.29,42.2054,27.3587],[42.2901,42.1347,21.8835],[42.2892,42.1271,21.441],[42.2854,42.1193,20.8278],[42.2835,42.1066,16.6822],[42.2788,42.1028,22.4406],[42.2614,42.095,68.3344],[42.2366,42.0982,18.537],[42.229,42.0972,17.7788],[42.2208,42.0939,21.2174],[42.2109,42.0879,143.2635],[42.2053,42.0826,91.371],[42.2039,42.0705,479.4089],[42.2159,42.0518,226.3878],[42.2208,42.0481,225.5486],[42.2341,42.0437,226.1252],[42.2682,42.0425,440.502],[42.2945,42.0314,198.9498],[42.3101,42.0325,166.1554],[42.3222,42.0485,159.2017],[42.3271,42.0508,168.6326],[42.3605,42.0506,248.0091],[42.3866,42.0449,337.5739],[42.4014,42.0228,657.0898],[42.4034,42.0127,895.5689],[42.4091,41.9999,940.6638],[42.4201,41.9849,554.764],[42.4491,41.9831,954.5717],[42.4729,41.9747,889.161],[42.4859,41.9693,1074.2266],[42.5078,41.9538,971.0598],[42.5372,41.9466,1128.9304],[42.5597,41.9326,1327.8224],[42.6159,41.9321,1608.192],[42.6283,41.9304,1781.5378],[42.6419,41.9167,1841.4315],[42.6437,41.9126,2043.1324],[42.6437,41.8655,2236.8896],[42.6455,41.8526,2203.0234]]]]}}