{"type":"Feature","properties":{"GID_2":"GEO.4.7_1","GID_0":"GEO","country":"Georgia","GID_1":"GEO.4_1","province":"Imereti","NL_NAME_1":"NA","county":"Samtredia","VARNAME_2":"NA","NL_NAME_2":"NA","TYPE_2":"Raioni","ENGTYPE_2":"District","CC_2":"NA","HASC_2":"GE.IM.SM","name":"Samtredia.county"},
"geometry":{"type": "MultiPolygon","coordinates": [[[[42.3866,42.0449,337.5739],[42.3873,42.0651,305.7657],[42.3907,42.0686,343.3436],[42.4002,42.0731,200.5833],[42.4025,42.0781,147.6662],[42.4012,42.0826,102.5272],[42.3931,42.0943,107.5798],[42.3909,42.1038,23.5587],[42.3871,42.1107,22.8142],[42.3871,42.1149,22.8424],[42.3892,42.1169,22.962],[42.4196,42.1171,28.5536],[42.4423,42.1129,31.2774],[42.4825,42.0987,35.3053],[42.5022,42.0937,69.549],[42.5151,42.0933,48.1351],[42.5205,42.0973,42.0283],[42.5162,42.1054,40.6784],[42.5157,42.1101,41.0984],[42.5243,42.1239,42.4849],[42.5247,42.1261,41.6605],[42.5228,42.1282,41.6359],[42.4912,42.1336,32.9773],[42.4887,42.1365,37.778],[42.4878,42.1456,37.4479],[42.4832,42.1484,38.5888],[42.462,42.1479,31.0257],[42.4459,42.1421,30.0658],[42.4419,42.1443,29.1612],[42.4544,42.1629,35.3019],[42.4609,42.1671,37.0825],[42.4835,42.1763,44.4419],[42.4977,42.1951,53.9484],[42.4991,42.2033,56.3475],[42.4943,42.2134,57.2982],[42.4933,42.2253,57.9229],[42.4738,42.22,53.053],[42.4516,42.2301,57.5523],[42.4415,42.2312,57.9982],[42.4265,42.2278,57.6525],[42.4097,42.2267,54.226],[42.385,42.2201,47.4305],[42.3774,42.2201,47.4142],[42.3643,42.2247,47.9487],[42.3543,42.2314,48.7508],[42.3461,42.2381,51.0785],[42.3369,42.25,54.8275],[42.3301,42.2514,56.8499],[42.3147,42.2508,52.5556],[42.3172,42.2396,48.4693],[42.3158,42.2298,42.896],[42.3129,42.2281,41.0825],[42.2886,42.2238,34.1937],[42.2851,42.2202,33.0957],[42.29,42.2054,27.3587],[42.2901,42.1347,21.8835],[42.2892,42.1271,21.441],[42.2854,42.1193,20.8278],[42.2835,42.1066,16.6822],[42.2788,42.1028,22.4406],[42.2614,42.095,68.3344],[42.2366,42.0982,18.537],[42.229,42.0972,17.7788],[42.2208,42.0939,21.2174],[42.2109,42.0879,143.2635],[42.2053,42.0826,91.371],[42.2039,42.0705,479.4089],[42.2159,42.0518,226.3878],[42.2208,42.0481,225.5486],[42.2341,42.0437,226.1252],[42.2682,42.0425,440.502],[42.2945,42.0314,198.9498],[42.3101,42.0325,166.1554],[42.3222,42.0485,159.2017],[42.3271,42.0508,168.6326],[42.3605,42.0506,248.0091],[42.3866,42.0449,337.5739]]]]}}