{"type":"Feature","properties":{"GID_2":"GEO.1.3_1","GID_0":"GEO","country":"Georgia","GID_1":"GEO.1_1","province":"Abkhazia","NL_NAME_1":"NA","county":"Gudauta","VARNAME_2":"NA","NL_NAME_2":"NA","TYPE_2":"Raioni","ENGTYPE_2":"District","CC_2":"NA","HASC_2":"GE.AB.GT","name":"Gudauta.county"},
"geometry":{"type": "MultiPolygon","coordinates": [[[[40.4255,43.1604,8.0897],[40.4357,43.1535,0.0],[40.4426,43.1521,42.5756],[40.4487,43.1529,29.3698],[40.4585,43.1493,0.928],[40.4643,43.146,0.0],[40.4701,43.1396,1.2187],[40.4801,43.1437,0.0],[40.4901,43.1413,2.873],[40.5043,43.144,8.8972],[40.5137,43.1437,0.0],[40.5201,43.1418,1.6435],[40.5335,43.1326,0.7651],[40.5401,43.1299,4.1174],[40.5624,43.104,2.8918],[40.5662,43.1029,5.905],[40.574,43.0937,0.0],[40.5812,43.091,0.882],[40.6096,43.0921,1.2199],[40.6449,43.1012,3.617],[40.6582,43.0985,2.5637],[40.6685,43.0924,1.5962],[40.6832,43.0876,0.4197],[40.6924,43.0865,0.2981],[40.7029,43.0876,2.6263],[40.7226,43.0857,20.3934],[40.7357,43.0876,8.7703],[40.7546,43.0879,2.1261],[40.7796,43.0854,0.7514],[40.7924,43.0818,0.0],[40.8037,43.0846,8.5344],[40.8224,43.0832,2.5579],[40.8357,43.081,6.6114],[40.8454,43.0774,5.1077],[40.8654,43.0754,1.4889],[40.8804,43.0654,0.519],[40.8951,43.0494,1.1339],[40.9149,43.0643,149.2218],[40.9285,43.0803,452.218],[40.9289,43.0897,657.477],[40.9245,43.0993,558.277],[40.9227,43.1155,1205.1498],[40.9163,43.1177,1240.0828],[40.8953,43.1177,1258.3867],[40.8929,43.1213,1066.1528],[40.9061,43.1407,1039.0208],[40.9075,43.1489,797.8673],[40.9035,43.1573,976.1226],[40.9017,43.1703,1479.3293],[40.8997,43.1739,1102.4305],[40.8751,43.1925,1239.8816],[40.8717,43.1961,1333.5244],[40.8657,43.2085,976.1066],[40.8645,43.2153,902.5628],[40.8647,43.2453,813.0355],[40.8623,43.2527,860.3461],[40.8291,43.2813,1500.7721],[40.8217,43.2831,1184.9794],[40.8113,43.2831,1170.5681],[40.7961,43.2793,1029.5544],[40.7805,43.2797,1005.9604],[40.7401,43.2905,1837.6311],[40.7373,43.2927,1895.2744],[40.7359,43.2967,2112.2876],[40.7375,43.3073,2070.2217],[40.7431,43.3151,1580.8113],[40.7565,43.3267,1755.8394],[40.7725,43.3503,2085.9932],[40.7737,43.3607,1458.7119],[40.7693,43.3709,1124.0179],[40.7667,43.3857,473.0618],[40.7427,43.4211,1409.1156],[40.7407,43.4275,1619.366],[40.7215,43.4559,2107.7915],[40.7211,43.4595,2013.8877],[40.7353,43.4715,1534.5654],[40.7431,43.4753,1472.4739],[40.7745,43.4757,1395.04],[40.7819,43.4779,1838.5784],[40.7937,43.4867,1811.8467],[40.8023,43.4987,2518.4482],[40.7741,43.5087,2478.7783],[40.7551,43.5205,2518.4836],[40.7317,43.5295,2561.4268],[40.7111,43.5311,2678.667],[40.6937,43.5351,2730.269],[40.6881,43.5386,2755.689],[40.6775,43.5527,2927.9702],[40.6689,43.5583,2723.2231],[40.6629,43.5593,2641.4927],[40.6523,43.5595,2589.7004],[40.6355,43.5509,2435.2725],[40.62,43.5479,2296.1228],[40.612,43.544,2098.7207],[40.5871,43.5223,1996.4917],[40.5719,43.5161,2338.1729],[40.564,43.5166,2357.6479],[40.5071,43.5294,2700.9241],[40.5057,43.4965,1667.4429],[40.5031,43.4931,1689.6339],[40.4937,43.4925,1567.0281],[40.4837,43.4957,2002.2461],[40.4715,43.4969,1776.4108],[40.4641,43.4951,1584.8773],[40.4623,43.4915,1298.7092],[40.4651,43.4837,1332.7902],[40.4753,43.4791,1519.6499],[40.4825,43.4733,1793.5891],[40.4841,43.4687,1943.5918],[40.4845,43.4565,1884.8004],[40.4885,43.4485,1774.1567],[40.4905,43.4309,852.5719],[40.4999,43.4051,1538.5835],[40.4963,43.3977,1435.7627],[40.4937,43.3867,1402.291],[40.4885,43.3789,1067.5244],[40.4755,43.3647,386.1424],[40.4537,43.3479,1472.7224],[40.4477,43.3389,1149.5232],[40.4453,43.3283,1081.9713],[40.4415,43.3205,716.0678],[40.4409,43.2947,1510.1514],[40.4261,43.2719,1324.8706],[40.4257,43.2671,1227.9597],[40.4345,43.2457,608.022],[40.4347,43.2417,424.073],[40.4207,43.2205,81.5841],[40.4099,43.1971,164.9087],[40.4091,43.1919,160.9537],[40.4191,43.1775,88.7107],[40.4255,43.1604,8.0897]]]]}}