{"type":"Feature","properties":{"GID_2":"GEO.2.3_1","GID_0":"GEO","country":"Georgia","GID_1":"GEO.2_1","province":"Ajaria","NL_NAME_1":"NA","county":"Khulo","VARNAME_2":"NA","NL_NAME_2":"NA","TYPE_2":"Raioni","ENGTYPE_2":"District","CC_2":"NA","HASC_2":"GE.AJ.KL","name":"Khulo.county"},
"geometry":{"type": "MultiPolygon","coordinates": [[[[42.5113,41.4669,2558.6072],[42.5101,41.4686,2553.689],[42.5161,41.4792,2389.624],[42.5304,41.4863,2237.248],[42.5316,41.4916,2230.9399],[42.5358,41.4943,2173.5107],[42.5489,41.4935,2161.1699],[42.556399999999996,41.5045,2218.832],[42.5628,41.5088,2178.95],[42.5695,41.5109,2392.9148],[42.5682,41.5221,2372.283],[42.5652,41.5253,2368.4358],[42.5775,41.5444,2387.9143],[42.5787,41.5503,2454.7046],[42.5781,41.5618,2434.6423],[42.5799,41.5661,2450.8276],[42.5841,41.5702,2362.8262],[42.5893,41.5725,2519.3188],[42.5753,41.6025,2128.7993],[42.5717,41.6153,1921.4547],[42.5497,41.6323,1791.1907],[42.5391,41.6475,2139.3105],[42.5319,41.6523,2286.0659],[42.5121,41.6603,2334.0371],[42.5081,41.6657,2308.2271],[42.4953,41.6767,2010.7578],[42.4836,41.6942,2037.0469],[42.4775,41.7086,2279.0969],[42.4779,41.7182,2384.3472],[42.4807,41.7225,2224.1826],[42.4984,41.7372,2090.7212],[42.4991,41.764,1530.2048],[42.4979,41.771,1663.8514],[42.4841,41.7914,1933.5284],[42.4817,41.7987,2078.9958],[42.4471,41.7989,2064.5774],[42.4395,41.8002,2160.1855],[42.4355,41.8033,2218.3242],[42.4216,41.824,2279.7185],[42.4021,41.8377,2088.6235],[42.3721,41.8387,1940.5414],[42.3643,41.8374,2184.4192],[42.3496,41.8282,2135.8313],[42.3301,41.8208,2592.2703],[42.3061,41.8035,2586.9963],[42.3063,41.7626,1966.1068],[42.305,41.7568,1623.5095],[42.2825,41.743,1973.3853],[42.2654,41.7196,1611.4757],[42.2466,41.7125,1447.6786],[42.243,41.7092,1431.2065],[42.2429,41.7057,1583.2839],[42.2463,41.6995,1770.2686],[42.2514,41.6831,1454.6206],[42.2491,41.6797,1329.7822],[42.2389,41.6718,1334.4624],[42.2373,41.6674,1552.1858],[42.2518,41.6454,908.8612],[42.2528,41.6301,757.2411],[42.2572,41.6209,578.8704],[42.2585,41.6085,1008.8747],[42.2654,41.5981,1378.5231],[42.2775,41.5893,1387.3265],[42.3334,41.5665,1443.1414],[42.3751,41.5452,1928.0336],[42.4032,41.5349,2048.7056],[42.4393,41.5095,2197.9602],[42.4699,41.4999,2142.8032],[42.4838,41.4731,2292.5359],[42.4944,41.4649,2519.2007],[42.5113,41.4669,2558.6072]]]]}}