{"type":"Feature","properties":{"GID_2":"GEO.11.2_1","GID_0":"GEO","country":"Georgia","GID_1":"GEO.11_1","province":"ShidaKartli","NL_NAME_1":"NA","county":"Java","VARNAME_2":"NA","NL_NAME_2":"NA","TYPE_2":"Raioni","ENGTYPE_2":"District","CC_2":"NA","HASC_2":"GE.SD.JV","name":"Java.county"},
"geometry":{"type": "MultiPolygon","coordinates": [[[[43.7602,42.3091,1388.7236],[43.7717,42.3085,1177.1995],[43.7818,42.3112,1410.3125],[43.8159,42.3152,1287.5411],[43.8348,42.3082,1580.2905],[43.849,42.2971,1279.6257],[43.8703,42.2892,1274.3091],[43.8751,42.2887,1261.3176],[43.8918,42.2936,1480.996],[43.9041,42.311,1367.6809],[43.9082,42.3141,1184.5723],[43.9422,42.3209,1053.7467],[43.9599,42.3403,1139.2926],[43.9733,42.3457,1306.8876],[44.0182,42.346,1416.7195],[44.0521,42.3346,1421.7217],[44.0765,42.3385,1683.7454],[44.0797,42.3408,1842.6995],[44.0804,42.3451,1964.7617],[44.075,42.3571,1817.5386],[44.0751,42.3674,1618.3237],[44.0894,42.3875,2062.5962],[44.1009,42.392,2094.5032],[44.1194,42.3964,2244.1768],[44.1472,42.3975,2118.105],[44.1494,42.3994,2117.1897],[44.1563,42.416,2637.4612],[44.169,42.4342,2837.7075],[44.177,42.4392,2884.6592],[44.2082,42.4504,2536.3652],[44.2212,42.4516,2536.1421],[44.2914,42.4514,2237.3821],[44.2966,42.4562,2299.5891],[44.309,42.4625,2875.7534],[44.311,42.4764,2941.5544],[44.3136,42.4807,2921.0],[44.3344,42.4948,3183.7603],[44.3284,42.5017,3137.7581],[44.3256,42.5097,3063.647],[44.3207,42.5162,3134.0981],[44.3112,42.5206,3120.6208],[44.2986,42.5236,2954.5522],[44.2854,42.5371,2939.5659],[44.2792,42.5468,2501.2441],[44.2785,42.5607,2952.2146],[44.2768,42.564,2839.8384],[44.2594,42.5689,2553.8931],[44.2307,42.5701,2682.7729],[44.2073,42.5864,2939.4204],[44.1939,42.6052,2375.0972],[44.1919,42.6154,2628.8027],[44.1879,42.6232,3004.2961],[44.1754,42.6212,2942.7112],[44.1585,42.6138,2925.1816],[44.1489,42.6114,2965.5854],[44.1346,42.6104,2852.3364],[44.1198,42.6147,2840.5916],[44.1133,42.615,2732.8428],[44.104,42.614,3029.6868],[44.0601,42.6027,2718.2495],[44.0347,42.605,2642.241],[44.026,42.6019,2802.9102],[44.0163,42.5956,2831.6953],[43.9711,42.5617,3253.1226],[43.9558,42.5584,3052.6453],[43.9481,42.5585,3449.7534],[43.9312,42.5648,3233.8804],[43.9085,42.57,3054.4189],[43.9096,42.564,2849.8506],[43.919,42.544,3190.0527],[43.9132,42.5247,2281.6714],[43.9076,42.5122,2441.5195],[43.9038,42.5089,2174.4819],[43.8866,42.5027,2568.7056],[43.8761,42.4969,2008.3257],[43.8403,42.4835,2204.5212],[43.8347,42.4764,1958.0029],[43.8321,42.4644,2053.2759],[43.827,42.458,1747.3186],[43.8193,42.4546,1630.0065],[43.8032,42.4526,1799.6074],[43.7767,42.4459,2045.1327],[43.7474,42.4454,2099.8083],[43.7323,42.442,1741.212],[43.6663,42.4418,2147.8987],[43.6174,42.4311,1576.7228],[43.6036,42.4298,1734.939],[43.5941,42.4255,1767.6388],[43.5874,42.4077,1137.2072],[43.5875,42.3948,1580.4406],[43.6025,42.3837,940.2872],[43.6102,42.38,895.0805],[43.6343,42.3756,1018.6517],[43.6591,42.3749,920.0312],[43.6728,42.3715,941.7564],[43.6789,42.3724,1016.507],[43.6992,42.3798,1185.812],[43.7149,42.3896,1827.3621],[43.7281,42.3942,1935.528],[43.7489,42.3945,1729.3333],[43.7626,42.3896,1758.4646],[43.7727,42.3762,1692.6978],[43.7744,42.3709,1484.0605],[43.7627,42.3438,1579.6567],[43.7536,42.3296,1408.7017],[43.7539,42.3211,1489.432],[43.7602,42.3091,1388.7236]]]]}}