{"type":"Feature","properties":{"GID_2":"GEO.4.4_1","GID_0":"GEO","country":"Georgia","GID_1":"GEO.4_1","province":"Imereti","NL_NAME_1":"NA","county":"Khoni","VARNAME_2":"Xoni","NL_NAME_2":"ხონი","TYPE_2":"Raioni","ENGTYPE_2":"District","CC_2":"NA","HASC_2":"GE.IM.KN","name":"Khoni.county"},
"geometry":{"type": "MultiPolygon","coordinates": [[[[42.4933,42.2253,57.9229],[42.4979,42.2313,62.2557],[42.5041,42.2515,67.2319],[42.489,42.2754,78.4642],[42.4885,42.2907,90.6885],[42.4915,42.2961,93.6304],[42.5023,42.3077,90.1043],[42.5355,42.3332,116.8316],[42.5369,42.3401,134.8366],[42.5365,42.3533,117.1614],[42.527,42.3682,134.4483],[42.5275,42.3727,136.287],[42.5307,42.3753,133.1509],[42.5533,42.3831,148.8442],[42.5833,42.3883,260.6596],[42.6093,42.3959,392.2708],[42.6159,42.4075,606.671],[42.6182,42.4147,617.8102],[42.6321,42.4355,738.0204],[42.6329,42.4628,1399.8055],[42.6312,42.4665,1322.8448],[42.6236,42.4743,920.3699],[42.6222,42.4802,704.2613],[42.6229,42.4913,363.0576],[42.6276,42.5007,663.5721],[42.6277,42.5099,584.3762],[42.6253,42.5146,786.947],[42.6144,42.5242,1255.7946],[42.5878,42.5248,1188.472],[42.5748,42.5187,976.9753],[42.5683,42.5174,977.4541],[42.5211,42.5168,1202.7992],[42.516,42.5133,1187.0093],[42.5058,42.4991,1189.4745],[42.4862,42.4885,1047.5427],[42.4831,42.483,1031.5415],[42.4832,42.4641,967.0942],[42.4819,42.4592,935.9543],[42.4772,42.4555,901.3034],[42.4611,42.45,895.4009],[42.4565,42.445,688.9426],[42.4564,42.3982,442.4404],[42.4546,42.3916,291.7603],[42.438,42.3786,155.8373],[42.4261,42.3662,144.9744],[42.4075,42.3528,132.9015],[42.3945,42.3469,123.4256],[42.3835,42.3387,116.4009],[42.3587,42.3025,88.9015],[42.3507,42.2949,83.9628],[42.342,42.2821,74.8811],[42.3238,42.2635,61.7543],[42.3147,42.2508,52.5556],[42.3301,42.2514,56.8499],[42.3369,42.25,54.8275],[42.3461,42.2381,51.0785],[42.3543,42.2314,48.7508],[42.3643,42.2247,47.9487],[42.3774,42.2201,47.4142],[42.385,42.2201,47.4305],[42.4097,42.2267,54.226],[42.4265,42.2278,57.6525],[42.4415,42.2312,57.9982],[42.4516,42.2301,57.5523],[42.4738,42.22,53.053],[42.4933,42.2253,57.9229]]]]}}