{"type":"Feature","properties":{"GID_2":"GEO.6.3_1","GID_0":"GEO","country":"Georgia","GID_1":"GEO.6_1","province":"KvemoKartli","NL_NAME_1":"NA","county":"Gardabani","VARNAME_2":"NA","NL_NAME_2":"NA","TYPE_2":"Raioni","ENGTYPE_2":"District","CC_2":"NA","HASC_2":"GE.KK.GD","name":"Gardabani.county"},
"geometry":{"type": "MultiPolygon","coordinates": [[[[45.33,41.4614,660.5121],[45.3272,41.4692,737.3848],[45.3085,41.4965,678.9198],[45.3086,41.5001,715.9999],[45.3158,41.5111,830.2449],[45.3117,41.5169,802.6166],[45.2896,41.5313,695.8762],[45.2722,41.5354,623.9363],[45.2474,41.5361,526.3271],[45.2347,41.5393,506.0355],[45.2168,41.5407,454.8928],[45.2116,41.5442,445.225],[45.2011,41.5599,440.5902],[45.2004,41.5683,459.3591],[45.2048,41.5765,483.5468],[45.2051,41.5811,496.9815],[45.1903,41.6031,583.6508],[45.19,41.6095,630.7661],[45.2254,41.6415,865.884],[45.2314,41.6518,824.2356],[45.228,41.659,817.5136],[45.2261,41.6682,763.9149],[45.2175,41.6856,684.2707],[45.2153,41.6958,656.4406],[45.2114,41.7032,663.1979],[45.2102,41.7272,726.5681],[45.196,41.7485,777.9584],[45.1891,41.7652,903.1378],[45.1858,41.7675,878.4294],[45.1783,41.7681,755.3445],[45.1563,41.7677,815.9477],[45.1425,41.7642,804.3048],[45.1343,41.7658,817.3604],[45.1234,41.7804,913.3142],[45.1116,41.7904,1015.6653],[45.1001,41.8031,1026.6243],[45.0853,41.8246,1329.0397],[45.0662,41.8375,1476.0996],[45.0437,41.8291,1344.7129],[45.0257,41.835,1267.0381],[44.9928,41.836,1318.5354],[44.9599,41.8463,1242.9392],[44.953,41.8462,1326.4688],[44.9285,41.8205,1177.1907],[44.923,41.8127,1180.8021],[44.9215,41.8072,1047.3381],[44.9215,41.7926,966.9689],[44.9198,41.7881,889.7695],[44.9005,41.7733,838.7203],[44.8922,41.7698,790.9039],[44.8862,41.7631,763.7236],[44.8748,41.7545,714.4968],[44.8585,41.7467,538.5],[44.8526,41.7416,538.5],[44.8518,41.738,565.3181],[44.8533,41.7348,575.3754],[44.8717,41.727,606.1591],[44.8763,41.7234,557.6047],[44.8831,41.7139,544.8918],[44.8886,41.705,521.9678],[44.8894,41.6859,446.1942],[44.8917,41.6816,433.4988],[44.9112,41.6716,424.0305],[44.9326,41.6637,420.4448],[44.9639,41.6635,465.7213],[44.9774,41.6724,494.9165],[44.9866,41.6859,535.9484],[44.9906,41.689,544.3508],[45.0025,41.6905,540.552],[45.0161,41.689,528.9788],[45.0168,41.6859,550.5001],[45.0081,41.6652,502.8418],[45.0061,41.655,481.7238],[44.9964,41.6413,455.4929],[44.9865,41.6361,440.3807],[44.9626,41.6279,362.2366],[44.9406,41.627,352.8559],[44.9277,41.6238,363.1141],[44.9194,41.6235,366.9495],[44.9101,41.6248,380.5187],[44.8608,41.643,551.7969],[44.8201,41.6446,728.6118],[44.8007,41.654,951.5441],[44.7763,41.6706,782.0339],[44.7583,41.6719,826.0122],[44.7445,41.6753,909.5099],[44.6993,41.6762,1346.0186],[44.6976,41.6799,1225.7893],[44.7055,41.6944,941.4316],[44.7057,41.6975,928.8071],[44.6962,41.7026,881.2641],[44.6807,41.7055,733.1006],[44.662,41.6866,879.5817],[44.657,41.6841,886.0823],[44.6446,41.6836,950.0934],[44.6276,41.6875,945.7878],[44.6122,41.6873,859.8894],[44.6016,41.6734,1098.5836],[44.5846,41.6651,1212.8093],[44.5794,41.6596,1276.9843],[44.5849,41.645,1219.6235],[44.5959,41.6299,962.7708],[44.6069,41.6254,1076.6797],[44.6231,41.6215,996.7693],[44.6475,41.621,876.8522],[44.6647,41.6246,834.2585],[44.6973,41.6248,1012.3494],[44.7129,41.6284,970.205],[44.7281,41.6276,1153.283],[44.7362,41.6226,921.8237],[44.7454,41.612,742.7324],[44.7739,41.5907,624.2977],[44.7928,41.5692,546.9244],[44.8148,41.5621,502.5901],[44.8459,41.5563,611.4977],[44.8656,41.5496,742.6337],[44.8862,41.5487,708.8898],[44.902,41.5452,613.5168],[44.9706,41.5447,507.3014],[44.9896,41.5396,344.4492],[45.0083,41.5136,350.4835],[45.0163,41.5059,310.7163],[45.0222,41.4972,368.8385],[45.0232,41.4646,296.473],[45.0223,41.4595,297.4345],[45.0185,41.4532,299.5089],[45.0183,41.4486,295.8723],[45.0218,41.4441,294.8611],[45.0452,41.4335,286.2471],[45.0489,41.4302,289.8312],[45.0504,41.4104,280.1813],[45.0549,41.4008,277.4859],[45.056399999999996,41.3813,278.1471],[45.0654,41.3765,274.8604],[45.1013,41.3639,272.1622],[45.1183,41.3526,265.7355],[45.1446,41.3832,267.5566],[45.1577,41.3916,269.5154],[45.1722,41.405,271.8956],[45.1787,41.4079,271.9338],[45.2065,41.4121,295.9911],[45.2234,41.425,289.5],[45.2457,41.4353,317.4795],[45.254,41.4535,494.0046],[45.2606,41.459,616.0959],[45.2889,41.4605,722.0939],[45.2995,41.4664,671.386],[45.3069,41.4681,680.3913],[45.3172,41.4667,692.3604],[45.33,41.4614,660.5121]]]]}}