{"type": "Feature","bbox": [42.9623,41.2976,43.4175,41.6931],"geometry": {"type": "MultiPolygon","coordinates": [[[[43.4175,41.6564,2409.1504],[43.3871,41.6632,2259.2769],[43.3722,41.6737,2123.8586],[43.3594,41.6868,2096.8618],[43.335,41.6931,2507.7905],[43.3247,41.6925,2412.9287],[43.3024,41.6824,2338.2297],[43.281,41.6785,2123.7795],[43.2363,41.6774,2393.2432],[43.2248,41.6744,2232.7637],[43.2028,41.6735,2077.4573],[43.1907,41.6695,1800.3],[43.1765,41.6605,1355.55],[43.1637,41.6547,1376.5717],[43.1086,41.6146,1016.6432],[43.1048,41.6084,1156.1023],[43.1035,41.5923,1358.3403],[43.0837,41.5751,1172.2036],[43.0827,41.5685,1213.4927],[43.0847,41.5616,1283.5016],[43.0943,41.5574,1255.447],[43.1053,41.5556,1334.9016],[43.1143,41.5509,1372.1199],[43.1164,41.5422,1597.1289],[43.12,41.5358,1694.512],[43.1202,41.5312,1728.7316],[43.1084,41.5168,1818.251],[43.1015,41.5111,1604.431],[43.0945,41.5068,1961.6624],[43.0773,41.5007,2186.9163],[43.0735,41.4975,2161.854],[43.0721,41.4735,2465.4768],[43.0672,41.4622,2514.3152],[43.0674,41.4365,2604.6304],[43.0655,41.4323,2596.7585],[43.0571,41.4308,2529.1575],[43.0407,41.432,2650.0613],[42.9981,41.4538,2274.2117],[42.9864,41.458,2162.7488],[42.9623,41.4535,2479.374],[42.9696,41.4515,2476.6221],[42.9735,41.4462,2402.8267],[42.9735,41.4337,2657.1121],[42.9842,41.4268,2781.2495],[42.9899,41.4183,2844.8574],[42.9896,41.4124,2881.1934],[42.9935,41.4071,2870.3645],[43.0096,41.3973,2881.0037],[43.0248,41.3783,2872.583],[43.0366,41.375,2672.2651],[43.0472,41.3698,2607.656],[43.0663,41.3688,2349.1816],[43.1015,41.3546,2000.6353],[43.1296,41.3179,1853.5825],[43.1551,41.3156,1678.3787],[43.1599,41.3105,1818.2822],[43.1666,41.3091,1652.1898],[43.1848,41.3084,1626.5925],[43.199,41.3036,1541.131],[43.2023,41.3004,1477.1956],[43.2029,41.2976,1442.7614],[43.2151,41.3113,1490.1842],[43.2183,41.324,1572.21],[43.2241,41.3329,1657.2959],[43.2415,41.3467,1658.0964],[43.2525,41.3619,1337.7834],[43.2681,41.3735,1263.0599],[43.2753,41.3779,1312.302],[43.2817,41.3792,1289.3811],[43.2921,41.3791,1235.3987],[43.3083,41.3751,1727.5155],[43.322,41.3757,1706.4904],[43.3279,41.3815,1568.3392],[43.334,41.391,1414.6023],[43.3352,41.415,1296.1626],[43.3339,41.4218,1324.1833],[43.3219,41.4353,1329.8423],[43.3097,41.4453,1150.1443],[43.3051,41.4527,1207.6473],[43.3079,41.4567,1296.9576],[43.3319,41.4677,1651.6628],[43.3419,41.4799,1627.7489],[43.3485,41.4807,1569.1027],[43.3583,41.4779,1626.1519],[43.3621,41.4805,1423.23],[43.3613,41.4915,1647.707],[43.3523,41.5049,1684.4939],[43.3466,41.5176,1741.2314],[43.3446,41.5278,1836.4885],[43.3352,41.5431,1897.8634],[43.3349,41.5527,1921.3176],[43.3363,41.5593,1862.9189],[43.3401,41.5667,1944.3618],[43.3412,41.5859,2065.5378],[43.3475,41.6015,2162.7959],[43.3721,41.6075,2130.6487],[43.3802,41.6122,2136.6865],[43.3865,41.6203,2230.1001],[43.3979,41.6297,2228.4468],[43.4111,41.6495,2203.5454],[43.4175,41.6564,2409.1504]]]]}
,"properties": {"GID_2": "GEO.10.4_1","GID_0": "GEO","country": "Georgia","GID_1": "GEO.10_1","province": "Samtskhe-Javakheti","NL_NAME_1": "NA","county": "Aspindza","VARNAME_2": "NA","NL_NAME_2": "NA","TYPE_2": "Raioni","ENGTYPE_2": "District","CC_2": "NA","HASC_2": "GE.SJ.AZ","name": "Aspindza.county","area_km2": 833.9493,"hist_schema_id": "Elevation0-9000","hist_area_km2": {"975": 0.7609,"1000": 1.9816,"1025": 3.5355,"1050": 6.1682,"1075": 7.6916,"1100": 9.2472,"1125": 10.2634,"1150": 11.5653,"1175": 12.2158,"1200": 12.8982,"1225": 15.2012,"1250": 15.3455,"1275": 15.0259,"1300": 14.2634,"1325": 12.9788,"1350": 12.8843,"1375": 12.3757,"1400": 13.1232,"1425": 13.9959,"1450": 17.2041,"1475": 16.0755,"1500": 13.4727,"1525": 13.473,"1550": 13.9342,"1575": 13.4562,"1600": 13.6176,"1625": 14.6833,"1650": 13.5561,"1675": 13.4294,"1700": 12.9057,"1725": 11.7323,"1750": 14.3261,"1775": 19.8805,"1800": 20.6919,"1825": 17.3185,"1850": 18.4314,"1875": 16.8234,"1900": 17.4711,"1925": 18.4397,"1950": 18.6007,"1975": 17.6785,"2000": 16.3118,"2025": 17.2471,"2050": 16.3603,"2075": 17.1369,"2100": 15.3109,"2125": 13.6104,"2150": 13.7199,"2175": 13.2908,"2200": 11.1182,"2225": 10.611,"2250": 8.8169,"2275": 7.9268,"2300": 7.1177,"2325": 7.3399,"2350": 6.5147,"2375": 6.4988,"2400": 6.5471,"2425": 6.5796,"2450": 7.3428,"2475": 7.7249,"2500": 7.2173,"2525": 8.2515,"2550": 7.568,"2575": 6.1524,"2600": 5.2624,"2625": 5.4696,"2650": 4.3248,"2675": 4.1181,"2700": 4.2614,"2725": 3.7052,"2750": 2.9261,"2775": 2.5284,"2800": 1.7175,"2825": 1.4154,"2850": 1.2246,"2875": 0.668,"2900": 0.5885,"2925": 0.6521,"2950": 0.0477}}}