{"type":"Feature","properties":{"GID_2":"GEO.5.5_1","GID_0":"GEO","country":"Georgia","GID_1":"GEO.5_1","province":"Kakheti","NL_NAME_1":"NA","county":"Lagodekhi","VARNAME_2":"NA","NL_NAME_2":"NA","TYPE_2":"Raioni","ENGTYPE_2":"District","CC_2":"NA","HASC_2":"GE.KA.LG","name":"Lagodekhi.county"},
"geometry":{"type": "MultiPolygon","coordinates": [[[[46.4182,41.9075,2865.8489],[46.3913,41.9198,3008.9585],[46.3885,41.9249,2932.6147],[46.385,41.9385,2931.2485],[46.3862,41.9481,3101.0737],[46.3842,41.9576,3190.0752],[46.3822,41.9599,3115.3071],[46.3776,41.9601,2978.9507],[46.3732,41.9579,2713.9888],[46.3634,41.9474,2938.1528],[46.3587,41.9451,2890.6611],[46.353,41.9475,2697.3745],[46.3463,41.9548,2950.6204],[46.3415,41.9566,2949.0515],[46.336,41.9563,2825.1494],[46.3324,41.9523,2730.5889],[46.3292,41.9391,2903.9966],[46.3251,41.9365,2824.9421],[46.3092,41.9374,2689.6819],[46.3098,41.9441,2622.2559],[46.3082,41.9471,2613.0908],[46.3043,41.95,2652.2969],[46.2955,41.9518,2800.0798],[46.2896,41.9603,2911.5911],[46.2591,41.9813,2752.8247],[46.2492,41.9913,2935.4294],[46.2456,41.9987,2869.302],[46.2412,42.0023,2778.3555],[46.2358,42.0033,2639.8677],[46.2262,42.0018,2439.7156],[46.2031,41.9903,1991.5236],[46.1916,41.9879,2152.4138],[46.1766,41.9875,2181.293],[46.1653,41.9889,2569.4951],[46.1332,42.0148,2356.3918],[46.1224,42.0188,2236.4812],[46.1183,42.0176,2123.1411],[46.1137,42.0122,2252.4243],[46.1113,41.996,2454.3079],[46.109,41.9926,2350.7229],[46.1034,41.9914,2230.1238],[46.1009,41.9925,2172.0244],[46.1006,41.9908,2161.9854],[46.1021,41.9835,2310.2029],[46.1159,41.963,1684.2767],[46.1173,41.9509,1593.6802],[46.1218,41.9414,1561.3431],[46.1221,41.9332,1489.1177],[46.1205,41.9284,1169.1855],[46.1049,41.9057,1152.2664],[46.0969,41.8981,664.6804],[46.0909,41.8895,523.8461],[46.0897,41.8823,473.9625],[46.0901,41.8569,430.0383],[46.0889,41.8524,382.3418],[46.0734,41.8474,296.8414],[46.0639,41.8465,296.0201],[46.0514,41.8469,296.6483],[46.0386,41.8503,295.667],[46.0179,41.8504,287.6822],[45.9928,41.8458,294.3253],[45.9551,41.8302,264.195],[45.9461,41.8233,254.8671],[45.9306,41.8013,236.1774],[45.9291,41.7929,232.1028],[45.9295,41.7709,227.8694],[45.9411,41.7539,239.0464],[45.9499,41.7501,232.6653],[45.9661,41.7481,233.8854],[45.976,41.743899999999996,232.2508],[45.9816,41.7367,217.5888],[45.9892,41.7177,226.8454],[45.9943,41.7097,223.0138],[46.0016,41.7038,222.4801],[46.0111,41.6997,222.1658],[46.0239,41.6915,220.2231],[46.0433,41.6863,209.9974],[46.056,41.685,219.9359],[46.0947,41.6769,208.1452],[46.1495,41.6567,204.49],[46.1707,41.6429,209.81],[46.2715,41.6247,206.213],[46.2584,41.6332,195.2073],[46.251,41.6444,197.3601],[46.2478,41.6548,200.6265],[46.2509,41.6676,205.2182],[46.2733,41.7104,219.213],[46.2716,41.7185,224.2986],[46.2883,41.7446,252.7106],[46.2907,41.7565,274.4489],[46.2881,41.7731,320.4207],[46.2903,41.7804,328.9631],[46.2959,41.7862,350.1792],[46.3394,41.8155,643.7028],[46.3612,41.8266,769.7489],[46.3768,41.8325,961.4951],[46.3932,41.845,1270.0221],[46.399,41.851,1277.5505],[46.4098,41.8674,1573.0034],[46.4147,41.8796,1741.7979],[46.4182,41.9075,2865.8489]]]]}}