{"type": "Feature","id": "3035","bbox": [42.35259,42.33959,43.90816,42.93447],"geometry": {"type": "Polygon","coordinates": [[[43.38618,42.88688,3168.4316],[43.19434,42.92676,3082.7878],[43.17523,42.93447,3462.1641],[43.14251,42.92472,2174.876],[43.10841,42.88955,2292.4299],[43.08619,42.87428,2816.4824],[43.0835,42.84302,2521.4019],[43.06562,42.82206,1754.6672],[43.03771,42.82571,2644.1953],[42.9757,42.84338,1434.8938],[42.90294,42.83615,1052.1917],[42.79432,42.87222,2075.9919],[42.7814,42.86749,2091.512],[42.76931,42.85986,1809.1849],[42.74223,42.85095,2219.8408],[42.68373,42.8526,1712.9111],[42.54162,42.87811,2065.1274],[42.51692,42.88668,2145.6763],[42.49191,42.88715,2761.6785],[42.47951,42.87041,2622.6426],[42.46907,42.85198,1958.5371],[42.45821,42.84586,1531.0995],[42.44612,42.84359,1612.0765],[42.40902,42.8416,2010.7188],[42.37729,42.82842,2391.7456],[42.35259,42.7938,1798.8752],[42.40747,42.75897,2726.6152],[42.5195,42.71199,2064.2542],[42.56488,42.67789,1861.7573],[42.53831,42.63613,1395.5919],[42.61438,42.5241,1255.7946],[42.62306,42.50105,766.6991],[42.62337,42.47568,837.0873],[42.63123,42.45679,1180.2188],[42.63205,42.43545,738.0204],[42.73902,42.46201,745.6862],[42.76424,42.4542,359.3088],[42.79049,42.45265,818.1977],[42.81261,42.46914,812.4205],[42.83742,42.46976,867.1449],[42.89261,42.44374,741.9678],[42.94335,42.40868,1030.2189],[42.95607,42.37726,825.4545],[42.98097,42.36238,738.3996],[43.00237,42.35943,591.4708],[43.05001,42.33959,1011.5146],[43.12164,42.34434,943.1582],[43.1638,42.35721,1096.5587],[43.19894,42.38361,1557.9735],[43.29393,42.42038,1345.8142],[43.39997,42.41186,1171.5114],[43.50198,42.41803,1418.7908],[43.56646,42.40045,1715.5818],[43.58745,42.39473,1580.4406],[43.66899,42.44333,2282.2698],[43.808,42.45147,1754.9569],[43.82712,42.45824,1747.3186],[43.84893,42.48736,1974.9001],[43.90216,42.51565,2613.6304],[43.90815,42.56621,2880.312],[43.90816,42.56628,2880.312],[43.88536,42.57921,3018.4199],[43.845,42.58704,3124.6633],[43.79617,42.58983,2957.1848],[43.75111,42.59874,3405.3459],[43.72258,42.62487,3197.9714],[43.72568,42.6544,2725.8271],[43.75379,42.67466,2489.1057],[43.78873,42.69308,2925.2683],[43.81177,42.71726,3220.4897],[43.80061,42.74646,3870.6113],[43.78253,42.75321,4271.5303],[43.75596,42.76313,3685.5833],[43.66284,42.77984,2530.1641],[43.64434,42.78858,3121.9065],[43.603,42.8248,3433.0645],[43.58626,42.83563,3045.0903],[43.51743,42.86046,3049.0688],[43.4796,42.86746,3666.9966],[43.38618,42.88688,3168.4316]]]}
,"properties": {"ISO3166-1-Alpha-3": "GEO","country": "Georgia","fill": "#FF0","name": "Racha-Lechkhumi-Kvemo Svaneti","area_km2": 5156.552,"hist_schema_id": "Elevation0-9000","hist_area_km2": {"275": 0.391,"300": 1.298,"325": 2.251,"350": 3.282,"375": 4.625,"400": 6.265,"425": 11.105,"450": 12.946,"475": 13.742,"500": 18.738,"525": 18.959,"550": 20.52,"575": 22.05,"600": 22.065,"625": 24.938,"650": 26.923,"675": 29.312,"700": 31.546,"725": 33.122,"750": 36.07,"775": 36.696,"800": 41.117,"825": 42.316,"850": 44.316,"875": 46.611,"900": 48.331,"925": 52.933,"950": 51.59,"975": 54.739,"1000": 53.956,"1025": 57.435,"1050": 57.424,"1075": 59.638,"1100": 59.652,"1125": 76.826,"1150": 71.69,"1175": 69.951,"1200": 67.541,"1225": 66.739,"1250": 65.918,"1275": 67.877,"1300": 65.248,"1325": 65.517,"1350": 65.686,"1375": 67.726,"1400": 66.412,"1425": 69.14,"1450": 67.302,"1475": 70.145,"1500": 70.315,"1525": 69.714,"1550": 69.525,"1575": 69.786,"1600": 71.547,"1625": 72.876,"1650": 71.828,"1675": 75.465,"1700": 74.371,"1725": 77.526,"1750": 74.822,"1775": 76.2,"1800": 75.657,"1825": 72.344,"1850": 69.792,"1875": 70.219,"1900": 68.467,"1925": 67.416,"1950": 65.052,"1975": 63.22,"2000": 62.998,"2025": 60.696,"2050": 60.911,"2075": 58.15,"2100": 56.788,"2125": 54.715,"2150": 55.352,"2175": 54.9,"2200": 54.101,"2225": 50.841,"2250": 50.184,"2275": 49.153,"2300": 45.788,"2325": 46.627,"2350": 45.144,"2375": 43.74,"2400": 42.698,"2425": 42.387,"2450": 39.972,"2475": 39.629,"2500": 37.729,"2525": 36.221,"2550": 36.235,"2575": 36.002,"2600": 34.445,"2625": 32.498,"2650": 31.595,"2675": 31.334,"2700": 30.521,"2725": 28.076,"2750": 26.705,"2775": 24.853,"2800": 23.186,"2825": 21.333,"2850": 19.262,"2875": 17.845,"2900": 16.522,"2925": 14.715,"2950": 12.879,"2975": 12.646,"3000": 11.228,"3025": 10.106,"3050": 9.265,"3075": 7.35,"3100": 7.645,"3125": 6.897,"3150": 5.963,"3175": 5.433,"3200": 5.2,"3225": 4.732,"3250": 4.514,"3275": 3.906,"3300": 3.798,"3325": 3.549,"3350": 2.894,"3375": 2.474,"3400": 2.225,"3425": 1.945,"3450": 1.945,"3475": 1.805,"3500": 1.649,"3525": 1.416,"3550": 1.587,"3575": 1.338,"3600": 1.136,"3625": 1.151,"3650": 1.416,"3675": 1.074,"3700": 0.902,"3725": 0.809,"3750": 0.654,"3775": 0.498,"3800": 0.638,"3825": 0.483,"3850": 0.42,"3875": 0.358,"3900": 0.265,"3925": 0.125,"3950": 0.171,"3975": 0.202,"4000": 0.156,"4025": 0.078,"4050": 0.202,"4075": 0.187,"4100": 0.093,"4125": 0.093,"4150": 0.093,"4175": 0.093,"4200": 0.047,"4225": 0.078,"4250": 0.062}}}