{"type":"Feature","properties":{"GID_1":"GEO.8_1","GID_0":"GEO","country":"Georgia","province":"Racha-Lechkhumi-KvemoSvaneti","VARNAME_1":"Ambrolauri","NL_NAME_1":"NA","TYPE_1":"Region","ENGTYPE_1":"Region","CC_1":"NA","HASC_1":"GE.RK","ISO_1":"NA","name":"Racha-Lechkhumi-Kvemo_Svaneti.province"},
"geometry":{"type": "MultiPolygon","coordinates": [[[[43.2427,42.4055,1150.5107],[43.2536,42.4158,1448.4624],[43.2882,42.4155,1259.5647],[43.3143,42.4198,1186.4463],[43.3696,42.4194,1294.5085],[43.3959,42.4124,931.7256],[43.4338,42.4076,948.4377],[43.494,42.4192,1311.6556],[43.502,42.4181,1418.7908],[43.5501,42.4002,1833.2117],[43.5739,42.3957,1724.0143],[43.5875,42.3948,1580.4406],[43.5874,42.4077,1137.2072],[43.593,42.4239,1688.5295],[43.5957,42.4266,1677.9053],[43.6036,42.4298,1734.939],[43.6174,42.4311,1576.7228],[43.6663,42.4418,2147.8987],[43.7293,42.4418,1720.1233],[43.7474,42.4454,2099.8083],[43.7767,42.4459,2045.1327],[43.8032,42.4526,1799.6074],[43.8171,42.454,1541.6805],[43.8261,42.4575,1775.5222],[43.8321,42.4644,2053.2759],[43.8347,42.4764,1958.0029],[43.8403,42.4835,2204.5212],[43.8761,42.4969,2008.3257],[43.9063,42.5107,2267.9641],[43.9132,42.5247,2281.6714],[43.919,42.544,3190.0527],[43.9096,42.564,2849.8506],[43.9085,42.57,3054.4189],[43.8929,42.5748,3057.7864],[43.8759,42.5756,2812.6772],[43.864,42.5849,2677.1348],[43.8578,42.5865,2707.3752],[43.8507,42.5852,2899.6772],[43.8425,42.5793,2830.2622],[43.8351,42.5775,3056.9617],[43.8273,42.5794,3095.4658],[43.813,42.5933,3316.1057],[43.8003,42.5934,2886.0168],[43.781,42.5878,3113.7266],[43.7702,42.5877,3017.2112],[43.7613,42.5946,3273.6606],[43.7314,42.6276,3358.7227],[43.7303,42.6356,3047.8223],[43.7331,42.6424,3207.7656],[43.7423,42.6518,2942.4558],[43.7554,42.6567,2905.9819],[43.7669,42.6642,2983.9434],[43.8037,42.7184,3358.0566],[43.8051,42.7284,3530.7388],[43.8037,42.7353,3588.1621],[43.7991,42.7422,4010.0813],[43.7909,42.7501,3950.4058],[43.7742,42.7578,4121.9189],[43.7225,42.7732,3646.2209],[43.7084,42.7809,3804.7661],[43.6995,42.7901,3841.8623],[43.689,42.7964,3865.9971],[43.6704,42.8004,3265.3809],[43.6554,42.7973,3238.4856],[43.6449,42.7999,3483.1003],[43.6326,42.8116,3856.7461],[43.6166,42.822,3415.387],[43.6123,42.8266,3444.2014],[43.6047,42.8425,3140.3123],[43.5778,42.8594,3510.9026],[43.5617,42.8661,3526.8459],[43.5064,42.8728,3273.3608],[43.4894,42.8832,3759.7285],[43.4652,42.8909,3659.4709],[43.403,42.896,3855.0156],[43.383,42.8951,3362.4861],[43.3599,42.8895,3411.9099],[43.3431,42.89,3512.8979],[43.3295,42.8946,3663.3564],[43.3205,42.9015,3164.2974],[43.2618,42.9219,3298.6016],[43.1921,42.9344,3688.2085],[43.1745,42.943,3117.5864],[43.1654,42.9368,2726.3535],[43.1549,42.9325,2190.666],[43.1395,42.9218,2203.5598],[43.1249,42.9146,2434.0186],[43.1171,42.9044,2491.0144],[43.114,42.8956,2330.9497],[43.1086,42.8895,2292.4299],[43.0844,42.8825,3186.4265],[43.0831,42.8778,3045.4307],[43.0835,42.8403,2545.0015],[43.0823,42.8337,2374.7793],[43.0692,42.8234,1702.5167],[43.0497,42.8182,2121.9214],[43.0438,42.8182,2328.5181],[43.0402,42.8202,2378.1145],[43.0358,42.8269,2594.3767],[43.0337,42.838,2703.959],[43.0292,42.8437,2761.4861],[43.0249,42.8453,2763.7781],[43.0168,42.8452,2684.5669],[43.0008,42.8417,2431.4575],[42.9487,42.8416,1455.2596],[42.9354,42.8384,1366.182],[42.9165,42.8377,1217.8481],[42.8987,42.8345,1116.8621],[42.8915,42.8372,1073.9292],[42.8686,42.8533,1211.6987],[42.8578,42.8571,1286.038],[42.8439,42.8586,1457.2399],[42.8266,42.8628,1952.0825],[42.7967,42.8732,2057.947],[42.7772,42.8649,2055.2861],[42.7624,42.8556,2146.2578],[42.7388,42.8471,2124.9429],[42.7312,42.8472,1771.4823],[42.7173,42.8506,2122.7305],[42.6816,42.8508,1638.5449],[42.6369,42.8661,2034.1343],[42.62,42.8672,2356.9333],[42.6063,42.8706,2149.2231],[42.5612,42.8713,2657.0513],[42.5202,42.886,2028.7515],[42.4919,42.8872,2761.6785],[42.4841,42.8849,3095.3582],[42.4765,42.8599,2248.98],[42.4621,42.8451,1595.7822],[42.4421,42.8432,1535.8174],[42.4303,42.8403,1632.2466],[42.3926,42.8403,2381.8147],[42.3842,42.838,2639.0635],[42.3526,42.7938,1798.8752],[42.3615,42.7879,1924.0668],[42.3674,42.7802,1933.3876],[42.3733,42.7756,1892.9972],[42.4096,42.76,2712.3567],[42.431399999999996,42.7451,2654.6907],[42.446,42.7387,2087.6238],[42.46,42.7372,1690.1582],[42.4784,42.7327,1553.3727],[42.4996,42.7227,1518.855],[42.5276,42.7124,2035.5426],[42.5345,42.7073,2186.9656],[42.5557,42.6845,2296.6401],[42.5649,42.6779,1861.7573],[42.5445,42.6684,2158.6558],[42.5377,42.6625,2168.7112],[42.5365,42.6558,2160.8362],[42.5373,42.6248,1534.2399],[42.5436,42.6152,2040.108],[42.556399999999996,42.6043,2233.7383],[42.5946,42.5602,1553.9741],[42.6051,42.5444,1369.8489],[42.6085,42.5317,1434.0181],[42.6267,42.5129,734.3887],[42.6279,42.5028,682.8567],[42.6229,42.4913,363.0576],[42.6222,42.4802,704.2613],[42.6236,42.4743,920.3699],[42.6312,42.4665,1322.8448],[42.6329,42.4628,1399.8055],[42.6321,42.4355,738.0204],[42.6529,42.4351,866.2709],[42.6959,42.4464,732.2375],[42.7012,42.4497,926.3253],[42.7103,42.4628,943.1829],[42.7165,42.4657,1028.0884],[42.7267,42.4655,765.846],[42.7367,42.4624,748.22],[42.7493,42.4611,434.9953],[42.7645,42.4519,413.346],[42.7717,42.4499,671.2162],[42.7801,42.4499,833.8843],[42.7995,42.4537,671.0226],[42.8037,42.456,727.5165],[42.8063,42.4659,779.8881],[42.8115,42.4759,902.0954],[42.8193,42.4767,863.9091],[42.8381,42.4711,874.0951],[42.8444,42.4638,903.6874],[42.8523,42.4585,772.4665],[42.8651,42.4567,805.6982],[42.8671,42.4551,695.7934],[42.8791,42.4523,879.3235],[42.8985,42.4429,790.4519],[42.9435,42.4101,1042.8656],[42.9482,42.4054,1121.4358],[42.9539,42.3928,1070.9869],[42.9553,42.3755,811.4766],[42.9616,42.3637,649.5123],[42.9982,42.3612,602.8438],[43.0196,42.3532,612.4468],[43.0565,42.3324,811.2883],[43.0742,42.3418,775.087],[43.0911,42.3428,804.673],[43.1048,42.3461,900.0417],[43.1217,42.3444,943.1582],[43.132,42.3491,1049.866],[43.1471,42.3508,1027.1647],[43.159,42.355,1006.2413],[43.1761,42.3633,1028.0898],[43.1894,42.3724,1280.6407],[43.2051,42.3913,1624.2357],[43.2427,42.4055,1150.5107]]]]}}