{"type":"Feature","properties":{"GID_2":"GEO.5.1_1","GID_0":"GEO","country":"Georgia","GID_1":"GEO.5_1","province":"Kakheti","NL_NAME_1":"NA","county":"Akhmeta","VARNAME_2":"NA","NL_NAME_2":"NA","TYPE_2":"Raioni","ENGTYPE_2":"District","CC_2":"NA","HASC_2":"GE.KA.AM","name":"Akhmeta.county"},
"geometry":{"type": "MultiPolygon","coordinates": [[[[45.2806,41.8721,1818.2986],[45.3112,41.8786,1481.7018],[45.3222,41.8918,1388.4087],[45.3371,41.8997,1373.0879],[45.3396,41.905,1429.774],[45.3394,41.9269,1082.0659],[45.3412,41.9327,947.6579],[45.3541,41.9429,819.2975],[45.3702,41.9508,630.7846],[45.3855,41.9621,559.9274],[45.4032,41.9921,463.475],[45.4038,42.0063,446.643],[45.3988,42.0177,436.2263],[45.3984,42.0488,417.0917],[45.3935,42.0609,420.8195],[45.3924,42.08,564.4086],[45.3761,42.1085,535.9947],[45.3638,42.122,784.5063],[45.3519,42.1319,783.4595],[45.3459,42.1423,792.7296],[45.3627,42.1761,1311.0638],[45.3831,42.2054,1668.4591],[45.3936,42.2101,1609.7762],[45.41,42.2118,1402.1737],[45.4191,42.2165,1443.6711],[45.4203,42.2221,1735.0887],[45.4198,42.2565,2711.1985],[45.4211,42.2614,2906.0881],[45.4258,42.2652,3000.5789],[45.4507,42.2727,2321.2471],[45.4794,42.2624,1846.1466],[45.5129,42.2561,2527.7388],[45.5214,42.251,2810.7827],[45.5217,42.2448,2661.3076],[45.5169,42.2357,2198.8599],[45.5166,42.2291,2109.9199],[45.5293,42.2093,2619.6116],[45.5384,42.2062,2501.9702],[45.5723,42.2065,2511.959],[45.5961,42.2168,2420.7939],[45.6067,42.2178,2941.2671],[45.6061,42.219,2956.8716],[45.6236,42.2518,3221.9536],[45.6374,42.2846,2701.6704],[45.6407,42.2894,2728.1328],[45.6466,42.2908,3024.7185],[45.6543,42.2902,3054.8567],[45.666,42.2835,2991.1306],[45.6728,42.2833,3058.0503],[45.6835,42.2872,2922.2666],[45.6958,42.2871,2937.7446],[45.7136,42.2905,2694.7407],[45.7348,42.2973,2877.9895],[45.7415,42.3013,3002.5706],[45.7451,42.3053,2934.4607],[45.7435,42.3164,2813.5642],[45.7244,42.331,2896.5762],[45.7306,42.3442,2433.5964],[45.731,42.3531,2248.7134],[45.7263,42.3722,1583.4822],[45.7313,42.3858,1660.5442],[45.7662,42.4267,2951.0969],[45.7729,42.4363,3157.3926],[45.7751,42.4562,3489.9966],[45.7679,42.4743,3403.4956],[45.7608,42.4811,3368.4443],[45.7514,42.4859,3575.5393],[45.7087,42.4851,3342.9746],[45.6601,42.5067,3635.301],[45.6299,42.5159,3251.6697],[45.602,42.5278,3835.7715],[45.5774,42.5458,3654.4048],[45.5698,42.5485,3879.1396],[45.5568,42.5502,3294.5215],[45.5398,42.5499,3341.2786],[45.5131,42.5416,3531.0845],[45.4722,42.5407,3081.4175],[45.431399999999996,42.5435,3012.2017],[45.4063,42.5422,3256.7244],[45.35,42.529,3231.8938],[45.3401,42.5299,3391.345],[45.3316,42.5326,3648.896],[45.3225,42.5383,3250.2517],[45.3117,42.5477,3383.7456],[45.3032,42.5616,3748.3291],[45.2945,42.5519,3682.1409],[45.2822,42.5418,3874.1328],[45.2736,42.5291,3498.8818],[45.2657,42.5214,3571.0862],[45.2488,42.4952,2810.252],[45.2492,42.4915,2931.3262],[45.2591,42.4704,3190.1653],[45.2586,42.4327,2378.3391],[45.2553,42.4291,2536.7283],[45.2458,42.4251,2854.3379],[45.2298,42.4143,2948.5566],[45.2168,42.4084,2968.2612],[45.2126,42.4047,2635.6304],[45.2111,42.401,2605.2944],[45.2114,42.3749,2639.573],[45.2264,42.3504,2557.9773],[45.2284,42.3416,2140.2793],[45.2324,42.3333,2443.1702],[45.231,42.325,2722.5361],[45.2202,42.3094,2551.3979],[45.2158,42.3067,2314.5752],[45.1986,42.3026,1780.7168],[45.1846,42.3012,1627.9043],[45.1658,42.2959,2033.6628],[45.1488,42.2766,1684.735],[45.1162,42.2519,1760.2821],[45.1144,42.2462,1803.4521],[45.1138,42.2172,1540.0585],[45.1105,42.213,1582.8618],[45.0888,42.1961,1770.0797],[45.0832,42.1834,1482.0834],[45.0814,42.1742,1652.8541],[45.0775,42.1668,1779.8423],[45.0768,42.1456,1394.576],[45.0722,42.1354,1524.48],[45.0709,42.1192,1228.9456],[45.0676,42.1151,1105.0173],[45.0533,42.1046,1176.4908],[45.051,42.1003,1170.1592],[45.0693,42.0716,1022.1916],[45.0584,42.0535,892.2678],[45.0579,42.0505,897.2828],[45.076,42.0351,768.6354],[45.0921,42.0069,1441.6501],[45.0907,42.0025,1454.0631],[45.0794,41.9934,1549.7236],[45.0666,41.9783,1589.3009],[45.0664,41.9678,1426.0521],[45.0733,41.9503,1336.1257],[45.1108,41.9416,1478.7947],[45.1276,41.9405,1317.0138],[45.1401,41.9372,1144.0067],[45.1598,41.9365,1379.652],[45.1795,41.9316,1432.6075],[45.2032,41.9145,1516.4569],[45.2129,41.8984,1509.4844],[45.222,41.893,1428.7546],[45.2337,41.8806,1384.3816],[45.2394,41.8781,1382.0992],[45.2562,41.8771,1520.395],[45.2806,41.8721,1818.2986]]]]}}