{"type":"Feature","properties":{"GID_1":"GEO.1_1","GID_0":"GEO","country":"Georgia","province":"Abkhazia","VARNAME_1":"Sokhumi","NL_NAME_1":"NA","TYPE_1":"AvtonomiuriRespublika","ENGTYPE_1":"AutonomousRepublic","CC_1":"NA","HASC_1":"GE.AB","ISO_1":"GE-AB","name":"Abkhazia.province"},
"geometry":{"type": "MultiPolygon","coordinates": [[[[41.5513,42.4071,2.0795],[41.6229,42.4331,8.6129],[41.6349,42.4455,10.3191],[41.6539,42.4599,15.1152],[41.6607,42.4681,16.1344],[41.6687,42.4735,19.1473],[41.6957,42.4809,24.394],[41.7115,42.4827,31.1938],[41.7751,42.5057,57.2838],[41.8073,42.5233,87.8462],[41.8319,42.5345,112.0984],[41.8467,42.5453,119.2532],[41.8539,42.5539,137.826],[41.8745,42.5695,138.7332],[41.8793,42.5759,142.9291],[41.8925,42.5873,155.9982],[41.9001,42.5987,162.9766],[41.9095,42.6072,154.1175],[41.9264,42.6114,196.8918],[41.9359,42.6151,206.5853],[41.941,42.6193,212.2735],[41.9518,42.6474,183.6201],[41.9519,42.6714,315.7263],[41.9393,42.6865,229.6206],[41.9193,42.7017,559.8506],[41.9104,42.7178,1139.3275],[41.9092,42.7683,1823.3945],[41.9047,42.7789,1578.814],[41.9037,42.7969,1500.6488],[41.8989,42.8069,1638.4885],[41.8989,42.8109,1729.968],[41.8867,42.8199,1816.8027],[41.8853,42.8229,1896.6683],[41.8957,42.8356,2372.0471],[41.9017,42.8402,2365.4238],[41.9243,42.8477,2098.062],[41.9299,42.8533,2159.0249],[41.9357,42.8625,2294.4631],[41.9363,42.8667,2121.7649],[41.9349,42.8699,2005.9176],[41.9275,42.8755,2484.9277],[41.9241,42.8931,2313.6475],[41.9123,42.9005,2065.9983],[41.9099,42.9047,2256.2139],[41.9099,42.9283,1738.2957],[41.9145,42.938,1879.6477],[41.9153,42.9419,2017.1703],[41.9139,42.9465,2196.1343],[41.91,42.9483,2163.9666],[41.8943,42.9485,2135.0425],[41.8888,42.9501,1995.7302],[41.8838,42.9566,2137.2888],[41.8785,42.9748,2859.9526],[41.8833,42.9794,2838.1682],[41.9041,42.9865,2879.1458],[41.9241,42.9883,1981.9275],[41.9479,42.9926,2458.075],[41.9757,43.0024,1805.4216],[41.9923,43.0035,1600.5261],[42.0053,43.0066,1542.5096],[42.0313,43.0075,1882.9939],[42.0495,43.0107,1765.5264],[42.055,43.0136,1889.187],[42.059,43.0195,2232.8872],[42.0615,43.0307,2266.835],[42.0689,43.0407,2017.3533],[42.0909,43.0527,2163.7058],[42.1071,43.0657,2312.3513],[42.1334,43.1085,1825.4038],[42.1357,43.118899999999996,2350.272],[42.1397,43.1261,2874.9189],[42.1389,43.1321,2504.0151],[42.1295,43.1461,2877.479],[42.1296,43.1711,2788.657],[42.1551,43.2189,3302.2886],[42.1454,43.2212,3230.9805],[42.1368,43.2207,3240.1003],[42.1129,43.2075,3113.7156],[42.1039,43.2054,3370.145],[42.0811,43.2045,3881.7251],[42.0577,43.1941,3137.1538],[42.0387,43.1969,3212.333],[42.0301,43.2063,3350.3501],[42.0177,43.2145,3167.6997],[42.0008,43.2158,2785.1396],[41.9799,43.2149,3059.5347],[41.967,43.2102,2918.7227],[41.9593,43.2097,2803.6095999999998],[41.9543,43.2125,2801.1824],[41.9427,43.2253,3425.769],[41.917,43.2283,2712.188],[41.8906,43.2368,2749.7512],[41.8782,43.2461,3239.6819],[41.8719,43.2469,2887.2917],[41.8663,43.2457,2765.0403],[41.8609,43.2371,2802.9482],[41.8621,43.2323,3110.5464],[41.8679,43.2229,2734.3921],[41.8633,43.2157,3067.5061],[41.8523,43.2109,3479.5884],[41.8201,43.2038,2825.7744],[41.8147,43.2038,2979.4368],[41.7937,43.2109,3072.8521],[41.7817,43.2117,2509.8984],[41.7629,43.2156,2743.47],[41.748,43.227,2417.9556],[41.736,43.2328,2430.9165],[41.7274,43.2314,2690.5781],[41.7224,43.2239,2870.6243],[41.7156,43.2183,2824.2339],[41.7073,43.2151,2530.7681],[41.6919,43.2167,3012.0413],[41.6575,43.2301,3026.6113],[41.6499,43.2295,3202.6294],[41.6407,43.2239,3282.8887],[41.6307,43.2229,3294.5315],[41.6229,43.2245,3181.6841],[41.5991,43.2333,3329.1975],[41.5825,43.2354,3501.959],[41.5733,43.2435,3265.5039],[41.5543,43.2488,3202.9839],[41.5507,43.2559,3224.613],[41.5453,43.2608,3044.9248],[41.5257,43.2702,3188.1729],[41.5038,43.2781,3703.1462],[41.4943,43.2833,3396.5093],[41.4787,43.2969,3096.0254],[41.4681,43.3001,3178.209],[41.4377,43.3026,2947.9795],[41.4255,43.3058,2871.2563],[41.4229,43.3095,3110.6487],[41.4203,43.3531,3043.5737],[41.4078,43.3614,3079.895],[41.4015,43.3627,2868.8079],[41.3929,43.3619,2571.9722],[41.3787,43.3585,2368.0303],[41.3686,43.3616,2772.1948],[41.3615,43.3583,2929.9199],[41.3505,43.3453,2814.9038],[41.3337,43.3359,2428.8262],[41.3315,43.3327,2541.1797],[41.3317,43.3341,2524.6917],[41.3119,43.334,2520.5938],[41.3013,43.3447,2667.1689],[41.292,43.3509,2511.6831],[41.2841,43.3535,2794.689],[41.2529,43.3579,2879.9839],[41.2357,43.3671,3247.3218],[41.2193,43.3733,2691.9053],[41.1392,43.3946,2559.0371],[41.1197,43.395,2593.9414],[41.114,43.3912,2389.3657],[41.1064,43.3809,2521.5776],[41.1014,43.3777,2505.6802],[41.0901,43.3773,2272.3914],[41.0614,43.3823,2502.811],[41.0432,43.3907,2312.7751],[41.0422,43.4029,2549.6907],[41.0305,43.4159,2493.7866],[41.0191,43.4199,2281.4136],[40.9971,43.4317,2775.8574],[40.9897,43.4339,2658.9395],[40.9835,43.4331,2787.5549],[40.9737,43.4253,2703.1094],[40.9647,43.4231,2703.9807],[40.949,43.4221,2642.0562],[40.9357,43.4255,2587.9973],[40.9255,43.4425,2654.3022],[40.918,43.4477,2668.3779],[40.8999,43.4543,2488.9675],[40.8955,43.4581,2376.0552],[40.895,43.4611,2425.0935],[40.8985,43.4705,2380.0676],[40.8973,43.4755,2370.303],[40.8791,43.4851,2572.8264],[40.8318,43.4855,2194.2136],[40.8187,43.4925,2402.9546],[40.7741,43.5087,2478.7783],[40.7651,43.5153,2440.4285],[40.7401,43.5265,2556.2473],[40.7283,43.5305,2449.9609],[40.7111,43.5311,2678.667],[40.6937,43.5351,2730.269],[40.6881,43.5386,2755.689],[40.6775,43.5527,2927.9702],[40.6689,43.5583,2723.2231],[40.6629,43.5593,2641.4927],[40.6523,43.5595,2589.7004],[40.6355,43.5509,2435.2725],[40.62,43.5479,2296.1228],[40.612,43.544,2098.7207],[40.5871,43.5223,1996.4917],[40.5719,43.5161,2338.1729],[40.564,43.5166,2357.6479],[40.5395,43.5231,2498.5508],[40.511,43.5281,2759.6658],[40.5008,43.5313,2860.5942],[40.4922,43.5401,3001.7312],[40.4826,43.5445,2957.873],[40.4624,43.5464,2519.6035],[40.4431,43.5554,2854.7285],[40.424,43.5457,2078.3442],[40.4146,43.5455,2175.929],[40.3747,43.549,1466.8442],[40.3556,43.5555,1437.0618],[40.3353,43.5527,1674.4371],[40.3132,43.5671,1315.3145],[40.3063,43.5693,1055.5256],[40.2927,43.5677,891.7515],[40.2821,43.5747,814.46],[40.2631,43.5829,686.1271],[40.2485,43.5845,623.4847],[40.2362,43.5838,588.2448],[40.2267,43.5813,600.5066],[40.2121,43.575,501.7625],[40.1925,43.5747,477.4171],[40.1827,43.5775,702.216],[40.176,43.5775,512.7967],[40.1616,43.5751,427.1974],[40.1346,43.5667,362.5544],[40.1246,43.5655,337.3853],[40.1067,43.5685,339.0037],[40.1019,43.5677,275.8378],[40.0969,43.5633,319.0215],[40.0935,43.5569,344.051],[40.0933,43.5495,262.8833],[40.0985,43.5391,421.6915],[40.0989,43.5347,403.0342],[40.0955,43.5289,168.7587],[40.0677,43.5087,150.4307],[40.0645,43.5035,97.9416],[40.0635,43.4977,147.3356],[40.0461,43.4817,100.2851],[40.0389,43.4565,122.0285],[40.0169,43.4279,24.3487],[40.0147,43.4225,20.5812],[40.0159,43.4147,15.5784],[40.0111,43.3987,5.985],[40.012,43.3849,0.0],[40.0282,43.3832,0.0],[40.0513,43.3776,0.2414],[40.0735,43.3785,0.0],[40.0804,43.3771,2.9765],[40.0996,43.3688,6.6388],[40.1162,43.3587,0.0],[40.1263,43.359,24.701],[40.1324,43.3568,7.3411],[40.1482,43.3462,9.8195],[40.1615,43.3404,0.0],[40.1896,43.3332,1.3968],[40.206,43.3312,25.0512],[40.224,43.3226,0.0],[40.2374,43.3207,6.6607],[40.2449,43.316,10.3525],[40.2529,43.3054,2.7612],[40.2565,43.2976,0.0],[40.2671,43.2646,1.3378],[40.2743,43.2032,0.0],[40.2779,43.1893,0.5308],[40.2938,43.1757,1.1503],[40.3007,43.1724,0.5503],[40.3074,43.1724,0.9209],[40.3107,43.1704,0.0],[40.3207,43.1601,1.2345],[40.3312,43.1546,11.8281],[40.3415,43.1463,0.8115],[40.346,43.1465,0.6138],[40.3479,43.1504,0.0],[40.3465,43.1526,2.0801],[40.3665,43.1682,3.8287],[40.3757,43.1721,8.6435],[40.3879,43.1743,3.2973],[40.3954,43.174,15.3052],[40.4051,43.1712,7.5077],[40.4193,43.1604,0.0],[40.4221,43.1613,47.6495],[40.4279,43.1596,71.121],[40.4357,43.1535,0.0],[40.4426,43.1521,42.5756],[40.4487,43.1529,29.3698],[40.4585,43.1493,0.928],[40.4643,43.146,0.0],[40.4701,43.1396,1.2187],[40.4801,43.1437,0.0],[40.4901,43.1413,2.873],[40.5043,43.144,8.8972],[40.5137,43.1437,0.0],[40.5201,43.1418,1.6435],[40.5335,43.1326,0.7651],[40.5401,43.1299,4.1174],[40.5624,43.104,2.8918],[40.5662,43.1029,5.905],[40.574,43.0937,0.0],[40.5812,43.091,0.882],[40.6096,43.0921,1.2199],[40.6449,43.1012,3.617],[40.6582,43.0985,2.5637],[40.6685,43.0924,1.5962],[40.6899,43.0868,0.126],[40.7029,43.0876,2.6263],[40.7226,43.0857,20.3934],[40.7357,43.0876,8.7703],[40.7546,43.0879,2.1261],[40.7796,43.0854,0.7514],[40.7924,43.0818,0.0],[40.8037,43.0846,8.5344],[40.8224,43.0832,2.5579],[40.8357,43.081,6.6114],[40.8454,43.0774,5.1077],[40.8596,43.0768,2.2073],[40.8654,43.0754,1.4889],[40.8774,43.0679,1.1487],[40.8937,43.0518,2.5597],[40.8996,43.0421,3.5263],[40.904,43.0407,18.2216],[40.9074,43.036,3.6142],[40.9207,43.0301,2.2482],[40.9301,43.0204,1.0908],[40.9368,43.0079,0.1693],[40.9457,43.004,1.8756],[40.9487,42.9996,0.0],[40.9549,42.9971,3.589],[40.9607,42.9918,4.2972],[40.9637,42.9846,0.3764],[40.9674,42.9821,2.2364],[40.9721,42.9807,4.4282],[40.9776,42.9818,0.0],[40.9924,42.9918,0.0],[40.9912,42.9935,1.2418],[40.9943,42.9949,0.5904],[40.994,42.9963,4.0447],[41.0163,42.9946,0.0],[41.0226,42.9963,0.0],[41.0221,42.9974,4.2743],[41.0243,42.9985,0.0],[41.0321,42.9987,0.0],[41.0465,42.9932,0.0],[41.0568,42.984,0.8028],[41.0629,42.9726,0.2161],[41.0679,42.9693,5.6712],[41.0707,42.9615,0.0],[41.0785,42.9512,2.4276],[41.089,42.9174,1.7858],[41.1037,42.8493,0.0],[41.1074,42.841,0.0],[41.1224,42.8285,0.4412],[41.1243,42.8235,0.0],[41.1307,42.8201,0.1375],[41.1415,42.811,0.37],[41.1451,42.8007,0.0],[41.1504,42.796,0.1832],[41.1796,42.791,0.8421],[41.1987,42.8004,0.1589],[41.2085,42.8026,1.7385],[41.2232,42.8021,9.5852],[41.2574,42.7924,10.5407],[41.2687,42.7915,0.0],[41.2887,42.7871,10.7864],[41.3032,42.7782,0.7941],[41.3149,42.7735,0.0],[41.3315,42.7732,2.5054],[41.3582,42.7657,2.4314],[41.3721,42.7637,0.0],[41.379,42.7646,2.5779],[41.3943,42.761,2.0883],[41.4063,42.7557,10.5133],[41.4193,42.7438,5.1478],[41.4218,42.7393,0.4964],[41.4232,42.7429,1.7434],[41.4221,42.7451,1.658],[41.4254,42.7465,1.9212],[41.4257,42.7451,2.1078],[41.4232,42.7449,1.658],[41.4271,42.7435,2.0296],[41.4243,42.7415,0.0],[41.4246,42.7401,0.0],[41.4368,42.741,5.2661],[41.4449,42.7343,3.6158],[41.456,42.7199,0.494],[41.474,42.689,1.5393],[41.4987,42.6324,4.9256],[41.501,42.6199,0.0],[41.5093,42.5982,0.0],[41.5137,42.5918,0.0],[41.5176,42.5729,0.0],[41.5215,42.566,0.8835],[41.5207,42.5643,0.2664],[41.5318,42.5171,3.5695],[41.5343,42.4971,0.0],[41.5368,42.4912,3.0067],[41.5368,42.4799,1.7354],[41.5407,42.4546,1.1094],[41.5513,42.4071,2.0795]]]]}}