{"type":"Feature","properties":{"ISO3166-1-Alpha-3":"GEO","country":"Georgia","fill":"#F0F","id":"3015","name":"Abkhazia"},
"geometry":{"type": "Polygon","coordinates": [[[40.51962,43.50518,1469.2432],[40.47983,43.50874,2263.4888],[40.23313,43.57577,837.1516],[40.1643,43.57584,476.4085],[40.0967,43.56264,319.0215],[40.07283,43.55106,1157.884],[40.05919,43.5352,597.3727],[39.99128,43.40632,7.8922],[39.98598,43.38899,4.159],[39.98601,43.38898,4.159],[40.00978,43.38516,0.0],[40.04078,43.3758,0.0],[40.08692,43.37031,0.0],[40.10133,43.36518,0.0],[40.13347,43.34162,0.0],[40.18824,43.32958,0.0],[40.21909,43.31904,0.0],[40.2352,43.30443,0.0],[40.25717,43.27741,0.0],[40.2728,43.24799,0.5524],[40.2684,43.21638,0.0],[40.27833,43.20551,3.5411],[40.30104,43.18867,1.609],[40.31031,43.17573,-0.5357],[40.32504,43.14883,0.0],[40.33513,43.14086,0.0],[40.36118,43.16547,18.654],[40.39829,43.16234,0.0],[40.47853,43.13402,0.0],[40.51026,43.12995,0.0],[40.52019,43.12726,0.0],[40.52898,43.12226,0.0],[40.54607,43.10883,0.0],[40.55055,43.10611,0.0],[40.56072,43.10297,0.0],[40.57993,43.08881,0.0],[40.59181,43.08564,0.0],[40.60401,43.08649,0.0],[40.63624,43.09247,0.0],[40.68287,43.09431,2.6562],[40.78305,43.08417,2.7802],[40.85597,43.06306,0.0],[40.8628,43.05899,0.0],[40.88624,43.02928,0.0],[40.88657,43.02416,0.0],[40.90398,43.01634,0.0],[40.93377,42.98273,0.0],[40.95899,42.97639,0.0],[40.99838,42.98945,0.0],[41.02312,42.98998,0.0],[41.04029,42.96133,0.0],[41.0818,42.90815,0.0],[41.10475,42.84658,1.6265],[41.15024,42.79564,0.1832],[41.1609,42.79084,0.0],[41.17359,42.79279,2.9705],[41.1937,42.80191,7.009],[41.20533,42.80443,6.1238],[41.22535,42.80231,17.4738],[41.25074,42.79523,4.8362],[41.27491,42.78531,0.0],[41.29103,42.77436,0.0],[41.3073,42.76765,0.0],[41.38347,42.75727,0.0],[41.42433,42.73989,0.0],[41.45737,42.71369,0.0],[41.48276,42.68024,2.5837],[41.50017,42.64057,20.1153],[41.55119,42.40646,1.5442],[41.55622,42.40822,4.3827],[41.58001,42.41673,1.7714],[41.59129,42.42077,3.0213],[41.62922,42.43842,8.6752],[41.65127,42.45884,15.5972],[41.66488,42.47144,17.0403],[41.71428,42.48376,31.7225],[41.71736,42.48509,33.2342],[41.80368,42.52221,77.0942],[41.88233,42.57862,146.5678],[41.88365,42.58004,147.7365],[41.89949,42.59712,162.9766],[41.92037,42.60973,190.9412],[41.93835,42.61799,210.6473],[41.94714,42.63585,175.233],[41.94414,42.65509,229.3896],[41.94042,42.679,252.9981],[41.9122,42.71463,923.2778],[41.90817,42.73902,1739.8008],[41.90951,42.76486,1769.1946],[41.89887,42.81088,1729.968],[41.89153,42.82007,1775.4658],[41.89225,42.83085,2186.2688],[41.903,42.83935,2299.509],[41.91551,42.84519,1965.0854],[41.93091,42.86064,2383.4277],[41.92584,42.88227,2641.3936],[41.91776,42.89998,2066.9766],[41.91613,42.90356,2107.7166],[41.91065,42.92707,1708.4585],[41.90218,42.94792,2097.5422],[41.8845,42.96464,2706.3113],[41.90022,42.97978,2940.2737],[41.90796,42.98725,2774.8096],[42.00512,43.00048,1416.2451],[42.05731,43.01688,2058.4319],[42.07633,43.0397,1879.1704],[42.09948,43.059,2360.0261],[42.11942,43.08321,2606.7734],[42.13348,43.11143,1960.4563],[42.13296,43.1392,2648.47],[42.12935,43.16786,2792.1338],[42.1403,43.19385,3167.2705],[42.15433,43.2175,3236.5342],[42.07529,43.18527,3010.4312],[42.04336,43.18057,3181.7844],[42.01132,43.18186,2837.0974],[41.97969,43.18866,1809.8722],[41.94827,43.20008,3159.8804],[41.91933,43.20594,2604.7688],[41.88998,43.20703,2230.3467],[41.82032,43.20124,2700.0366],[41.7889,43.20357,2325.998],[41.72379,43.21723,2977.4819],[41.68741,43.22021,3273.8911],[41.61413,43.21302,3467.8789],[41.57754,43.2153,2467.4429],[41.55057,43.22628,2584.2476],[41.50613,43.25979,2853.9175],[41.47977,43.27124,2331.3411],[41.42758,43.2832,1677.9493],[41.41311,43.29129,1870.3411],[41.40381,43.30152,2488.0549],[41.38975,43.32488,2016.4742],[41.38066,43.33477,1906.429],[41.35027,43.34335,2709.9102],[41.27875,43.3332,2899.3694],[41.24392,43.3442,2381.948],[41.21312,43.36278,2363.8796],[41.18077,43.37469,2768.9685],[41.14667,43.37986,2802.1748],[41.04249,43.36983,2041.1793],[41.01179,43.37542,1821.1753],[40.87495,43.45564,1905.213],[40.84271,43.46939,1545.075],[40.74018,43.49528,2346.4043],[40.68997,43.52313,2006.2218],[40.68106,43.52807,2304.2532],[40.65192,43.53897,1999.7689],[40.61554,43.53585,1923.3821],[40.55084,43.51125,1956.6238],[40.51962,43.50518,1469.2432]]]}}