{"type":"Feature","properties":{"ISO3166-1-Alpha-3":"GEO","country":"Georgia","fill":"#00F","id":"3029","name":"Samegrelo-Zemo Svaneti"},
"geometry":{"type": "Polygon","coordinates": [[[42.36256,43.23519,3004.7051],[42.35455,43.23602,3257.0356],[42.18536,43.22548,3000.4104],[42.15983,43.21974,3340.9458],[42.15433,43.2175,3236.5342],[42.1403,43.19385,3167.2705],[42.12935,43.16786,2792.1338],[42.13296,43.1392,2648.47],[42.13348,43.11143,1960.4563],[42.11942,43.08321,2606.7734],[42.09948,43.059,2360.0261],[42.07633,43.0397,1879.1704],[42.05731,43.01688,2058.4319],[42.00512,43.00048,1416.2451],[41.90796,42.98725,2774.8096],[41.90022,42.97978,2940.2737],[41.8845,42.96464,2706.3113],[41.90218,42.94792,2097.5422],[41.91065,42.92707,1708.4585],[41.91613,42.90356,2107.7166],[41.91776,42.89998,2066.9766],[41.92584,42.88227,2641.3936],[41.93091,42.86064,2383.4277],[41.91551,42.84519,1965.0854],[41.903,42.83935,2299.509],[41.89225,42.83085,2186.2688],[41.89153,42.82007,1775.4658],[41.89887,42.81088,1729.968],[41.90951,42.76486,1769.1946],[41.90817,42.73902,1739.8008],[41.9122,42.71463,923.2778],[41.94042,42.679,252.9981],[41.94414,42.65509,229.3896],[41.94714,42.63585,175.233],[41.93835,42.61799,210.6473],[41.92037,42.60973,190.9412],[41.89949,42.59712,162.9766],[41.88365,42.58004,147.7365],[41.88233,42.57862,146.5678],[41.80368,42.52221,77.0942],[41.71736,42.48509,33.2342],[41.71428,42.48376,31.7225],[41.66488,42.47144,17.0403],[41.65127,42.45884,15.5972],[41.62922,42.43842,8.6752],[41.59129,42.42077,3.0213],[41.58001,42.41673,1.7714],[41.55622,42.40822,4.3827],[41.55119,42.40646,1.5442],[41.5512,42.40644,1.5442],[41.55486,42.38984,0.0],[41.55836,42.3828,0.0],[41.58522,42.36286,0.0],[41.5923,42.35541,0.0],[41.5962,42.34943,0.0],[41.64918,42.21223,8.6704],[41.65724,42.16706,1.3023],[41.65919,42.133,0.0],[41.66407,42.11396,0.0],[41.67433,42.10554,0.0],[41.68491,42.09894,0.0],[41.71526,42.05936,0.0],[41.73175,42.08064,0.0],[41.73702,42.08565,0.0],[41.741459999999996,42.10482,0.7995],[41.75511,42.13254,0.6863],[41.81805,42.14141,8.9121],[41.88213,42.14306,16.1144],[42.00615,42.15862,16.8908],[42.06155,42.14841,10.0549],[42.11209,42.12314,10.9417],[42.17606,42.11704,13.1534],[42.22898,42.0972,17.7788],[42.26867,42.10061,17.6924],[42.28934,42.13161,21.0633],[42.28799,42.18414,20.9003],[42.29802,42.2259,38.2303],[42.31672,42.24218,48.7294],[42.3282,42.26825,63.9591],[42.3714,42.32145,101.926],[42.44168,42.38142,158.2762],[42.45511,42.40496,177.2945],[42.45604,42.4341,639.7239],[42.46576,42.44976,884.0159],[42.48095,42.45979,925.2534],[42.49635,42.49418,1045.0087],[42.52674,42.51715,1238.9918],[42.57697,42.5197,1010.3351],[42.59516,42.5234,1224.2955],[42.61438,42.5241,1255.7946],[42.53831,42.63613,1395.5919],[42.56488,42.67789,1861.7573],[42.5195,42.71199,2064.2542],[42.40747,42.75897,2726.6152],[42.35259,42.7938,1798.8752],[42.37729,42.82842,2391.7456],[42.40902,42.8416,2010.7188],[42.44612,42.84359,1612.0765],[42.45821,42.84586,1531.0995],[42.46907,42.85198,1958.5371],[42.47951,42.87041,2622.6426],[42.49191,42.88715,2761.6785],[42.51692,42.88668,2145.6763],[42.54162,42.87811,2065.1274],[42.68373,42.8526,1712.9111],[42.74223,42.85095,2219.8408],[42.76931,42.85986,1809.1849],[42.7814,42.86749,2091.512],[42.79432,42.87222,2075.9919],[42.90294,42.83615,1052.1917],[42.9757,42.84338,1434.8938],[43.03771,42.82571,2644.1953],[43.06562,42.82206,1754.6672],[43.0835,42.84302,2521.4019],[43.08619,42.87428,2816.4824],[43.10841,42.88955,2292.4299],[43.14251,42.92472,2174.876],[43.17523,42.93447,3462.1641],[43.15559,42.94239,2587.6758],[43.04826,43.01696,4589.6782],[42.99885,43.04221,3497.3289],[42.98976,43.05267,3090.6763],[42.99255,43.06882,3368.7556],[43.0002,43.08536,3346.0881],[43.00009,43.09866,3380.4783],[42.91483,43.12194,3516.873],[42.88578,43.13584,3438.7212],[42.85767,43.15545,3292.4917],[42.82977,43.16876,3662.373],[42.79132,43.17618,3756.332],[42.75153,43.17695,3652.7754],[42.70492,43.16644,3179.1003],[42.6736,43.16589,3851.6299],[42.65624,43.1598,3092.7109],[42.62937,43.14127,3259.9114],[42.61521,43.13698,2859.1909],[42.59588,43.14003,2969.2905],[42.5349,43.16507,3185.5647],[42.50607,43.18155,3602.5767],[42.47971,43.2009,3453.3252],[42.42287,43.22899,3114.8337],[42.36256,43.23519,3004.7051]]]}}