{"type": "Feature","bbox": [41.5515,42.0926,43.1883,43.2542],"geometry": {"type": "MultiPolygon","coordinates": [[[[41.7827,42.1391,13.7913],[41.8611,42.1397,19.9511],[41.9145,42.1481,16.6211],[41.9357,42.1547,11.1803],[41.9838,42.1546,11.4499],[42.0164,42.1601,17.3231],[42.0287,42.1551,8.1625],[42.0429,42.1535,11.3867],[42.0811,42.1453,9.7402],[42.1125,42.1229,10.9417],[42.1203,42.1191,12.625],[42.1445,42.1149,11.8052],[42.1985,42.1137,15.5556],[42.2235,42.1059,16.6325],[42.229,42.0972,17.7788],[42.2425,42.0981,19.6065],[42.2543,42.095,70.4615],[42.2614,42.095,68.3344],[42.2788,42.1028,22.4406],[42.2835,42.1066,16.6822],[42.2854,42.1193,20.8278],[42.2892,42.1271,21.441],[42.2901,42.1347,21.8835],[42.29,42.2054,27.3587],[42.289,42.2108,30.8461],[42.2851,42.2182,31.5],[42.2858,42.222,33.0672],[42.2886,42.2238,34.1937],[42.3129,42.2281,41.0825],[42.3158,42.2298,42.896],[42.3172,42.2396,48.4693],[42.3147,42.2508,52.5556],[42.3238,42.2635,61.7543],[42.342,42.2821,74.8811],[42.3507,42.2949,83.9628],[42.3587,42.3025,88.9015],[42.3835,42.3387,116.4009],[42.3945,42.3469,123.4256],[42.4075,42.3528,132.9015],[42.4261,42.3662,144.9744],[42.438,42.3786,155.8373],[42.4546,42.3916,291.7603],[42.4564,42.3982,442.4404],[42.4565,42.445,688.9426],[42.4611,42.45,895.4009],[42.4772,42.4555,901.3034],[42.4819,42.4592,935.9543],[42.4832,42.4641,967.0942],[42.4831,42.483,1031.5415],[42.4847,42.4869,1029.4009],[42.4909,42.4918,1046.8898],[42.5058,42.4991,1189.4745],[42.516,42.5133,1187.0093],[42.5211,42.5168,1202.7992],[42.5683,42.5174,977.4541],[42.5748,42.5187,976.9753],[42.5878,42.5248,1188.472],[42.6144,42.5242,1255.7946],[42.6075,42.5333,1420.9479],[42.6051,42.5444,1369.8489],[42.5946,42.5602,1553.9741],[42.556399999999996,42.6043,2233.7383],[42.5436,42.6152,2040.108],[42.5373,42.6248,1534.2399],[42.5365,42.6558,2160.8362],[42.5377,42.6625,2168.7112],[42.5445,42.6684,2158.6558],[42.5649,42.6779,1861.7573],[42.5557,42.6845,2296.6401],[42.5345,42.7073,2186.9656],[42.5276,42.7124,2035.5426],[42.4996,42.7227,1518.855],[42.4784,42.7327,1553.3727],[42.46,42.7372,1690.1582],[42.446,42.7387,2087.6238],[42.431399999999996,42.7451,2654.6907],[42.4096,42.76,2712.3567],[42.3733,42.7756,1892.9972],[42.3674,42.7802,1933.3876],[42.3615,42.7879,1924.0668],[42.3526,42.7938,1798.8752],[42.3842,42.838,2639.0635],[42.3926,42.8403,2381.8147],[42.4303,42.8403,1632.2466],[42.4421,42.8432,1535.8174],[42.4621,42.8451,1595.7822],[42.4765,42.8599,2248.98],[42.4848,42.8857,3041.2573],[42.4919,42.8872,2761.6785],[42.5133,42.8869,2269.623],[42.5202,42.886,2028.7515],[42.5599,42.8715,2657.0513],[42.6063,42.8706,2149.2231],[42.62,42.8672,2356.9333],[42.6369,42.8661,2034.1343],[42.6816,42.8508,1638.5449],[42.7173,42.8506,2122.7305],[42.7312,42.8472,1771.4823],[42.7388,42.8471,2124.9429],[42.7624,42.8556,2146.2578],[42.7772,42.8649,2055.2861],[42.7967,42.8732,2057.947],[42.8266,42.8628,1952.0825],[42.8439,42.8586,1457.2399],[42.8578,42.8571,1286.038],[42.8686,42.8533,1211.6987],[42.8915,42.8372,1073.9292],[42.8987,42.8345,1116.8621],[42.9165,42.8377,1217.8481],[42.9354,42.8384,1366.182],[42.9487,42.8416,1455.2596],[43.0008,42.8417,2431.4575],[43.0168,42.8452,2684.5669],[43.0249,42.8453,2763.7781],[43.0292,42.8437,2761.4861],[43.0337,42.838,2703.959],[43.0358,42.8269,2594.3767],[43.0402,42.8202,2378.1145],[43.0438,42.8182,2328.5181],[43.0497,42.8182,2121.9214],[43.0692,42.8234,1702.5167],[43.0823,42.8337,2374.7793],[43.0835,42.8403,2545.0015],[43.0831,42.8778,3045.4307],[43.0852,42.8832,3186.4265],[43.1086,42.8895,2292.4299],[43.114,42.8956,2330.9497],[43.1171,42.9044,2491.0144],[43.1249,42.9146,2434.0186],[43.1395,42.9218,2203.5598],[43.1549,42.9325,2190.666],[43.1654,42.9368,2726.3535],[43.1745,42.943,3117.5864],[43.1883,42.9368,4037.1143],[43.1775,42.9489,3779.8081],[43.1679,42.9562,3553.8062],[43.1132,42.9927,4453.2148],[43.0599,43.0196,4734.6948],[43.0425,43.0318,4724.6528],[43.036,43.0384,4597.5664],[43.0266,43.0499,4621.3589],[43.0242,43.067,3928.2629],[43.0395,43.087,4025.0093],[43.0386,43.0906,4096.1045],[42.9855,43.1099,3643.2227],[42.9487,43.1145,3301.6897],[42.9252,43.1154,3267.5825],[42.9318,43.1335,3369.1833],[42.9309,43.1383,3479.0786],[42.9234,43.1424,3423.7075],[42.9034,43.1491,3444.5352],[42.8993,43.152,3553.1567],[42.8965,43.1578,3548.7869],[42.8956,43.166,3260.5747],[42.8927,43.1701,3093.2925],[42.863,43.1715,3573.1619],[42.8408,43.1772,3800.5332],[42.8186,43.1733,4083.3379],[42.8099,43.1742,3485.5437],[42.7914,43.184,3951.2886],[42.7801,43.1856,3738.3599],[42.7654,43.1853,3493.5408],[42.7242,43.1764,3592.9399],[42.7145,43.1756,4016.4209],[42.702,43.172,3742.854],[42.6801,43.174,3877.4028],[42.6757,43.1728,3945.2041],[42.6738,43.168,3831.6592],[42.6861,43.1481,3468.6077],[42.6874,43.1428,3629.2515],[42.6861,43.1387,4110.4126],[42.683,43.1371,4207.0928],[42.6661,43.1403,3854.5369],[42.6358,43.151,3682.7534],[42.6251,43.1578,3853.8562],[42.5972,43.1644,3806.5769],[42.5878,43.168,3721.2734],[42.5772,43.1751,3359.6895],[42.5163,43.1991,4134.2148],[42.4759,43.21,3055.71],[42.4543,43.2129,3106.2544],[42.4511,43.2154,3067.2817],[42.4496,43.2197,3357.4346],[42.4508,43.2238,3176.2617],[42.4548,43.2289,3234.0771],[42.4663,43.2354,3058.0811],[42.4647,43.2402,3260.6626],[42.4563,43.2456,3374.7769],[42.4365,43.2542,3219.2573],[42.4261,43.254,3259.9238],[42.4052,43.2465,3204.1128],[42.394,43.2442,3225.3628],[42.3589,43.2408,3163.5933],[42.3552,43.239,3261.7649],[42.3462,43.2259,3436.9893],[42.3406,43.2247,3367.5491],[42.318,43.2264,3042.8362],[42.2969,43.2114,3398.26],[42.2885,43.2084,3235.6221],[42.264,43.2101,3259.2095],[42.241,43.226,3311.3394],[42.2213,43.23,3252.1382],[42.2131,43.2299,3276.1467],[42.1876,43.2181,3580.5701],[42.1813,43.2171,3544.9338],[42.1556,43.22,3302.2886],[42.1296,43.1711,2788.657],[42.1295,43.1461,2877.479],[42.1389,43.1321,2504.0151],[42.1397,43.1261,2874.9189],[42.1357,43.118899999999996,2350.272],[42.1334,43.1085,1825.4038],[42.1071,43.0657,2312.3513],[42.0909,43.0527,2163.7058],[42.0689,43.0407,2017.3533],[42.0615,43.0307,2266.835],[42.059,43.0195,2232.8872],[42.055,43.0136,1889.187],[42.0495,43.0107,1765.5264],[42.0313,43.0075,1882.9939],[42.0053,43.0066,1542.5096],[41.9923,43.0035,1600.5261],[41.9757,43.0024,1805.4216],[41.9479,42.9926,2458.075],[41.9241,42.9883,1981.9275],[41.9041,42.9865,2879.1458],[41.8833,42.9794,2838.1682],[41.8785,42.9748,2859.9526],[41.8838,42.9566,2137.2888],[41.8888,42.9501,1995.7302],[41.8943,42.9485,2135.0425],[41.91,42.9483,2163.9666],[41.9139,42.9465,2196.1343],[41.9153,42.9419,2017.1703],[41.9145,42.938,1879.6477],[41.9099,42.9283,1738.2957],[41.9099,42.9047,2256.2139],[41.9123,42.9005,2065.9983],[41.9241,42.8931,2313.6475],[41.9275,42.8755,2484.9277],[41.9349,42.8699,2005.9176],[41.9363,42.8667,2121.7649],[41.9357,42.8625,2294.4631],[41.9299,42.8533,2159.0249],[41.9243,42.8477,2098.062],[41.9017,42.8402,2365.4238],[41.8957,42.8356,2372.0471],[41.8853,42.8229,1896.6683],[41.8867,42.8199,1816.8027],[41.8989,42.8109,1729.968],[41.8989,42.8069,1638.4885],[41.9037,42.7969,1500.6488],[41.9047,42.7789,1578.814],[41.9092,42.7683,1823.3945],[41.9104,42.7178,1139.3275],[41.9193,42.7017,559.8506],[41.9393,42.6865,229.6206],[41.9519,42.6714,315.7263],[41.9518,42.6474,183.6201],[41.941,42.6193,212.2735],[41.9359,42.6151,206.5853],[41.9264,42.6114,196.8918],[41.9095,42.6072,154.1175],[41.9001,42.5987,162.9766],[41.8925,42.5873,155.9982],[41.8793,42.5759,142.9291],[41.8745,42.5695,138.7332],[41.8539,42.5539,137.826],[41.8467,42.5453,119.2532],[41.8319,42.5345,112.0984],[41.8073,42.5233,87.8462],[41.7751,42.5057,57.2838],[41.7115,42.4827,31.1938],[41.6957,42.4809,24.394],[41.6687,42.4735,19.1473],[41.6607,42.4681,16.1344],[41.6539,42.4599,15.1152],[41.6349,42.4455,10.3191],[41.6229,42.4331,8.6129],[41.5515,42.4066,1.5442],[41.5574,42.3913,0.0],[41.5588,42.3915,0.0],[41.5579,42.3946,0.0],[41.5604,42.4001,0.0],[41.5621,42.3949,0.9047],[41.5596,42.3896,0.0195],[41.566,42.3882,1.8684],[41.5874,42.3754,0.0],[41.5921,42.374,0.8944],[41.5946,42.3676,1.5725],[41.5968,42.3674,1.1846],[41.5979,42.3654,1.8928],[41.5968,42.364,1.8928],[41.599,42.3632,1.6842],[41.5988,42.3601,0.368],[41.6043,42.3526,1.0202],[41.6129,42.3293,0.6465],[41.6271,42.3007,0.8889],[41.6318,42.2815,1.1886],[41.6387,42.2646,2.284],[41.6426,42.2438,2.1537],[41.6413,42.2279,3.0436],[41.6374,42.2193,2.2452],[41.6315,42.2149,1.2205],[41.6315,42.2129,0.0124],[41.6389,42.2085,0.3509],[41.6382,42.2064,0.3041],[41.6329,42.2085,2.2397],[41.6318,42.2062,1.9443],[41.6351,42.2001,0.467],[41.6365,42.1871,1.3498],[41.6396,42.1868,0.0],[41.6435,42.1896,1.0453],[41.6454,42.1881,1.7109],[41.6421,42.1804,0.183],[41.6532,42.166,2.5665],[41.6526,42.161,1.4918],[41.6507,42.1599,0.0],[41.6565,42.1599,0.9338],[41.6565,42.1579,1.0782],[41.6504,42.1551,0.0],[41.6521,42.1546,0.0],[41.654,42.1551,0.7036],[41.6543,42.1538,0.7036],[41.6507,42.1526,0.0],[41.649,42.1499,0.0],[41.6479,42.1521,0.0586],[41.6474,42.1493,0.058],[41.6551,42.1485,1.1258],[41.6604,42.1321,1.8834],[41.6668,42.1282,0.9273],[41.679,42.1146,0.7248],[41.6813,42.1101,0.7919],[41.6862,42.1068,0.4539],[41.6987,42.0932,0.3768],[41.7018,42.0926,1.593],[41.7062,42.094,0.2011],[41.7118,42.0988,0.0],[41.7043,42.1115,1.5025],[41.7032,42.121,0.0],[41.7001,42.1268,0.495],[41.7012,42.131,0.0],[41.6932,42.1368,0.4875],[41.6926,42.1404,1.2578],[41.694,42.1413,0.9216],[41.701,42.141,0.0967],[41.7018,42.1426,0.6652],[41.704,42.1407,0.0],[41.7146,42.1399,0.0],[41.7238,42.1404,0.0],[41.7262,42.1421,5.5468],[41.7318,42.1407,0.6233],[41.7374,42.1415,1.773],[41.7518,42.136,0.2671],[41.7551,42.1379,0.7572],[41.7557,42.1368,3.5994],[41.7535,42.136,0.6144],[41.7551,42.1326,0.6863],[41.7601,42.1349,2.7881],[41.7827,42.1391,13.7913]]]]}
,"properties": {"GID_1": "GEO.9_1","GID_0": "GEO","country": "Georgia","province": "Samegrelo-ZemoSvaneti","VARNAME_1": "Zugdidi","NL_NAME_1": "NA","TYPE_1": "Region","ENGTYPE_1": "Region","CC_1": "NA","HASC_1": "GE.SZ","ISO_1": "GE-SZ","name": "Samegrelo-Zemo_Svaneti.province","area_km2": 7609.56,"hist_schema_id": "Elevation0-9000","hist_area_km2": {"0": 747.212,"25": 570.427,"50": 207.955,"75": 219.468,"100": 191.978,"125": 169.665,"150": 146.183,"175": 123.737,"200": 118.866,"225": 124.515,"250": 129.073,"275": 121.067,"300": 107.988,"325": 74.501,"350": 54.527,"375": 35.024,"400": 21.885,"425": 23.334,"450": 14.374,"475": 13.337,"500": 13.334,"525": 12.708,"550": 13.251,"575": 13.748,"600": 14.309,"625": 15.134,"650": 16.114,"675": 16.237,"700": 17.064,"725": 17.993,"750": 18.94,"775": 19.066,"800": 19.732,"825": 21.26,"850": 21.493,"875": 21.365,"900": 23.3,"925": 23.827,"950": 24.824,"975": 26.787,"1000": 26.564,"1025": 29.66,"1050": 29.578,"1075": 28.002,"1100": 31.126,"1125": 31.526,"1150": 32.992,"1175": 33.565,"1200": 33.598,"1225": 33.408,"1250": 33.634,"1275": 35.213,"1300": 36.361,"1325": 36.415,"1350": 37.983,"1375": 39.986,"1400": 38.938,"1425": 40.537,"1450": 40.485,"1475": 41.401,"1500": 41.784,"1525": 43.864,"1550": 44.004,"1575": 45.69,"1600": 48.191,"1625": 49.14,"1650": 50.035,"1675": 50.411,"1700": 50.148,"1725": 50.272,"1750": 50.129,"1775": 51.681,"1800": 51.372,"1825": 52.113,"1850": 51.69,"1875": 52.14,"1900": 53.363,"1925": 51.434,"1950": 52.49,"1975": 51.401,"2000": 50.004,"2025": 51.123,"2050": 51.008,"2075": 51.168,"2100": 51.504,"2125": 50.02,"2150": 52.326,"2175": 49.485,"2200": 50.972,"2225": 49.975,"2250": 49.848,"2275": 47.925,"2300": 49.534,"2325": 47.797,"2350": 49.128,"2375": 47.683,"2400": 48.025,"2425": 47.773,"2450": 48.731,"2475": 45.473,"2500": 47.16,"2525": 47.348,"2550": 45.871,"2575": 45.253,"2600": 45.543,"2625": 46.118,"2650": 44.753,"2675": 45.309,"2700": 41.909,"2725": 42.883,"2750": 41.885,"2775": 40.848,"2800": 39.137,"2825": 36.824,"2850": 38.278,"2875": 36.137,"2900": 34.556,"2925": 33.342,"2950": 31.79,"2975": 29.322,"3000": 28.28,"3025": 28.184,"3050": 26.449,"3075": 25.096,"3100": 25.975,"3125": 23.016,"3150": 22.272,"3175": 20.629,"3200": 20.781,"3225": 19.96,"3250": 18.922,"3275": 17.995,"3300": 17.714,"3325": 16.722,"3350": 15.113,"3375": 14.99,"3400": 13.209,"3425": 12.31,"3450": 13.067,"3475": 11.706,"3500": 10.792,"3525": 10.899,"3550": 10.095,"3575": 8.717,"3600": 8.003,"3625": 7.695,"3650": 7.339,"3675": 6.379,"3700": 5.976,"3725": 5.403,"3750": 4.831,"3775": 4.366,"3800": 3.607,"3825": 3.84,"3850": 3.205,"3875": 3.19,"3900": 2.849,"3925": 2.555,"3950": 2.121,"3975": 2.029,"4000": 2.013,"4025": 1.58,"4050": 1.874,"4075": 1.688,"4100": 1.317,"4125": 1.409,"4150": 1.44,"4175": 1.193,"4200": 1.27,"4225": 1.394,"4250": 1.348,"4275": 0.961,"4300": 0.697,"4325": 0.914,"4350": 0.868,"4375": 0.806,"4400": 0.821,"4425": 0.666,"4450": 0.542,"4475": 0.713,"4500": 0.604,"4525": 0.62,"4550": 0.697,"4575": 0.558,"4600": 0.635,"4625": 0.496,"4650": 0.418,"4675": 0.465,"4700": 0.481,"4725": 0.558,"4750": 0.31,"4775": 0.372,"4800": 0.419,"4825": 0.326,"4850": 0.186,"4875": 0.264,"4900": 0.326,"4925": 0.31}}}