{"type":"Feature","properties":{"GID_2":"GEO.9.3_1","GID_0":"GEO","country":"Georgia","GID_1":"GEO.9_1","province":"Samegrelo-ZemoSvaneti","NL_NAME_1":"NA","county":"Khobi","VARNAME_2":"NA","NL_NAME_2":"NA","TYPE_2":"Raioni","ENGTYPE_2":"District","CC_2":"NA","HASC_2":"GE.SZ.KH","name":"Khobi.county"},
"geometry":{"type": "MultiPolygon","coordinates": [[[[41.8559,42.1393,17.551],[41.8759,42.1703,20.6526],[41.8786,42.1821,7.7968],[41.8859,42.1958,8.3476],[41.9088,42.2086,6.91],[41.9207,42.2129,5.468],[41.9557,42.2133,7.905],[41.9603,42.2145,7.9047],[41.9633,42.2186,7.1259],[41.9638,42.2437,10.7004],[41.9695,42.2525,12.1431],[41.9831,42.2679,14.5873],[41.9897,42.2881,21.5151],[41.9885,42.2923,23.3119],[41.9831,42.2973,23.848],[41.9656,42.3062,23.0562],[41.9595,42.3112,20.5749],[41.9528,42.3258,49.0199],[41.9534,42.3391,154.2163],[41.9599,42.3482,141.9744],[41.9675,42.3511,57.6951],[41.991,42.3507,120.2822],[42.0065,42.347,119.7498],[42.0397,42.3469,83.0632],[42.0423,42.3505,88.6855],[42.0284,42.3723,55.8973],[42.0425,42.3905,87.352],[42.0475,42.4041,64.6058],[42.0574,42.4208,86.1513],[42.0555,42.4239,71.1677],[42.0313,42.4326,91.7943],[42.0163,42.4365,134.9726],[42.0013,42.4383,69.6243],[41.9749,42.4481,103.0136],[41.9701,42.4485,166.3355],[41.9475,42.4381,161.6107],[41.9427,42.4327,111.8335],[41.9433,42.4291,127.0008],[41.9513,42.4175,104.7888],[41.9523,42.4137,60.9403],[41.9517,42.3873,39.1046],[41.9457,42.3813,31.9646],[41.9097,42.3563,24.2872],[41.9025,42.3551,69.2759],[41.8733,42.3561,40.0317],[41.8341,42.3783,154.653],[41.8015,42.3905,18.223],[41.7945,42.3909,18.7753],[41.7679,42.3811,11.0026],[41.7611,42.3721,9.7497],[41.7587,42.3607,10.4121],[41.7523,42.3527,7.9955],[41.7205,42.3425,8.7653],[41.7045,42.3205,4.2547],[41.7001,42.3175,12.5608],[41.6683,42.3091,11.2193],[41.6229,42.3087,0.3422],[41.6271,42.3007,0.8889],[41.6318,42.2815,1.1886],[41.6376,42.2685,2.7339],[41.6426,42.2438,2.1537],[41.6413,42.2279,3.0436],[41.6374,42.2193,2.2452],[41.6315,42.2149,1.2205],[41.6315,42.2129,0.0124],[41.6389,42.2085,0.3509],[41.6382,42.2064,0.3041],[41.6329,42.2085,2.2397],[41.6318,42.2062,1.9443],[41.6351,42.2001,0.467],[41.6365,42.1871,1.3498],[41.6396,42.1868,0.0],[41.6435,42.1896,1.0453],[41.6454,42.1881,1.7109],[41.6421,42.1804,0.183],[41.6532,42.166,2.5665],[41.6526,42.161,1.4918],[41.6507,42.1599,0.0],[41.6563,42.1601,0.9338],[41.6568,42.1585,1.0782],[41.651,42.156,0.0],[41.6504,42.1546,0.0],[41.654,42.1551,0.7036],[41.6543,42.1538,0.7036],[41.6507,42.1526,0.0],[41.649,42.1499,0.0],[41.6479,42.1521,0.0586],[41.6474,42.1493,0.058],[41.6551,42.1485,1.1258],[41.6604,42.1321,1.8834],[41.6668,42.1282,0.9273],[41.679,42.1146,0.7248],[41.6813,42.1101,0.7919],[41.6862,42.1068,0.4539],[41.6987,42.0932,0.3768],[41.7051,42.0935,0.5438],[41.7118,42.0988,0.0],[41.7043,42.1115,1.5025],[41.7032,42.121,0.0],[41.7001,42.1268,0.495],[41.7012,42.131,0.0],[41.6932,42.1368,0.4875],[41.6926,42.1404,1.2578],[41.694,42.1413,0.9216],[41.701,42.141,0.0967],[41.7018,42.1426,0.6652],[41.704,42.1407,0.0],[41.7146,42.1399,0.0],[41.7238,42.1404,0.0],[41.7262,42.1421,5.5468],[41.7318,42.1407,0.6233],[41.7374,42.1415,1.773],[41.7518,42.136,0.2671],[41.7551,42.1379,0.7572],[41.7557,42.1368,3.5994],[41.7535,42.136,0.6144],[41.7551,42.1326,0.6863],[41.7637,42.1357,3.4887],[41.7881,42.1397,4.6636],[41.8559,42.1393,17.551]]]]}}