{"type": "Feature","bbox": [41.8784,42.7682,43.1883,43.2542],"geometry": {"type": "MultiPolygon","coordinates": [[[[42.1295,43.1461,2877.479],[42.1389,43.1321,2504.0151],[42.1397,43.1261,2874.9189],[42.1357,43.118899999999996,2350.272],[42.1334,43.1085,1825.4038],[42.125,43.0956,2446.4402],[42.1232,43.0901,2764.4805],[42.1049,43.0633,2262.6843],[42.0909,43.0527,2163.7058],[42.0733,43.0437,1916.1925],[42.0661,43.0377,2129.5361],[42.0615,43.0307,2266.835],[42.059,43.0195,2232.8872],[42.053,43.0118,1796.6758],[42.0313,43.0075,1882.9939],[42.0053,43.0066,1542.5096],[41.9923,43.0035,1600.5261],[41.9757,43.0024,1805.4216],[41.9479,42.9926,2458.075],[41.9241,42.9883,1981.9275],[41.9041,42.9865,2879.1458],[41.8833,42.9794,2838.1682],[41.8793,42.9764,2872.7144],[41.8784,42.973,2831.1338],[41.8823,42.9647,2701.2849],[41.8834,42.9576,2219.0071],[41.8888,42.9501,1995.7302],[41.8943,42.9485,2135.0425],[41.91,42.9483,2163.9666],[41.9139,42.9465,2196.1343],[41.9153,42.9419,2017.1703],[41.9145,42.938,1879.6477],[41.9099,42.9283,1738.2957],[41.9099,42.9047,2256.2139],[41.9123,42.9005,2065.9983],[41.9241,42.8931,2313.6475],[41.9275,42.8755,2484.9277],[41.9349,42.8699,2005.9176],[41.9363,42.8667,2121.7649],[41.9357,42.8625,2294.4631],[41.9299,42.8533,2159.0249],[41.9243,42.8477,2098.062],[41.9017,42.8402,2365.4238],[41.8867,42.8257,1954.7719],[41.8853,42.8229,1896.6683],[41.8867,42.8199,1816.8027],[41.8989,42.8109,1729.968],[41.9141,42.8145,1735.1682],[41.9427,42.8145,1534.4879],[41.9637,42.8075,1757.0161],[41.9895,42.8017,1141.7323],[42.0077,42.7952,908.9673],[42.0152,42.7952,698.1929],[42.0436,42.8022,598.4996],[42.0654,42.7952,855.829],[42.0717,42.7946,904.4643],[42.0904,42.7994,1187.7078],[42.1077,42.8233,1239.3623],[42.1134,42.8249,1554.2725],[42.175,42.8036,1492.3413],[42.1852,42.796,1599.2812],[42.1907,42.7888,1473.7271],[42.2134,42.7682,2720.144],[42.2266,42.7715,2133.6233],[42.2401,42.7801,2736.7356],[42.2584,42.789,2871.5667],[42.2865,42.7969,1931.7861],[42.3205,42.7973,2053.272],[42.3372,42.7936,1709.2485],[42.3526,42.7938,1798.8752],[42.3842,42.838,2639.0635],[42.3926,42.8403,2381.8147],[42.4303,42.8403,1632.2466],[42.4421,42.8432,1535.8174],[42.4621,42.8451,1595.7822],[42.4765,42.8599,2248.98],[42.4841,42.8849,3095.3582],[42.4919,42.8872,2761.6785],[42.5202,42.886,2028.7515],[42.5612,42.8713,2657.0513],[42.6063,42.8706,2149.2231],[42.62,42.8672,2356.9333],[42.6369,42.8661,2034.1343],[42.6816,42.8508,1638.5449],[42.7173,42.8506,2122.7305],[42.7312,42.8472,1771.4823],[42.7388,42.8471,2124.9429],[42.7624,42.8556,2146.2578],[42.7772,42.8649,2055.2861],[42.7967,42.8732,2057.947],[42.8266,42.8628,1952.0825],[42.8439,42.8586,1457.2399],[42.8578,42.8571,1286.038],[42.8686,42.8533,1211.6987],[42.8915,42.8372,1073.9292],[42.8987,42.8345,1116.8621],[42.9165,42.8377,1217.8481],[42.9354,42.8384,1366.182],[42.9487,42.8416,1455.2596],[43.0008,42.8417,2431.4575],[43.0168,42.8452,2684.5669],[43.0249,42.8453,2763.7781],[43.0292,42.8437,2761.4861],[43.0337,42.838,2703.959],[43.0358,42.8269,2594.3767],[43.0402,42.8202,2378.1145],[43.0438,42.8182,2328.5181],[43.0497,42.8182,2121.9214],[43.0692,42.8234,1702.5167],[43.0823,42.8337,2374.7793],[43.0835,42.8403,2545.0015],[43.0831,42.8778,3045.4307],[43.0852,42.8832,3186.4265],[43.1086,42.8895,2292.4299],[43.114,42.8956,2330.9497],[43.1171,42.9044,2491.0144],[43.1249,42.9146,2434.0186],[43.1395,42.9218,2203.5598],[43.1549,42.9325,2190.666],[43.1654,42.9368,2726.3535],[43.1745,42.943,3117.5864],[43.1883,42.9368,4037.1143],[43.1775,42.9489,3779.8081],[43.1679,42.9562,3553.8062],[43.1132,42.9927,4453.2148],[43.0599,43.0196,4734.6948],[43.0425,43.0318,4724.6528],[43.036,43.0384,4597.5664],[43.0266,43.0499,4621.3589],[43.0242,43.067,3928.2629],[43.0395,43.087,4025.0093],[43.0386,43.0906,4096.1045],[42.9855,43.1099,3643.2227],[42.9487,43.1145,3301.6897],[42.9252,43.1154,3267.5825],[42.9318,43.1335,3369.1833],[42.9309,43.1383,3479.0786],[42.9234,43.1424,3423.7075],[42.9034,43.1491,3444.5352],[42.8993,43.152,3553.1567],[42.8965,43.1578,3548.7869],[42.8956,43.166,3260.5747],[42.8927,43.1701,3093.2925],[42.863,43.1715,3573.1619],[42.8408,43.1772,3800.5332],[42.8186,43.1733,4083.3379],[42.8099,43.1742,3485.5437],[42.7914,43.184,3951.2886],[42.7801,43.1856,3738.3599],[42.7654,43.1853,3493.5408],[42.7242,43.1764,3592.9399],[42.7145,43.1756,4016.4209],[42.702,43.172,3742.854],[42.6801,43.174,3877.4028],[42.6757,43.1728,3945.2041],[42.6738,43.168,3831.6592],[42.6861,43.1481,3468.6077],[42.6874,43.1428,3629.2515],[42.6861,43.1387,4110.4126],[42.683,43.1371,4207.0928],[42.6661,43.1403,3854.5369],[42.6358,43.151,3682.7534],[42.6251,43.1578,3853.8562],[42.5972,43.1644,3806.5769],[42.5878,43.168,3721.2734],[42.5772,43.1751,3359.6895],[42.5163,43.1991,4134.2148],[42.4759,43.21,3055.71],[42.4543,43.2129,3106.2544],[42.4511,43.2154,3067.2817],[42.4496,43.2197,3357.4346],[42.4508,43.2238,3176.2617],[42.4548,43.2289,3234.0771],[42.4663,43.2354,3058.0811],[42.4647,43.2402,3260.6626],[42.4424,43.2524,3357.0391],[42.4365,43.2542,3219.2573],[42.4261,43.254,3259.9238],[42.4052,43.2465,3204.1128],[42.394,43.2442,3225.3628],[42.3589,43.2408,3163.5933],[42.3552,43.239,3261.7649],[42.3462,43.2259,3436.9893],[42.3406,43.2247,3367.5491],[42.318,43.2264,3042.8362],[42.2969,43.2114,3398.26],[42.2885,43.2084,3235.6221],[42.264,43.2101,3259.2095],[42.241,43.226,3311.3394],[42.2213,43.23,3252.1382],[42.2131,43.2299,3276.1467],[42.1876,43.2181,3580.5701],[42.1813,43.2171,3544.9338],[42.1556,43.22,3302.2886],[42.1497,43.2069,2730.8535],[42.1302,43.1739,2737.1089],[42.1295,43.1461,2877.479]]]]}
,"properties": {"GID_2": "GEO.9.5_1","GID_0": "GEO","country": "Georgia","GID_1": "GEO.9_1","province": "Samegrelo-ZemoSvaneti","NL_NAME_1": "NA","county": "Mestia","VARNAME_2": "NA","NL_NAME_2": "NA","TYPE_2": "Raioni","ENGTYPE_2": "District","CC_2": "NA","HASC_2": "GE.SZ.MS","name": "Mestia.county","area_km2": 3406.756,"hist_schema_id": "Elevation0-9000","hist_area_km2": {"425": 3.312,"450": 0.886,"475": 1.445,"500": 1.507,"525": 1.833,"550": 2.284,"575": 2.719,"600": 2.749,"625": 3.014,"650": 3.572,"675": 3.448,"700": 3.883,"725": 4.906,"750": 5.636,"775": 5.263,"800": 6.008,"825": 6.365,"850": 6.551,"875": 7.342,"900": 7.373,"925": 7.994,"950": 8.708,"975": 9.111,"1000": 9.575,"1025": 11.033,"1050": 11.592,"1075": 11.762,"1100": 13.142,"1125": 14.461,"1150": 14.662,"1175": 15.05,"1200": 16.941,"1225": 17.174,"1250": 18.337,"1275": 19.918,"1300": 21.16,"1325": 22.321,"1350": 23.189,"1375": 24.911,"1400": 25.205,"1425": 26.462,"1450": 27.111,"1475": 27.684,"1500": 28.818,"1525": 30.383,"1550": 30.478,"1575": 32.804,"1600": 34.666,"1625": 34.166,"1650": 35.95,"1675": 36.139,"1700": 36.157,"1725": 36.327,"1750": 36.9,"1775": 38.779,"1800": 38.236,"1825": 39.849,"1850": 40.423,"1875": 40.905,"1900": 42.534,"1925": 41.944,"1950": 42.97,"1975": 42.099,"2000": 41.512,"2025": 41.93,"2050": 43.529,"2075": 42.753,"2100": 44.195,"2125": 42.242,"2150": 44.58,"2175": 42.597,"2200": 44.535,"2225": 44.006,"2250": 44.301,"2275": 42.268,"2300": 44.33,"2325": 42.78,"2350": 44.563,"2375": 43.258,"2400": 43.881,"2425": 43.801,"2450": 45.445,"2475": 42.343,"2500": 44.03,"2525": 44.265,"2550": 43.333,"2575": 42.123,"2600": 42.756,"2625": 43.424,"2650": 42.464,"2675": 42.755,"2700": 39.698,"2725": 41.046,"2750": 40.562,"2775": 39.493,"2800": 38.266,"2825": 36.248,"2850": 37.78,"2875": 35.794,"2900": 34.276,"2925": 33.124,"2950": 31.619,"2975": 29.213,"3000": 28.14,"3025": 28.122,"3050": 26.355,"3075": 25.096,"3100": 25.913,"3125": 23.016,"3150": 22.272,"3175": 20.629,"3200": 20.781,"3225": 19.96,"3250": 18.922,"3275": 17.979,"3300": 17.699,"3325": 16.722,"3350": 15.128,"3375": 14.99,"3400": 13.209,"3425": 12.326,"3450": 13.083,"3475": 11.706,"3500": 10.776,"3525": 10.899,"3550": 10.095,"3575": 8.717,"3600": 8.003,"3625": 7.695,"3650": 7.339,"3675": 6.379,"3700": 5.976,"3725": 5.403,"3750": 4.831,"3775": 4.366,"3800": 3.607,"3825": 3.84,"3850": 3.205,"3875": 3.19,"3900": 2.849,"3925": 2.555,"3950": 2.121,"3975": 2.029,"4000": 2.013,"4025": 1.58,"4050": 1.874,"4075": 1.688,"4100": 1.317,"4125": 1.409,"4150": 1.44,"4175": 1.193,"4200": 1.27,"4225": 1.394,"4250": 1.348,"4275": 0.961,"4300": 0.697,"4325": 0.914,"4350": 0.868,"4375": 0.806,"4400": 0.821,"4425": 0.666,"4450": 0.542,"4475": 0.713,"4500": 0.604,"4525": 0.62,"4550": 0.697,"4575": 0.558,"4600": 0.635,"4625": 0.496,"4650": 0.418,"4675": 0.465,"4700": 0.481,"4725": 0.558,"4750": 0.31,"4775": 0.372,"4800": 0.419,"4825": 0.326,"4850": 0.186,"4875": 0.264,"4900": 0.326,"4925": 0.31,"4950": 0.031}}}