{"type":"Feature","properties":{"GID_2":"GEO.6.1_1","GID_0":"GEO","country":"Georgia","GID_1":"GEO.6_1","province":"KvemoKartli","NL_NAME_1":"NA","county":"Bolnisi","VARNAME_2":"NA","NL_NAME_2":"NA","TYPE_2":"Raioni","ENGTYPE_2":"District","CC_2":"NA","HASC_2":"GE.KK.BL","name":"Bolnisi.county"},
"geometry":{"type": "MultiPolygon","coordinates": [[[[44.5608,41.2008,1156.5475],[44.5576,41.2072,1058.7325],[44.5563,41.2221,1187.1628],[44.5518,41.233,1161.6477],[44.5514,41.2686,941.5282],[44.5532,41.2746,1040.1216],[44.5822,41.2844,1127.4574],[44.5902,41.3025,937.2581],[44.595,41.3062,945.4238],[44.6271,41.3176,1197.9033],[44.6496,41.3201,1021.782],[44.6598,41.3344,886.8706],[44.6631,41.3362,839.2658],[44.6678,41.3349,953.191],[44.6735,41.3275,916.6794],[44.6858,41.3177,997.9616],[44.6929,41.3163,963.1705],[44.7011,41.3254,1014.2282],[44.7131,41.3343,869.0969],[44.7454,41.3501,523.0992],[44.759,41.3645,539.2256],[44.7653,41.3741,473.9865],[44.7666,41.3864,443.4149],[44.771,41.3946,407.9562],[44.7715,41.3993,395.4889],[44.7697,41.4049,386.8709],[44.7616,41.4125,388.1927],[44.7575,41.4193,373.081],[44.7616,41.4276,365.7227],[44.7696,41.4351,372.2025],[44.7705,41.4377,376.0101],[44.765,41.4511,382.7544],[44.7584,41.4604,384.1946],[44.7341,41.4703,396.7907],[44.6981,41.4719,413.6844],[44.6611,41.483,583.0122],[44.6459,41.483,600.9189],[44.6329,41.4797,631.0265],[44.6218,41.4795,633.7204],[44.5793,41.4913,651.9174],[44.4812,41.4919,815.7996],[44.4717,41.4884,835.4896],[44.4628,41.4781,768.6172],[44.4547,41.4732,729.4507],[44.4221,41.4723,905.1923],[44.4092,41.4691,885.2401],[44.3753,41.4679,901.5593],[44.3421,41.4502,859.5338],[44.311,41.4446,1010.2693],[44.2772,41.4324,1217.3132],[44.2571,41.4132,1169.959],[44.2538,41.4072,1194.2368],[44.254,41.4049,1158.1259],[44.2632,41.391,1265.2888],[44.2788,41.3756,1217.6206],[44.3188,41.3633,1172.7449],[44.3872,41.3624,795.0296],[44.3908,41.3591,864.4089],[44.3909,41.3463,1015.3999],[44.3939,41.3413,1019.2377],[44.4333,41.3266,1385.661],[44.4381,41.3228,1346.4373],[44.4394,41.3159,1298.7986],[44.4387,41.3058,1208.8685],[44.4321,41.2952,1352.7217],[44.4098,41.2785,1260.7562],[44.3914,41.272,1465.4142],[44.3879,41.2691,1575.5822],[44.3887,41.2661,1568.8789],[44.3997,41.2571,1541.8927],[44.4017,41.2504,1378.834],[44.4004,41.2333,1650.2004],[44.392,41.2209,1933.845],[44.3897,41.2142,2069.7527],[44.4056,41.2029,1870.7971],[44.4355,41.1877,1676.4739],[44.4475,41.1843,1661.3792],[44.4615,41.185,1814.8772],[44.4813,41.1925,1515.2218],[44.4944,41.1953,1423.9586],[44.5011,41.1957,1511.8043],[44.5337,41.1908,1295.521],[44.5608,41.2008,1156.5475]]]]}}