{"type":"Feature","properties":{"GID_2":"GEO.7.2_1","GID_0":"GEO","country":"Georgia","GID_1":"GEO.7_1","province":"Mtskheta-Mtianeti","NL_NAME_1":"NA","county":"Dusheti","VARNAME_2":"NA","NL_NAME_2":"NA","TYPE_2":"Raioni","ENGTYPE_2":"District","CC_2":"NA","HASC_2":"GE.MM.DU","name":"Dusheti.county"},
"geometry":{"type": "MultiPolygon","coordinates": [[[[45.3032,42.5616,3748.3291],[45.296,42.5872,3479.6133],[45.2891,42.5949,3845.4333],[45.2559,42.616,3350.8232],[45.2069,42.6637,2437.0674],[45.1866,42.6786,1525.6798],[45.1765,42.6907,2539.1094],[45.1672,42.6978,3109.1299],[45.1562,42.7016,3072.9421],[45.1305,42.7035,2772.4785],[45.0829,42.6946,3152.366],[45.0455,42.6985,3310.0037],[45.0351,42.7012,3343.4004],[44.9957,42.7299,2861.6128],[44.9711,42.7446,2060.9641],[44.9275,42.7527,3062.1689],[44.8917,42.7499,2988.6543],[44.8783,42.7469,2911.7876],[44.8691,42.7416,2946.0872],[44.8511,42.7249,2536.5771],[44.8321,42.7017,3309.2136],[44.8179,42.6669,3146.532],[44.8038,42.6417,2764.3015],[44.8039,42.6181,3395.7803],[44.8085,42.6079,3109.8545],[44.8096,42.5926,2888.4844],[44.8156,42.579,2587.8789],[44.8249,42.5657,3357.1985],[44.8282,42.5582,2942.7778],[44.8188,42.5436,3016.8245],[44.7967,42.5193,2931.7764],[44.7802,42.5062,2403.7844],[44.7694,42.4946,2855.0261],[44.7604,42.4892,2614.3455],[44.7186,42.4741,2013.1449],[44.7123,42.4731,2066.2195],[44.6847,42.4733,1804.5243],[44.6604,42.4803,2230.8135],[44.6222,42.4666,2013.7865],[44.6086,42.4655,2152.72],[44.5903,42.4693,2417.7734],[44.5642,42.4702,2035.4276],[44.5223,42.4849,2389.585],[44.4879,42.4734,2175.3528],[44.4831,42.4697,2101.0916],[44.4822,42.4613,1966.3219],[44.4874,42.4484,1839.7595],[44.4872,42.4134,2277.4639],[44.4826,42.4082,2316.1328],[44.4624,42.4009,1601.551],[44.4635,42.3983,1610.8358],[44.4676,42.391,1590.3779],[44.476,42.3848,1394.6101],[44.5299,42.367,1715.5383],[44.5511,42.3532,1577.2844],[44.5674,42.351,1566.743],[44.583,42.346,1972.3632],[44.5843,42.3396,2319.4148],[44.5832,42.3255,2383.8457],[44.5694,42.3053,1786.1525],[44.569,42.3009,1838.7241],[44.5802,42.2845,2161.8706],[44.5917,42.2719,1793.4275],[44.603,42.2626,1580.6013],[44.6157,42.2473,1853.7341],[44.6162,42.1664,1484.9088],[44.615,42.1595,1303.2513],[44.5984,42.1353,1255.8212],[44.5648,42.1172,1059.5637],[44.5586,42.1088,1082.1646],[44.556,42.1008,1072.8503],[44.5502,42.0921,1096.4932],[44.5438,42.0872,1055.0649],[44.5307,42.0813,1169.0449],[44.5259,42.0767,1337.0969],[44.5252,42.0673,1338.4639],[44.5315,42.0538,1253.915],[44.5459,42.0404,1123.5856],[44.5467,42.0347,1099.687],[44.5442,42.0286,1010.7888],[44.528,42.0205,1032.7676],[44.5239,42.0199,956.0466],[44.4978,42.0333,693.0594],[44.4836,42.0374,772.1531],[44.478,42.0345,819.1419],[44.4699,42.0228,810.3143],[44.5019,41.9991,651.9591],[44.5036,41.9936,647.3772],[44.5035,41.9795,627.9214],[44.5218,41.9784,621.3508],[44.5363,41.975,610.26],[44.5807,41.9743,677.7112],[44.5995,41.9698,613.1738],[44.6165,41.9636,588.9396],[44.6279,41.9626,608.5275],[44.6932,41.9627,934.0228],[44.7212,41.9762,879.5845],[44.7272,41.9773,830.7891],[44.7389,41.9735,585.5763],[44.743,41.9704,575.0317],[44.7492,41.957,553.0609],[44.7509,41.9467,535.6917],[44.7576,41.9395,530.051],[44.7619,41.9397,544.2104],[44.7783,41.9455,680.2401],[44.8238,41.9346,923.6868],[44.8487,41.9405,1002.3959],[44.8551,41.9477,1109.2935],[44.8627,41.9521,1103.5846],[44.8632,42.0035,1268.8019],[44.8673,42.0076,1408.8032],[44.8858,42.0145,1183.6907],[44.8892,42.0206,1287.2051],[44.8843,42.0328,1354.5819],[44.8833,42.0586,1467.8224],[44.8588,42.0948,1287.4618],[44.8563,42.1058,1414.3407],[44.8521,42.1141,1201.2623],[44.853,42.1264,1336.5288],[44.8662,42.138,1313.1692],[44.8723,42.1513,1330.1272],[44.8717,42.1547,1467.7444],[44.8638,42.1663,1538.0775],[44.8616,42.1765,1317.0266],[44.8578,42.1829,1228.0807],[44.8581,42.1918,1359.3091],[44.8825,42.2009,1269.4734],[44.9144,42.2359,1631.3887],[44.9161,42.2407,1663.8977],[44.9161,42.2516,1374.4128],[44.9178,42.2549,1394.3131],[44.9235,42.2562,1369.6868],[44.9453,42.2562,1933.0273],[44.9515,42.2588,2002.1411],[45.0003,42.3102,2172.4805],[45.0134,42.33,2097.4233],[45.0175,42.3331,1936.6041],[45.0287,42.3345,1982.163],[45.0403,42.333,1690.2727],[45.0471,42.3284,1719.8274],[45.0558,42.3179,2020.7845],[45.0649,42.315,2340.1985],[45.0777,42.3194,1972.9409],[45.1085,42.3366,2311.02],[45.1192,42.3405,1869.5474],[45.1568,42.3463,2253.093],[45.1658,42.3548,2302.0991],[45.1699,42.3567,2356.1729],[45.1892,42.357,2014.785],[45.2032,42.3535,1936.0126],[45.2247,42.3526,2781.5186],[45.2114,42.3749,2639.573],[45.2116,42.4029,2527.4978],[45.2168,42.4084,2968.2612],[45.2298,42.4143,2948.5566],[45.2458,42.4251,2854.3379],[45.2553,42.4291,2536.7283],[45.2586,42.4327,2378.3391],[45.2591,42.4704,3190.1653],[45.2492,42.4915,2931.3262],[45.2492,42.4971,2678.1648],[45.2657,42.5214,3571.0862],[45.2736,42.5291,3498.8818],[45.2822,42.5418,3874.1328],[45.2945,42.5519,3682.1409],[45.3032,42.5616,3748.3291]]]]}}