{"type": "Feature","bbox": [43.903,41.1567,44.4387,41.5439],"geometry": {"type": "MultiPolygon","coordinates": [[[[44.3897,41.2142,2069.7527],[44.392,41.2209,1933.845],[44.4004,41.2333,1650.2004],[44.4017,41.2504,1378.834],[44.3997,41.2571,1541.8927],[44.3887,41.2661,1568.8789],[44.3879,41.2691,1575.5822],[44.3914,41.272,1465.4142],[44.4098,41.2785,1260.7562],[44.4321,41.2952,1352.7217],[44.4387,41.3058,1208.8685],[44.4385,41.3219,1332.2805],[44.4333,41.3266,1385.661],[44.3939,41.3413,1019.2377],[44.3909,41.3463,1015.3999],[44.3908,41.3591,864.4089],[44.3883,41.362,807.9105],[44.3162,41.3638,1138.3713],[44.2788,41.3756,1217.6206],[44.2632,41.391,1265.2888],[44.2538,41.4072,1194.2368],[44.2583,41.4148,1192.4341],[44.2697,41.4241,1270.9309],[44.2772,41.4324,1217.3132],[44.2679,41.4416,1149.2906],[44.2471,41.4514,881.9274],[44.246,41.475,1025.3136],[44.2479,41.4817,1154.5671],[44.2593,41.4941,1361.9272],[44.2699,41.5024,1309.1429],[44.272,41.5075,1252.1204],[44.2665,41.52,865.9047],[44.2528,41.5394,935.1339],[44.2387,41.5405,1166.9794],[44.2239,41.5439,1473.0831],[44.1836,41.5438,1348.9512],[44.1779,41.5407,1368.7134],[44.1511,41.5108,1450.2345],[44.1073,41.5044,1563.1818],[44.0849,41.4905,1554.7932],[44.0669,41.4893,1539.0044],[44.0544,41.486,1562.9448],[44.0413,41.4861,1572.5123],[44.0215,41.4908,1607.3904],[43.993899999999996,41.5011,1805.5129],[43.9864,41.5016,1844.0773],[43.9644,41.4936,2196.937],[43.9552,41.482,2178.3618],[43.9509,41.4791,2259.427],[43.9295,41.4715,2236.1023],[43.9056,41.4674,2197.4595],[43.903,41.455,2388.5786],[43.904,41.4486,2458.6646],[43.9084,41.4377,2654.0601],[43.9085,41.3842,2767.6177],[43.9125,41.3807,2747.9253],[43.9302,41.3801,2692.614],[43.9353,41.3779,2644.4214],[43.9448,41.3642,2780.0415],[43.9512,41.3443,2894.2656],[43.9509,41.3158,2633.9897],[43.937,41.2984,2653.2249],[43.9311,41.2857,2698.5278],[43.9297,41.2783,2751.9912],[43.9303,41.2686,2845.1628],[43.9371,41.2541,2820.9792],[43.9485,41.2414,2697.5618],[43.9604,41.2315,2699.8521],[43.9664,41.2227,2749.3931],[43.9677,41.1909,2914.2642],[43.9719,41.1825,2854.248],[43.9799,41.1567,3013.0571],[43.982,41.1569,2955.9883],[43.9983,41.1714,2809.7961],[44.0081,41.1768,2727.8589],[44.0406,41.1833,2447.8232],[44.0568,41.1898,2217.9568],[44.0747,41.1916,2099.2754],[44.1354,41.1891,1676.6958],[44.1576,41.1925,1628.9099],[44.1692,41.1995,1610.9344],[44.1802,41.2193,1593.6211],[44.1727,41.2331,1671.6863],[44.1718,41.2377,1686.1975],[44.1774,41.2442,1606.4167],[44.1832,41.2444,1672.6691],[44.1954,41.236,1634.5903],[44.2024,41.2346,1678.3979],[44.2148,41.2351,1688.0747],[44.2262,41.2444,1496.7112],[44.2296,41.2434,1586.0754],[44.2358,41.2399,1788.7557],[44.2409,41.2348,1736.3652],[44.2448,41.2185,1699.6229],[44.2481,41.2164,1732.6365],[44.2592,41.2144,1729.9846],[44.2796,41.2165,1594.87],[44.2989,41.2151,1606.5925],[44.3251,41.2074,1547.7029],[44.3291,41.2092,1542.0642],[44.3316,41.2138,1549.405],[44.3328,41.2266,1639.3837],[44.3359,41.2309,1811.1042],[44.3466,41.2337,1695.9193],[44.3523,41.2323,1847.3328],[44.3897,41.2142,2069.7527]]]]}
,"properties": {"GID_2": "GEO.6.2_1","GID_0": "GEO","country": "Georgia","GID_1": "GEO.6_1","province": "KvemoKartli","NL_NAME_1": "NA","county": "Dmanisi","VARNAME_2": "NA","NL_NAME_2": "NA","TYPE_2": "Raioni","ENGTYPE_2": "District","CC_2": "NA","HASC_2": "GE.KK.DM","name": "Dmanisi.county","area_km2": 1142.6274,"hist_schema_id": "Elevation0-9000","hist_area_km2": {"725": 0.1114,"750": 0.3182,"775": 1.0971,"800": 2.0033,"825": 3.1958,"850": 4.3411,"875": 4.7072,"900": 5.3129,"925": 5.7588,"950": 6.6182,"975": 7.4307,"1000": 7.8127,"1025": 8.9109,"1050": 9.6758,"1075": 11.4585,"1100": 12.2861,"1125": 13.4486,"1150": 14.9932,"1175": 16.3621,"1200": 18.9573,"1225": 23.7176,"1250": 24.7998,"1275": 36.0018,"1300": 48.3142,"1325": 38.1909,"1350": 40.5204,"1375": 40.7936,"1400": 34.5938,"1425": 33.4497,"1450": 33.2264,"1475": 33.3573,"1500": 29.473,"1525": 26.7955,"1550": 25.2164,"1575": 20.687,"1600": 21.1237,"1625": 22.9748,"1650": 23.3595,"1675": 22.263,"1700": 19.986,"1725": 15.3829,"1750": 14.0466,"1775": 14.08,"1800": 12.6125,"1825": 11.7216,"1850": 11.5939,"1875": 10.4625,"1900": 9.1404,"1925": 8.8851,"1950": 7.5628,"1975": 7.4516,"2000": 7.1014,"2025": 6.9579,"2050": 6.7985,"2075": 6.6875,"2100": 6.7829,"2125": 6.9099,"2150": 6.5923,"2175": 6.4166,"2200": 6.735,"2225": 6.6862,"2250": 6.5593,"2275": 7.2598,"2300": 7.578,"2325": 7.4665,"2350": 7.9601,"2375": 8.5486,"2400": 8.2463,"2425": 8.4215,"2450": 8.3905,"2475": 8.5017,"2500": 9.0747,"2525": 8.9966,"2550": 8.8388,"2575": 9.5565,"2600": 10.0037,"2625": 10.4818,"2650": 10.3077,"2675": 9.4159,"2700": 8.987,"2725": 7.7582,"2750": 6.0861,"2775": 5.1305,"2800": 4.5733,"2825": 3.155,"2850": 2.7247,"2875": 1.9762,"2900": 1.2119,"2925": 0.7495,"2950": 0.367,"2975": 0.0319,"3000": 0.016}}}