{"type": "Feature","id": "3038","bbox": [42.48116,41.10452,43.97819,41.91796],"geometry": {"type": "Polygon","coordinates": [[[43.73896,41.76737,1775.8042],[43.70455,41.78215,1808.5001],[43.6722,41.79143,1810.6732],[43.65742,41.81786,1840.9705],[43.62662,41.82176,1692.6936],[43.59241,41.84375,1686.1169],[43.58259,41.85525,1570.5798],[43.56905,41.86372,1631.3204],[43.56378,41.88003,1402.5898],[43.55438,41.89383,1627.4927],[43.51903,41.90612,873.2249],[43.45412,41.91796,1003.3167],[43.42622,41.91661,1480.0303],[43.12742,41.82543,2207.991],[43.11068,41.82732,2012.4154],[43.09363,41.83202,2096.396],[42.9909,41.8252,1925.559],[42.94811,41.81182,2206.5923],[42.90305,41.81238,1873.7731],[42.81706,41.82605,1920.4014],[42.71143,41.80587,2419.1587],[42.64962,41.83344,2656.3801],[42.62389,41.83295,2674.7366],[42.60167,41.82166,2248.6501],[42.59268,41.80381,2222.5413],[42.57614,41.7936,2401.2466],[42.5534,41.79662,2179.5728],[42.53118,41.80267,2199.6299],[42.48168,41.79866,2078.9958],[42.48617,41.78892,1918.5845],[42.49594,41.76771,1687.1561],[42.49501,41.73301,1961.3958],[42.48354,41.71991,2241.5767],[42.48116,41.70099,2137.3281],[42.48788,41.68673,1970.7509],[42.4977,41.67425,2059.1311],[42.52384,41.65598,2344.9817],[42.54731,41.63555,1857.1732],[42.57676,41.60015,2171.0386],[42.58665,41.57911,2521.1216],[42.59091,41.58017,2502.8301],[42.61056,41.58506,2287.894],[42.66099,41.58826,2019.1354],[42.80093,41.57922,1310.6211],[42.81995,41.57235,1275.542],[42.8122,41.56299,1338.6416],[42.80889,41.55292,1383.3224],[42.80682,41.543,1394.4636],[42.80269,41.53411,1306.2218],[42.79463,41.52682,1341.8112],[42.77489,41.51426,1414.1111],[42.76652,41.50434,1326.0212],[42.79215,41.49287,1584.5245],[42.81116,41.47716,1768.3228],[42.82997,41.47251,1624.5116],[42.85457,41.4938,1946.483],[42.86801,41.50021,2111.2034],[42.87514,41.4937,1980.0457],[42.88072,41.48124,1879.0358],[42.88899,41.46998,2126.5381],[42.89664,41.46657,1952.0996],[42.92609,41.45907,2441.334],[42.93219,41.45478,2350.5796],[42.93622,41.45024,2298.6108],[42.94108,41.44631,2289.2109],[42.94997,41.44367,2413.7246],[42.95772,41.43701,2489.7693],[42.98759,41.39468,2486.6816],[43.00206,41.38269,2701.4775],[43.07564,41.34487,2466.542],[43.12391,41.31293,1933.454],[43.15476,41.30187,1884.269],[43.18401,41.29898,1745.5713],[43.18535,41.29381,1708.5874],[43.17187,41.27934,1577.0432],[43.15724,41.26973,1392.8082],[43.10314,41.2488,1666.8857],[43.13032,41.24229,1673.1234],[43.15233,41.24415,1848.7731],[43.17202,41.24234,1804.7104],[43.19223,41.22498,1796.5],[43.2162,41.18054,1944.5841],[43.23062,41.17263,2307.1084],[43.32261,41.19206,2491.793],[43.35175,41.19361,2626.5044],[43.38327,41.1872,2527.1196],[43.41056,41.17516,2654.459],[43.43759,41.1562,2803.5698],[43.4518,41.13258,2851.8372],[43.44043,41.10659,2766.728],[43.45045,41.10468,2861.3547],[43.46032,41.10452,2821.8997],[43.47014,41.10617,2813.8589],[43.52414,41.12281,2634.3115],[43.56662,41.12405,2451.0579],[43.72971,41.10669,2216.5183],[43.75416,41.10824,2366.8801],[43.77374,41.11449,2209.5708],[43.82035,41.1455,2141.8647],[43.86324,41.15899,2214.0449],[43.95585,41.16049,3040.4485],[43.97776,41.16454,2938.5801],[43.97819,41.16462,2938.5801],[43.97812,41.16493,2938.5801],[43.96748,41.21674,2762.3237],[43.95704,41.23268,2711.2463],[43.94412,41.2471,2765.2847],[43.93699,41.2912,2662.3296],[43.95146,41.33536,2911.302],[43.94753,41.35678,2720.1274],[43.93699,41.3759,2640.8516],[43.91611,41.38585,2756.0083],[43.90846,41.40892,2726.0029],[43.90805,41.43078,2600.6555],[43.90495,41.45225,2412.4292],[43.90102,41.46602,2235.5264],[43.89172,41.47204,2162.2039],[43.87353,41.50093,2186.646],[43.84738,41.52186,2583.7041],[43.79974,41.52387,2240.9583],[43.75168,41.51483,2548.3247],[43.70775,41.51341,2895.9541],[43.67271,41.5185,2905.2871],[43.67933,41.53442,2877.8188],[43.69359,41.54299,2779.4048],[43.70393,41.56744,2856.1384],[43.71023,41.66738,2150.2749],[43.73307,41.69872,2098.5771],[43.7772,41.69322,1859.8831],[43.83694,41.69505,1696.6282],[43.88624,41.7342,2131.2517],[43.84407,41.77246,2045.0359],[43.77669,41.77156,1753.2698],[43.73896,41.76737,1775.8042]]]}
,"properties": {"ISO3166-1-Alpha-3": "GEO","country": "Georgia","fill": "#00F","name": "Samtskhe-Javakheti","area_km2": 6522.786,"hist_schema_id": "Elevation0-9000","hist_area_km2": {"725": 0.079,"750": 1.452,"775": 2.589,"800": 4.011,"825": 4.264,"850": 5.608,"875": 8.059,"900": 13.408,"925": 19.933,"950": 24.592,"975": 28.741,"1000": 35.441,"1025": 40.938,"1050": 48.244,"1075": 51.62,"1100": 57.703,"1125": 58.563,"1150": 61.254,"1175": 60.272,"1200": 59.453,"1225": 66.143,"1250": 66.192,"1275": 63.704,"1300": 66.902,"1325": 66.985,"1350": 67.711,"1375": 67.839,"1400": 68.79,"1425": 68.205,"1450": 72.854,"1475": 70.249,"1500": 71.349,"1525": 69.666,"1550": 74.163,"1575": 72.672,"1600": 74.496,"1625": 83.514,"1650": 95.937,"1675": 146.879,"1700": 143.925,"1725": 178.926,"1750": 182.714,"1775": 137.921,"1800": 179.586,"1825": 133.288,"1850": 147.391,"1875": 132.602,"1900": 127.905,"1925": 155.69,"1950": 133.046,"1975": 127.476,"2000": 144.11,"2025": 134.441,"2050": 159.513,"2075": 197.631,"2100": 158.981,"2125": 143.508,"2150": 128.777,"2175": 121.23,"2200": 123.191,"2225": 100.909,"2250": 91.025,"2275": 81.53,"2300": 75.125,"2325": 70.778,"2350": 65.829,"2375": 63.748,"2400": 62.691,"2425": 56.007,"2450": 53.396,"2475": 51.733,"2500": 53.75,"2525": 56.941,"2550": 54.02,"2575": 53.023,"2600": 47.284,"2625": 45.679,"2650": 39.747,"2675": 38.57,"2700": 35.507,"2725": 34.525,"2750": 29.861,"2775": 31.422,"2800": 28.107,"2825": 23.167,"2850": 19.261,"2875": 12.853,"2900": 8.883,"2925": 7.113,"2950": 4.647,"2975": 3.23,"3000": 2.609,"3025": 1.717,"3050": 1.67,"3075": 1.144,"3100": 0.954,"3125": 0.652,"3150": 0.318,"3175": 0.397,"3200": 0.238,"3225": 0.095,"3250": 0.127,"3275": 0.175}}}