{"type":"Feature","properties":{"featurecla":"River","scalerank":8,"rivernum":747,"dissolve":"747River","name":"Kura2","name_alt":null,"note":null,"min_zoom":7.0,"strokeweig":0.2,"name_en":"Kura","min_label":8.0},
"geometry":{"type": "LineString","coordinates": [[42.593164062500023,40.934344793744117,2093.8713],[42.491796875,40.96649811405662,2009.5664],[42.45849609375,40.97003815311912,1999.8804],[42.447509765625,40.97394440311912,2035.105],[42.42724609375,40.98395416874412,2016.9861],[42.456298828125,41.04376862186912,1933.3174],[42.474023437500023,41.07123444218162,1845.802],[42.498779296875,41.091913153119116,1833.8221],[42.5263671875,41.10358307499412,1809.8848],[42.644433593750023,41.12531159061912,1792.7483],[42.655029296875,41.125751043744117,1793.9712],[42.681738281250006,41.122674871869116,1788.1042],[42.694921875,41.12262604374412,1787.978],[42.707910156250023,41.12628815311912,1804.8213],[42.73486328125,41.14423248905662,1817.3214],[42.784423828125,41.18756744999412,2122.5066],[42.813085937500006,41.20319244999412,1871.7576],[42.835839843750023,41.20587799686912,1782.3649],[42.856347656250023,41.19953034061912,1787.6471],[42.895263671875,41.17731354374412,1826.8995],[42.921972656250006,41.17218659061912,1879.2888],[42.976464843750023,41.176141668744116,1790.007],[43.0009765625,41.167108465619116,1808.9374],[43.029541015625,41.17645905155662,1782.1483],[43.05810546875,41.17377350468162,1794.5897],[43.085351562500023,41.174823309369117,1812.8104],[43.110253906250023,41.19525787968162,1824.4409],[43.15869140625,41.27814362186912,1592.667],[43.18212890625,41.300165106244116,1746.0775],[43.200878906250011,41.30975983280662,1481.7378],[43.241601562500023,41.321893621869116,1636.3219],[43.260986328125,41.33087799686912,1485.4556],[43.269238281250011,41.338251043744116,1745.3927],[43.276953125,41.354608465619116,1749.6594],[43.282958984375,41.36334869999412,1747.0212],[43.291406250000023,41.369159246869117,1607.5435],[43.325097656250023,41.37677643436912,1709.8539],[43.316650390625,41.39789459843162,1361.3429],[43.3154296875,41.405292059369117,1416.7856],[43.31640625,41.43598053593162,1232.4452],[43.314160156250011,41.44830963749412,1264.2811],[43.288671875,41.48700592655662,1429.9984],[43.283105468750023,41.499286199994117,1458.9553],[43.280859375,41.513446356244117,1441.9355],[43.283203125,41.52204010624412,1464.9191],[43.29296875,41.53620026249412,1549.4866],[43.295166015625,41.547235418744116,1329.4092],[43.260986328125,41.564325262494116,1086.0601],[43.237890625,41.58148834843162,1060.1936],[43.226318359375,41.58539459843162,1043.6863],[43.182519531250023,41.57794830936912,1334.8899],[43.17138671875,41.581317449994117,1391.2427],[43.1533203125,41.59577057499412,1010.4798],[43.141210937500006,41.59906647343162,1078.2623],[43.09716796875,41.59906647343162,1173.5825],[43.089111328125,41.59442780155662,1139.196],[43.082910156250023,41.587420965619117,1186.6367],[43.074951171875,41.58441803593162,1142.51],[43.062402343750023,41.59162018436912,1086.306],[43.055273437500006,41.61310455936912,1225.068],[43.062109375,41.64179108280662,1016.0734],[43.076074218750023,41.669452215619117,959.649],[43.08984375,41.68744537968162,918.4526],[43.122460937500023,41.71344635624412,967.014],[43.384521484375,41.852167059369116,1007.2606],[43.479589843750006,41.93024323124412,754.8496],[43.536230468750006,41.96723053593162,712.0848],[43.60986328125,42.00202057499412,704.7234],[43.7509765625,42.049920965619116,686.7135],[43.7841796875,42.05499909061912,688.0092],[43.815820312500023,42.05011627811912,648.4084],[43.90869140625,42.02350494999412,618.8771],[43.923925781250006,42.02118561405662,646.2568],[43.939160156250011,42.02045319218162,645.725],[43.954833984375,42.02240631718162,639.8264],[43.985595703125,42.02985260624412,694.8099],[44.001220703125,42.03180573124412,713.7488],[44.031835937500006,42.02680084843162,793.2987],[44.083105468750006,41.99896881718162,705.7065],[44.110449218750006,41.987909246869116,596.1385],[44.201269531250006,41.98175690311912,648.3815],[44.231542968750006,41.97455475468162,726.3278],[44.309814453125,41.93427155155662,540.6526],[44.339941406250006,41.926629949994116,569.7671],[44.392578125,41.920428778119117,513.001]]}}