{"type":"Feature","properties":{"GID_1":"GEO.10_1","GID_0":"GEO","country":"Georgia","province":"Samtskhe-Javakheti","VARNAME_1":"Akhaltsikhe","NL_NAME_1":"NA","TYPE_1":"Region","ENGTYPE_1":"Region","CC_1":"NA","HASC_1":"GE.SJ","ISO_1":"GE-SJ","name":"Samtskhe-Javakheti.province"},
"geometry":{"type": "MultiPolygon","coordinates": [[[[43.9654,41.1577,3041.3445],[43.9799,41.1567,3013.0571],[43.9719,41.1825,2854.248],[43.9677,41.1909,2914.2642],[43.9664,41.2227,2749.3931],[43.9604,41.2315,2699.8521],[43.9485,41.2414,2697.5618],[43.9371,41.2541,2820.9792],[43.9303,41.2686,2845.1628],[43.9298,41.2728,2800.2612],[43.9301,41.2826,2713.156],[43.936,41.2966,2659.6001],[43.9509,41.3158,2633.9897],[43.9508,41.3464,2868.3149],[43.947,41.3541,2721.2371],[43.9448,41.3642,2780.0415],[43.9353,41.3779,2644.4214],[43.9302,41.3801,2692.614],[43.9125,41.3807,2747.9253],[43.9085,41.3842,2767.6177],[43.9084,41.4377,2654.0601],[43.904,41.4486,2458.6646],[43.903,41.455,2388.5786],[43.9056,41.4674,2197.4595],[43.8917,41.4721,2195.5117],[43.8758,41.4798,2311.865],[43.872,41.4831,2239.3398],[43.8711,41.4912,2173.2639],[43.8765,41.5038,2149.6575],[43.8748,41.5106,2204.9773],[43.8695,41.514,2295.3845],[43.824,41.5298,2435.8333],[43.8018,41.5253,2252.1467],[43.7835,41.519,2327.9121],[43.7669,41.518,2427.8149],[43.7539,41.5149,2536.6362],[43.6731,41.515,2838.0984],[43.6724,41.5283,3028.7749],[43.6738,41.5342,3083.7017],[43.6777,41.5375,2950.7349],[43.6971,41.5453,2764.5906],[43.7043,41.5644,2891.8679],[43.7049,41.5997,2510.009],[43.7003,41.6105,2602.7771],[43.6997,41.6167,2629.0767],[43.7099,41.6439,2171.1033],[43.7105,41.6807,2364.5247],[43.7165,41.6938,2157.8948],[43.7279,41.699,2097.2349],[43.7463,41.6993,1936.8816],[43.8188,41.684,1727.5924],[43.8248,41.685,1682.6719],[43.8705,41.718,2011.406],[43.8862,41.7342,2131.2517],[43.8869,41.754,2168.5491],[43.8847,41.7572,2072.3235],[43.8774,41.7606,2012.8033],[43.8652,41.7647,2207.0598],[43.8261,41.7736,2031.6575],[43.7823,41.7738,1840.6592],[43.7582,41.7661,1759.3882],[43.7347,41.766,1808.1404],[43.7256,41.7674,1714.8599],[43.6992,41.7852,1739.7263],[43.6871,41.7893,1773.7212],[43.669,41.7899,1717.1239],[43.6638,41.7913,1714.3691],[43.6572,41.808,1677.5393],[43.6573,41.8215,1742.8748],[43.6065,41.8214,1840.5393],[43.5994,41.823,2038.5577],[43.5906,41.8497,1533.9187],[43.5845,41.8548,1647.1184],[43.5724,41.86,1684.5845],[43.5666,41.8653,1657.5305],[43.5653,41.8862,1871.0811],[43.5616,41.891,1803.1086],[43.5383,41.8996,1219.4238],[43.5179,41.9015,937.4278],[43.5008,41.9115,818.9092],[43.4762,41.9131,746.9302],[43.4591,41.9194,884.0781],[43.4511,41.9205,1093.7397],[43.3934,41.9118,1411.1956],[43.3815,41.9073,1196.7839],[43.3614,41.8942,1389.8219],[43.3237,41.8885,1390.3027],[43.3119,41.884,1797.2068],[43.2982,41.8752,1730.1586],[43.2768,41.8674,1524.4386],[43.2606,41.8654,1665.2686],[43.1962,41.85,1714.761],[43.1231,41.824,2276.6936],[43.0996,41.833,2037.041],[43.081,41.8312,2205.3796],[43.0679,41.8281,2065.6975],[43.0342,41.8277,2000.0701],[43.0198,41.8244,1794.0752],[42.9926,41.8241,1934.7626],[42.9782,41.8209,2034.9485],[42.9631,41.8201,2319.3232],[42.9558,41.8174,2363.0664],[42.9446,41.8091,2155.7075],[42.9326,41.8087,2002.234],[42.9217,41.8099,1978.0833],[42.8925,41.8204,2081.1135],[42.8519,41.8211,2008.5814],[42.8295,41.8283,2019.1487],[42.8051,41.8289,1935.7458],[42.7674,41.8167,2132.7437],[42.7451,41.8025,2201.4043],[42.7236,41.8016,2187.9753],[42.7151,41.8025,2222.019],[42.6957,41.8092,2242.8025],[42.6783,41.8097,2085.7561],[42.6729,41.8127,2231.4771],[42.6669,41.8203,2498.6533],[42.6497,41.8335,2656.3801],[42.6227,41.8337,2655.6165],[42.6149,41.8319,2455.7771],[42.6031,41.8235,2264.5542],[42.5967,41.8137,2133.1921],[42.594,41.8018,2377.7288],[42.5895,41.7963,2472.0664],[42.5865,41.7949,2449.1218],[42.5609,41.7911,2180.9475],[42.5549,41.7931,2024.311],[42.5426,41.8012,2107.9253],[42.5345,41.8027,2215.812],[42.5157,41.8027,2233.6458],[42.5013,41.7993,2137.144],[42.4817,41.7987,2078.9958],[42.4841,41.7914,1933.5284],[42.4979,41.771,1663.8514],[42.4991,41.764,1530.2048],[42.4984,41.7372,2090.7212],[42.4807,41.7225,2224.1826],[42.4779,41.7182,2384.3472],[42.4775,41.7086,2279.0969],[42.4836,41.6942,2037.0469],[42.4953,41.6767,2010.7578],[42.5081,41.6657,2308.2271],[42.5121,41.6603,2334.0371],[42.5319,41.6523,2286.0659],[42.5391,41.6475,2139.3105],[42.5497,41.6323,1791.1907],[42.5717,41.6153,1921.4547],[42.5753,41.6025,2128.7993],[42.5893,41.5725,2519.3188],[42.5969,41.5763,2453.3008],[42.6023,41.5838,2453.9631],[42.6073,41.5859,2319.9194],[42.6215,41.5843,2119.3188],[42.6779,41.5973,1999.1106],[42.7083,41.598,1886.9309],[42.74,41.5942,1723.0162],[42.7629,41.5844,1497.7146],[42.7726,41.5828,1394.8596],[42.7836,41.5782,1347.7911],[42.7933,41.5885,1588.7095],[42.8293,41.5879,1189.5067],[42.8363,41.5828,1122.4664],[42.8388,41.5707,1234.2025],[42.8324,41.565,1140.4441],[42.8205,41.5604,1279.9426],[42.8184,41.5577,1316.3335],[42.8208,41.5359,1297.5332],[42.812,41.5306,1276.6688],[42.7977,41.5251,1299.5654],[42.7935,41.5164,1245.6044],[42.7944,41.5123,1268.6667],[42.8072,41.5032,1419.6296],[42.8099,41.4984,1594.8385],[42.8096,41.4927,1399.575],[42.8227,41.4847,1426.8452],[42.8306,41.4833,1507.641],[42.8358,41.4806,1570.5371],[42.8471,41.4726,1504.2319],[42.8519,41.4728,1539.6404],[42.8562,41.4753,1693.7808],[42.8613,41.484,2018.3887],[42.8662,41.4991,2098.8047],[42.8759,41.5028,2194.3342],[42.8954,41.5037,2494.3118],[42.9021,41.4991,2568.156],[42.9033,41.492,2431.3848],[42.9024,41.4847,2415.3547],[42.9045,41.4808,2441.6707],[42.9313,41.4726,2450.6155],[42.945,41.4582,2558.623],[42.9696,41.4515,2476.6221],[42.9735,41.4462,2402.8267],[42.9735,41.4337,2657.1121],[42.9842,41.4268,2781.2495],[42.9899,41.4183,2844.8574],[42.9896,41.4124,2881.1934],[42.9935,41.4071,2870.3645],[43.0096,41.3973,2881.0037],[43.0248,41.3783,2872.583],[43.0366,41.375,2672.2651],[43.0472,41.3698,2607.656],[43.0663,41.3688,2349.1816],[43.1015,41.3546,2000.6353],[43.1296,41.3179,1853.5825],[43.1551,41.3156,1678.3787],[43.1599,41.3105,1818.2822],[43.1848,41.3084,1626.5925],[43.199,41.3036,1541.131],[43.2023,41.3004,1477.1956],[43.2029,41.2974,1442.7614],[43.2011,41.2946,1446.0382],[43.1971,41.2924,1469.6639],[43.1965,41.2894,1454.5088],[43.188,41.2851,1405.8467],[43.1749,41.275,1397.9473],[43.1594,41.2682,1360.9072],[43.1406,41.263,1508.0576],[43.1282,41.2575,1469.1589],[43.1239,41.2541,1462.7021],[43.1315,41.2497,1495.2528],[43.1533,41.2456,1847.9742],[43.176,41.2547,1996.9414],[43.1921,41.2521,2025.4021],[43.1981,41.2475,1985.6516],[43.2318,41.1927,1796.5],[43.2336,41.1873,1925.5264],[43.2265,41.1761,2199.272],[43.248,41.1774,2285.8562],[43.2744,41.1816,2327.5564],[43.3554,41.2012,2784.5247],[43.3747,41.2019,2647.8315],[43.3841,41.1995,2626.1414],[43.4052,41.1882,2734.8452],[43.4372,41.1794,2817.4492],[43.451,41.1672,2853.707],[43.4555,41.161,2818.1597],[43.4629,41.1413,2772.2209],[43.4711,41.1295,2829.053],[43.4903,41.1295,2799.6836],[43.5413,41.1489,2680.8154],[43.5656,41.1494,2541.1572],[43.5746,41.1475,2489.9673],[43.6134,41.1255,2450.886],[43.6367,41.1254,2348.9653],[43.6525,41.1301,2346.9502],[43.6671,41.1375,2392.9463],[43.6755,41.1382,2390.9832],[43.6921,41.1312,2268.8948],[43.7062,41.1219,2206.3748],[43.7297,41.1138,2205.1323],[43.7448,41.1116,2358.9324],[43.7505,41.1136,2328.3015],[43.7699,41.1329,2167.0857],[43.7769,41.1372,2149.5403],[43.789,41.1408,2153.7603],[43.8229,41.1583,2145.4004],[43.8445,41.1655,2170.3042],[43.8532,41.1663,2205.2698],[43.8862,41.164,2363.7986],[43.9461,41.1655,2993.5361],[43.9654,41.1577,3041.3445]]]]}}