{"type": "Feature","bbox": [41.8559,42.1393,42.2944,42.4286],"geometry": {"type": "MultiPolygon","coordinates": [[[[42.0164,42.1601,17.3231],[42.0267,42.1689,19.3575],[42.0592,42.1785,12.3366],[42.0783,42.1877,12.1806],[42.1073,42.2157,14.8949],[42.1387,42.2255,17.8256],[42.1572,42.2507,27.5633],[42.1616,42.2511,26.3911],[42.1766,42.2451,26.8267],[42.1826,42.2448,23.4818],[42.1892,42.2485,24.4658],[42.1967,42.2577,29.1614],[42.2084,42.2667,33.0035],[42.225,42.2743,40.9962],[42.2337,42.2749,45.8067],[42.2648,42.2677,48.2773],[42.2724,42.2676,51.9088],[42.2795,42.271,54.8128],[42.2877,42.2807,61.7264],[42.2944,42.2847,63.2857],[42.2868,42.2969,68.0769],[42.2524,42.3225,71.3001],[42.2446,42.3315,73.1968],[42.2336,42.3407,74.9914],[42.2228,42.3569,94.0185],[42.224,42.3597,99.1482],[42.2297,42.3636,106.874],[42.2326,42.37,153.6883],[42.238,42.3761,140.0601],[42.2623,42.3831,114.2037],[42.2637,42.3907,169.8808],[42.2624,42.4067,200.0928],[42.2572,42.4088,209.9343],[42.2338,42.4095,142.5569],[42.2314,42.4125,156.0777],[42.2306,42.4217,223.6014],[42.2262,42.4244,227.0025],[42.2116,42.4253,138.8854],[42.2002,42.4283,164.5474],[42.1538,42.4286,107.0438],[42.1468,42.4252,95.257],[42.1275,42.3962,107.4288],[42.1203,42.39,91.8839],[42.0828,42.3903,114.1545],[42.0591,42.4007,103.2336],[42.0469,42.4028,60.808],[42.0425,42.3905,87.352],[42.0284,42.3723,55.8973],[42.0423,42.3505,88.6855],[42.0397,42.3469,83.0632],[42.0065,42.347,119.7498],[41.991,42.3507,120.2822],[41.9785,42.3512,99.4713],[41.9675,42.3511,57.6951],[41.9599,42.3482,141.9744],[41.9534,42.3391,154.2163],[41.9523,42.3329,65.1026],[41.9528,42.3258,49.0199],[41.9589,42.3121,24.8592],[41.9656,42.3062,23.0562],[41.9831,42.2973,23.848],[41.9885,42.2923,23.3119],[41.9897,42.2881,21.5151],[41.9831,42.2679,14.5873],[41.9695,42.2525,12.1431],[41.9638,42.2437,10.7004],[41.9633,42.2186,7.1259],[41.9603,42.2145,7.9047],[41.9557,42.2133,7.905],[41.9207,42.2129,5.468],[41.9088,42.2086,6.91],[41.8859,42.1958,8.3476],[41.8786,42.1821,7.7968],[41.8759,42.1703,20.6526],[41.8559,42.1393,17.551],[41.9145,42.1481,16.6211],[41.9357,42.1547,11.1803],[41.9838,42.1546,11.4499],[42.0164,42.1601,17.3231]]]]}
,"properties": {"GID_2": "GEO.9.6_1","GID_0": "GEO","country": "Georgia","GID_1": "GEO.9_1","province": "Samegrelo-ZemoSvaneti","NL_NAME_1": "NA","county": "Senaki","VARNAME_2": "NA","NL_NAME_2": "NA","TYPE_2": "Raioni","ENGTYPE_2": "District","CC_2": "NA","HASC_2": "GE.SZ.SN","name": "Senaki.county","area_km2": 531.9389,"hist_schema_id": "Elevation0-9000","hist_area_km2": {"0": 84.4171,"25": 144.8169,"50": 85.5687,"75": 68.7841,"100": 37.8049,"125": 32.6615,"150": 25.2179,"175": 16.6667,"200": 9.807,"225": 5.9547,"250": 4.1221,"275": 3.1193,"300": 2.712,"325": 2.3673,"350": 1.9442,"375": 1.9287,"400": 1.7092,"425": 1.4113,"450": 0.8625,"475": 0.0627}}}