{"type":"Feature","properties":{"GID_2":"GEO.11.1_1","GID_0":"GEO","country":"Georgia","GID_1":"GEO.11_1","province":"ShidaKartli","NL_NAME_1":"NA","county":"Gori","VARNAME_2":"NA","NL_NAME_2":"NA","TYPE_2":"Raioni","ENGTYPE_2":"District","CC_2":"NA","HASC_2":"GE.SD.GR","name":"Gori.county"},
"geometry":{"type": "MultiPolygon","coordinates": [[[[44.1597,41.7294,1772.2209],[44.1603,41.7523,1906.8909],[44.1621,41.7568,1853.6262],[44.1911,41.7711,1777.0515],[44.2171,41.7903,1142.1688],[44.229,41.8076,955.1149],[44.2308,41.8169,914.7336],[44.2349,41.8241,1058.5114],[44.2353,41.8278,1085.7339],[44.2333,41.8322,920.0646],[44.2254,41.8386,948.287],[44.2202,41.8415,1072.8591],[44.214,41.8426,1087.5074],[44.1931,41.838,1153.5873],[44.1648,41.8288,1089.4851],[44.1564,41.8345,1278.0779],[44.1471,41.8453,1308.7716],[44.1468,41.8477,1339.1946],[44.1857,41.8776,991.7287],[44.1874,41.8831,988.8988],[44.1873,41.9026,1049.5306],[44.1903,41.9074,1170.2437],[44.219,41.918,726.2117],[44.2372,41.9268,613.7498],[44.2766,41.9546,646.3238],[44.2984,41.9574,745.3368],[44.3081,41.9702,885.8724],[44.3076,41.9732,921.5677],[44.2969,41.9787,1012.3218],[44.2946,41.9829,1015.2651],[44.2949,42.0239,730.4641],[44.2935,42.0288,732.4727],[44.2903,42.0307,732.7244],[44.2833,42.0313,727.303],[44.2606,42.028,720.6323],[44.2577,42.0294,717.414],[44.2566,42.032,713.9318],[44.2577,42.0533,721.7337],[44.2729,42.0811,773.8983],[44.2726,42.0878,792.1301],[44.2679,42.0981,825.2598],[44.2676,42.1169,987.7042],[44.2688,42.1249,1110.7234],[44.2779,42.1391,1249.6643],[44.2776,42.1437,1395.8021],[44.2737,42.1509,1582.2389],[44.2738,42.1555,1415.4766],[44.2878,42.1752,1360.1072],[44.3105,42.1863,1612.326],[44.3196,42.1992,1418.2896],[44.3228,42.208,1514.4822],[44.328,42.2144,1643.4727],[44.3379,42.2184,1374.6201],[44.3487,42.2203,1412.5277],[44.3572,42.2242,1652.6981],[44.3637,42.241,1665.587],[44.3644,42.2567,1934.9082],[44.363,42.2659,1835.8729],[44.3437,42.2863,1708.1211],[44.3374,42.2981,2033.228],[44.3377,42.3269,2189.5747],[44.3407,42.3309,2496.1057],[44.3523,42.3374,2191.5117],[44.3538,42.3433,2021.9539],[44.3529,42.3515,2364.2947],[44.3397,42.3702,1973.2286],[44.3116,42.3822,2203.6411],[44.3102,42.3968,2629.1296],[44.3059,42.4063,2712.8501],[44.3042,42.4219,2444.9165],[44.2961,42.4261,2260.2979],[44.2865,42.4283,2067.657],[44.284,42.4311,1931.335],[44.2843,42.4382,2054.0732],[44.2914,42.4514,2237.3821],[44.2121,42.4512,2496.3008],[44.1748,42.4382,2859.8386],[44.1675,42.4326,2800.0723],[44.1614,42.424,2828.5444],[44.1482,42.3981,2158.0393],[44.1426,42.3967,1968.6461],[44.1194,42.3964,2244.1768],[44.1009,42.392,2094.5032],[44.087,42.3857,1981.4191],[44.0751,42.3674,1618.3237],[44.075,42.3571,1817.5386],[44.0804,42.3451,1964.7617],[44.0797,42.3408,1842.6995],[44.0776,42.3388,1724.1824],[44.0521,42.3346,1421.7217],[44.0182,42.346,1416.7195],[43.9733,42.3457,1306.8876],[43.9599,42.3403,1139.2926],[43.9422,42.3209,1053.7467],[43.9252,42.3183,1162.6302],[43.9063,42.313,1265.334],[43.8965,42.2991,1440.6132],[43.8891,42.2922,1479.8425],[43.8751,42.2887,1261.3176],[43.8703,42.2892,1274.3091],[43.849,42.2971,1279.6257],[43.8348,42.3082,1580.2905],[43.8198,42.2973,1346.4933],[43.809,42.2843,1169.635],[43.8124,42.2775,1047.8975],[43.8218,42.2682,961.7428],[43.8353,42.2484,1028.6379],[43.8539,42.2288,965.7497],[43.8555,42.2077,848.8867],[43.8612,42.1979,854.4028],[43.8674,42.1893,815.0908],[43.8794,42.1792,778.7217],[43.8913,42.1658,818.2805],[43.8974,42.1522,810.679],[43.8982,42.1338,780.7921],[43.9023,42.1255,766.4024],[43.9043,42.1129,744.1511],[43.9246,42.1048,734.5435],[43.9343,42.091,708.5687],[43.9424,42.0712,691.8004],[43.9591,42.047,747.9993],[43.9918,42.0338,745.0144],[44.0081,42.0179,751.2993],[44.0151,42.0136,690.3586],[44.0333,42.0069,672.7561],[44.0365,42.0015,595.817],[44.0293,41.9895,606.7147],[44.0141,41.9855,636.8923],[44.0001,41.9843,627.6284],[43.9905,41.9801,715.0796],[43.9887,41.9749,845.5292],[43.9891,41.9509,1020.1541],[43.9874,41.9468,976.1801],[43.9377,41.9274,1436.4033],[43.9309,41.9094,1613.8538],[43.9288,41.8953,1485.3695],[43.9145,41.8796,1550.6774],[43.9069,41.8759,1332.3872],[43.8633,41.8714,1652.4374],[43.8572,41.8688,1695.6653],[43.8459,41.8565,1617.9346],[43.8372,41.8438,1542.8694],[43.8252,41.8337,1723.7194],[43.8131,41.8205,1643.6377],[43.803,41.8055,2103.8132],[43.8002,41.7976,2186.3254],[43.7951,41.7897,2180.6743],[43.7823,41.7738,1840.6592],[43.8304,41.7732,1964.248],[43.8774,41.7606,2012.8033],[43.8847,41.7572,2072.3235],[43.8869,41.754,2168.5491],[43.8862,41.7342,2131.2517],[43.9321,41.7335,2200.2886],[43.9576,41.726,2244.0776],[44.0417,41.7254,1946.3514],[44.0565,41.722,1830.4325],[44.0861,41.7212,1807.1494],[44.098,41.7181,1806.1593],[44.1099,41.7172,1787.8536],[44.1278,41.7182,1772.4033],[44.1597,41.7294,1772.2209]]]]}}