{"type":"Feature","properties":{"GID_2":"GEO.10.6_1","GID_0":"GEO","country":"Georgia","GID_1":"GEO.10_1","province":"Samtskhe-Javakheti","NL_NAME_1":"NA","county":"Ninotsminda","VARNAME_2":"NA","NL_NAME_2":"NA","TYPE_2":"Raioni","ENGTYPE_2":"District","CC_2":"NA","HASC_2":"GE.SJ.NI","name":"Ninotsminda.county"},
"geometry":{"type": "MultiPolygon","coordinates": [[[[43.9799,41.1567,3013.0571],[43.9719,41.1825,2854.248],[43.9677,41.1909,2914.2642],[43.9664,41.2227,2749.3931],[43.9604,41.2315,2699.8521],[43.9485,41.2414,2697.5618],[43.9371,41.2541,2820.9792],[43.9303,41.2686,2845.1628],[43.9297,41.2783,2751.9912],[43.9311,41.2857,2698.5278],[43.937,41.2984,2653.2249],[43.9509,41.3158,2633.9897],[43.9512,41.3443,2894.2656],[43.9448,41.3642,2780.0415],[43.9353,41.3779,2644.4214],[43.9302,41.3801,2692.614],[43.9125,41.3807,2747.9253],[43.9085,41.3842,2767.6177],[43.9084,41.4377,2654.0601],[43.904,41.4486,2458.6646],[43.903,41.455,2388.5786],[43.9056,41.4674,2197.4595],[43.8917,41.4721,2195.5117],[43.8758,41.4798,2311.865],[43.872,41.4831,2239.3398],[43.8711,41.4912,2173.2639],[43.8765,41.5038,2149.6575],[43.8759,41.5088,2174.8169],[43.8733,41.512,2213.0596],[43.8278,41.5293,2409.2673],[43.8178,41.5293,2483.6196],[43.7835,41.519,2327.9121],[43.7669,41.518,2427.8149],[43.7539,41.5149,2536.6362],[43.6731,41.515,2838.0984],[43.6729,41.4947,2584.6616],[43.6827,41.4783,2819.6125],[43.6833,41.4631,3168.311],[43.6801,41.4577,2889.7539],[43.6605,41.4433,2880.071],[43.6575,41.4384,3107.3718],[43.6665,41.4195,2625.1667],[43.6681,41.4073,2461.7078],[43.6719,41.4009,2258.9058],[43.6724,41.3953,2288.052],[43.6689,41.3907,2335.0908],[43.6521,41.3855,2382.9976],[43.6423,41.386,2264.7122],[43.6307,41.3893,2231.0415],[43.6208,41.3891,2195.4834],[43.5865,41.3749,2074.0664],[43.5628,41.3734,1901.8782],[43.5603,41.3704,1864.0905],[43.5595,41.3567,1857.99],[43.5555,41.3483,1877.3798],[43.5547,41.3345,1899.7666],[43.5521,41.3315,1874.7014],[43.523,41.3303,1802.2963],[43.5115,41.3258,1798.7501],[43.5041,41.3199,1815.5237],[43.4953,41.3193,1809.9866],[43.4903,41.3217,1785.3594],[43.4785,41.3393,1780.4081],[43.4731,41.3413,1776.6392],[43.4301,41.3257,1961.5612],[43.4268,41.3224,1968.054],[43.4214,41.3105,1892.6323],[43.4214,41.3013,1863.1395],[43.4299,41.2887,1875.4823],[43.4315,41.2839,1897.9696],[43.4315,41.2443,2183.9409],[43.4295,41.2307,2366.1538],[43.4311,41.2255,2469.8379],[43.4209,41.1979,2725.5066],[43.4115,41.1865,2796.696],[43.4372,41.1794,2817.4492],[43.451,41.1672,2853.707],[43.4597,41.1525,2780.5969],[43.4629,41.1413,2772.2209],[43.4711,41.1295,2829.053],[43.4903,41.1295,2799.6836],[43.5413,41.1489,2680.8154],[43.5656,41.1494,2541.1572],[43.5746,41.1475,2489.9673],[43.6134,41.1255,2450.886],[43.6367,41.1254,2348.9653],[43.6525,41.1301,2346.9502],[43.6671,41.1375,2392.9463],[43.6755,41.1382,2390.9832],[43.6921,41.1312,2268.8948],[43.7062,41.1219,2206.3748],[43.7297,41.1138,2205.1323],[43.7448,41.1116,2358.9324],[43.7505,41.1136,2328.3015],[43.7699,41.1329,2167.0857],[43.7769,41.1372,2149.5403],[43.789,41.1408,2153.7603],[43.8229,41.1583,2145.4004],[43.8445,41.1655,2170.3042],[43.8532,41.1663,2205.2698],[43.8862,41.164,2363.7986],[43.9461,41.1655,2993.5361],[43.9654,41.1577,3041.3445],[43.9799,41.1567,3013.0571]]]]}}