{"type": "Feature","bbox": [41.7032,41.6289,42.2027,41.9041],"geometry": {"type": "MultiPolygon","coordinates": [[[[41.8053,41.6289,1008.6095],[41.8136,41.6301,1116.1915],[41.8724,41.6514,1079.2839],[41.8999,41.6523,1005.1476],[41.9071,41.6543,842.4115],[41.9271,41.6689,1407.1476],[41.9347,41.6829,1122.2686],[41.9371,41.6939,1326.2587],[41.9421,41.7043,1206.5789],[41.9527,41.71,1476.9316],[42.0003,41.7175,1167.104],[42.0121,41.7133,1093.6896],[42.0234,41.7057,1346.5419],[42.0375,41.6999,1634.49],[42.0695,41.6985,1375.2876],[42.0792,41.6988,1483.4301],[42.1161,41.7106,1855.0598],[42.1185,41.7154,1664.3774],[42.1193,41.7324,1810.0182],[42.1225,41.7381,2032.8728],[42.1255,41.7499,2085.5708],[42.1306,41.7562,2217.738],[42.1523,41.7644,2389.0654],[42.1757,41.7648,2331.4868],[42.1823,41.7667,2138.5378],[42.2027,41.7943,2411.1523],[42.1981,41.8039,2276.6987],[42.1905,41.8135,2172.2434],[42.1623,41.8237,1947.335],[42.1163,41.8237,969.3757],[42.0977,41.8195,1726.6554],[42.0709,41.8095,1693.8748],[42.0631,41.8089,1392.2917],[42.0601,41.8119,1399.174],[42.0579,41.8231,1450.7532],[42.0555,41.8247,1390.3488],[42.0485,41.8275,1127.552],[42.0319,41.8295,869.8278],[42.0167,41.8335,664.2636],[42.0125,41.8355,610.9281],[42.0027,41.8465,279.701],[41.9955,41.8511,407.9086],[41.9499,41.8529,208.824],[41.9467,41.8579,161.0707],[41.9467,41.8817,100.4567],[41.9419,41.8869,100.5207],[41.9199,41.8947,94.8113],[41.8675,41.8959,17.1],[41.8499,41.8997,11.1838],[41.7977,41.9001,4.2957],[41.7859,41.9031,2.3895],[41.773,41.9041,0.7644],[41.7704,41.9028,1.5594],[41.7707,41.8946,0.2381],[41.7732,41.8804,0.0],[41.7774,41.8679,7.0478],[41.7782,41.8574,9.5746],[41.7754,41.831,10.4946],[41.7699,41.8049,0.0272],[41.7546,41.7713,0.0],[41.7482,41.7624,0.0],[41.7415,41.7582,14.4039],[41.7346,41.7393,8.4389],[41.7171,41.704,1.1156],[41.7124,41.6974,16.3315],[41.7057,41.6949,42.7997],[41.7032,41.6899,0.0],[41.7205,41.6781,183.9485],[41.7375,41.6717,327.7356],[41.7523,41.6623,450.5709],[41.7595,41.6607,380.3985],[41.7805,41.6647,536.2084],[41.7851,41.6629,747.9355],[41.7881,41.6443,817.4357],[41.8053,41.6289,1008.6095]]]]}
,"properties": {"GID_2": "GEO.2.4_1","GID_0": "GEO","country": "Georgia","GID_1": "GEO.2_1","province": "Ajaria","NL_NAME_1": "NA","county": "Kobuleti","VARNAME_2": "NA","NL_NAME_2": "NA","TYPE_2": "Raioni","ENGTYPE_2": "District","CC_2": "NA","HASC_2": "GE.AJ.KB","name": "Kobuleti.county","area_km2": 680.7885,"hist_schema_id": "Elevation0-9000","hist_area_km2": {"0": 57.0639,"25": 37.2898,"50": 26.475,"75": 24.4525,"100": 22.4297,"125": 18.7944,"150": 14.5279,"175": 12.1263,"200": 10.5464,"225": 9.6301,"250": 10.0107,"275": 8.9678,"300": 8.8413,"325": 8.5408,"350": 8.5885,"375": 8.1937,"400": 8.3039,"425": 7.9251,"450": 8.0351,"475": 8.0829,"500": 7.7511,"525": 7.9567,"550": 8.2413,"575": 8.4155,"600": 7.9415,"625": 8.4479,"650": 7.8303,"675": 8.2899,"700": 7.2775,"725": 7.9102,"750": 8.4799,"775": 7.3254,"800": 7.8632,"825": 8.4333,"850": 7.9901,"875": 7.3894,"900": 7.9269,"925": 6.9143,"950": 8.6233,"975": 7.3259,"1000": 7.8324,"1025": 7.5789,"1050": 7.8167,"1075": 7.5473,"1100": 7.5156,"1125": 7.7379,"1150": 7.5318,"1175": 7.3107,"1200": 6.9146,"1225": 6.0755,"1250": 5.6007,"1275": 5.0784,"1300": 4.7776,"1325": 4.4926,"1350": 4.2871,"1375": 3.7809,"1400": 3.6857,"1425": 3.3219,"1450": 3.1951,"1475": 2.5149,"1500": 2.7046,"1525": 2.578,"1550": 2.467,"1575": 2.214,"1600": 2.293,"1625": 2.3245,"1650": 2.5143,"1675": 2.5141,"1700": 2.4032,"1725": 2.3558,"1750": 2.6088,"1775": 2.5454,"1800": 2.7192,"1825": 2.5138,"1850": 2.9722,"1875": 2.2765,"1900": 2.4031,"1925": 2.6086,"1950": 2.7825,"1975": 2.4347,"2000": 2.6719,"2025": 3.241,"2050": 2.8774,"2075": 2.656,"2100": 2.6719,"2125": 3.0989,"2150": 2.751,"2175": 2.7036,"2200": 2.1819,"2225": 2.4982,"2250": 2.1819,"2275": 1.8816,"2300": 1.6444,"2325": 1.6919,"2350": 1.2808,"2375": 0.8855,"2400": 0.8381,"2425": 0.5218,"2450": 0.2056,"2475": 0.0791,"2500": 0.0791,"2525": 0.0791,"2550": 0.0316,"2575": 0.0474}}}