{"type": "Feature","bbox": [42.0164,42.095,42.3326,42.2934],"geometry": {"type": "MultiPolygon","coordinates": [[[[42.229,42.0972,17.7788],[42.2425,42.0981,19.6065],[42.2543,42.095,70.4615],[42.2614,42.095,68.3344],[42.2788,42.1028,22.4406],[42.284,42.1076,17.3487],[42.2854,42.1193,20.8278],[42.2892,42.1271,21.441],[42.2901,42.1347,21.8835],[42.29,42.2054,27.3587],[42.2851,42.2202,33.0957],[42.2886,42.2238,34.1937],[42.3129,42.2281,41.0825],[42.3168,42.2315,43.8815],[42.3172,42.2396,48.4693],[42.3147,42.2508,52.5556],[42.3326,42.2734,68.2654],[42.3241,42.2824,68.3309],[42.322,42.2915,74.728],[42.3198,42.2934,74.1239],[42.3146,42.2932,73.8297],[42.2911,42.2831,60.8654],[42.2819,42.2731,55.9341],[42.2737,42.2679,50.2392],[42.2648,42.2677,48.2773],[42.2562,42.2705,47.6205],[42.2286,42.275,41.1083],[42.2113,42.2686,33.5224],[42.1967,42.2577,29.1614],[42.1908,42.2498,24.788],[42.1837,42.2451,23.6148],[42.1789,42.2446,25.7612],[42.1616,42.2511,26.3911],[42.1572,42.2507,27.5633],[42.1387,42.2255,17.8256],[42.1073,42.2157,14.8949],[42.0783,42.1877,12.1806],[42.0592,42.1785,12.3366],[42.0267,42.1689,19.3575],[42.0164,42.1601,17.3231],[42.0287,42.1551,8.1625],[42.0429,42.1535,11.3867],[42.0811,42.1453,9.7402],[42.1125,42.1229,10.9417],[42.1203,42.1191,12.625],[42.1445,42.1149,11.8052],[42.1985,42.1137,15.5556],[42.2235,42.1059,16.6325],[42.229,42.0972,17.7788]]]]}
,"properties": {"GID_2": "GEO.9.1_1","GID_0": "GEO","country": "Georgia","GID_1": "GEO.9_1","province": "Samegrelo-ZemoSvaneti","NL_NAME_1": "NA","county": "Abasha","VARNAME_2": "NA","NL_NAME_2": "NA","TYPE_2": "Raioni","ENGTYPE_2": "District","CC_2": "NA","HASC_2": "GE.SZ.AS","name": "Abasha.county","area_km2": 289.0044,"hist_schema_id": "Elevation0-9000","hist_area_km2": {"0": 41.5538,"25": 211.0125,"50": 31.6062,"75": 4.7689,"100": 0.0472,"125": 0.0157}}}