{"type": "Feature","bbox": [42.0766,41.4394,42.523,41.8041],"geometry": {"type": "MultiPolygon","coordinates": [[[[42.0864,41.5116,2356.3989],[42.1021,41.5094,2368.8354],[42.1118,41.5138,2323.6226],[42.1185,41.5129,2230.9414],[42.1204,41.5058,2354.9585],[42.152,41.5093,2234.2568],[42.1714,41.5149,2350.0635],[42.1839,41.5145,2477.2014],[42.19,41.5095,2517.2461],[42.1983,41.5059,2507.218],[42.2039,41.4936,2727.7493],[42.2094,41.4957,2650.4841],[42.2498,41.4971,2429.999],[42.2642,41.4931,2568.7339],[42.2818,41.4952,2574.6716],[42.2888,41.4941,2513.4102],[42.3032,41.4857,2505.0098],[42.3178,41.4805,2582.8987],[42.3252,41.4737,2508.8376],[42.334,41.471,2370.929],[42.3523,41.4729,2400.6021],[42.3712,41.4646,2517.9971],[42.4077,41.4666,2195.2729],[42.4147,41.4572,2288.6958],[42.4297,41.4502,2278.0999],[42.4395,41.4429,2324.2246],[42.4471,41.4404,2256.7268],[42.4714,41.4394,2232.8843],[42.4966,41.4452,2511.21],[42.5045,41.4455,2499.1965],[42.5136,41.4398,2666.6006],[42.5203,41.44,2732.0688],[42.523,41.4433,2949.2183],[42.5208,41.4549,2638.8042],[42.5113,41.4669,2558.6072],[42.4944,41.4649,2519.2007],[42.485,41.4717,2288.8889],[42.4786,41.481,2215.4963],[42.4764,41.4883,2138.8521],[42.4699,41.4999,2142.8032],[42.4393,41.5095,2197.9602],[42.4032,41.5349,2048.7056],[42.3751,41.5452,1928.0336],[42.3334,41.5665,1443.1414],[42.2775,41.5893,1387.3265],[42.2654,41.5981,1378.5231],[42.2593,41.6068,978.27],[42.2572,41.6209,578.8704],[42.2528,41.6301,757.2411],[42.2518,41.6454,908.8612],[42.2373,41.6674,1552.1858],[42.2389,41.6718,1334.4624],[42.2491,41.6797,1329.7822],[42.2514,41.6831,1454.6206],[42.2427,41.7084,1488.6534],[42.2466,41.7125,1447.6786],[42.2654,41.7196,1611.4757],[42.2825,41.743,1973.3853],[42.305,41.7568,1623.5095],[42.3063,41.7626,1966.1068],[42.3061,41.8035,2586.9963],[42.2549,41.8041,2496.3633],[42.2413,41.8009,2404.5684],[42.2221,41.7993,2287.2217],[42.2027,41.7943,2411.1523],[42.1823,41.7667,2138.5378],[42.1757,41.7648,2331.4868],[42.1523,41.7644,2389.0654],[42.1306,41.7562,2217.738],[42.1255,41.7499,2085.5708],[42.1225,41.7381,2032.8728],[42.1193,41.7324,1810.0182],[42.1185,41.7154,1664.3774],[42.1161,41.7106,1855.0598],[42.0792,41.6988,1483.4301],[42.082,41.6909,1740.6865],[42.0873,41.683,1319.3743],[42.106,41.6635,1061.9],[42.1079,41.6567,750.6132],[42.1066,41.6279,895.7945],[42.0961,41.6083,1391.8844],[42.0899,41.5997,1422.8823],[42.0818,41.5921,1578.4733],[42.0766,41.5835,1267.0648],[42.0772,41.58,1150.8622],[42.0915,41.5577,1899.9572],[42.0916,41.5455,1718.3928],[42.0863,41.5309,1785.4972],[42.0864,41.5116,2356.3989]]]]}
,"properties": {"GID_2": "GEO.2.5_1","GID_0": "GEO","country": "Georgia","GID_1": "GEO.2_1","province": "Ajaria","NL_NAME_1": "NA","county": "Shuakhevi","VARNAME_2": "NA","NL_NAME_2": "NA","TYPE_2": "Raioni","ENGTYPE_2": "District","CC_2": "NA","HASC_2": "GE.AJ.SH","name": "Shuakhevi.county","area_km2": 593.9849,"hist_schema_id": "Elevation0-9000","hist_area_km2": {"325": 0.4911,"350": 0.808,"375": 0.8715,"400": 1.2518,"425": 1.537,"450": 1.7906,"475": 2.266,"500": 2.4244,"525": 2.2817,"550": 2.8048,"575": 3.0266,"600": 3.5812,"625": 3.3279,"650": 3.9141,"675": 4.0249,"700": 3.9617,"725": 3.835,"750": 4.8491,"775": 4.4372,"800": 4.8333,"825": 5.0236,"850": 4.8811,"875": 6.1649,"900": 5.4362,"925": 5.9112,"950": 5.8165,"975": 6.292,"1000": 6.3549,"1025": 6.5772,"1050": 6.9728,"1075": 7.132,"1100": 7.2105,"1125": 7.8607,"1150": 7.8127,"1175": 7.797,"1200": 8.0987,"1225": 8.4157,"1250": 8.2887,"1275": 8.5263,"1300": 8.3993,"1325": 8.3214,"1350": 8.4321,"1375": 9.5726,"1400": 9.0347,"1425": 9.6686,"1450": 9.4477,"1475": 9.3041,"1500": 8.8603,"1525": 9.4306,"1550": 9.9535,"1575": 9.526,"1600": 9.5095,"1625": 10.176,"1650": 10.1133,"1675": 10.3503,"1700": 9.4314,"1725": 9.1465,"1750": 8.7355,"1775": 9.5603,"1800": 8.3399,"1825": 9.1963,"1850": 8.5001,"1875": 9.5313,"1900": 9.912,"1925": 9.6755,"1950": 10.0089,"1975": 9.8503,"2000": 9.9929,"2025": 9.0416,"2050": 9.2496,"2075": 9.0108,"2100": 8.8675,"2125": 8.3285,"2150": 8.8532,"2175": 8.0905,"2200": 8.7742,"2225": 7.2027,"2250": 6.552,"2275": 5.7591,"2300": 5.1865,"2325": 4.314,"2350": 4.0921,"2375": 4.0916,"2400": 3.8679,"2425": 3.5983,"2450": 3.4553,"2475": 3.424,"2500": 3.0756,"2525": 2.6947,"2550": 1.7599,"2575": 1.7753,"2600": 1.3642,"2625": 0.9683,"2650": 0.667,"2675": 0.3813,"2700": 0.1748,"2725": 0.0636,"2750": 0.1112,"2775": 0.0477,"2800": 0.0795,"2825": 0.0795,"2850": 0.0477,"2875": 0.0318,"2900": 0.0318}}}