{"type":"Feature","properties":{"GID_2":"GEO.8.1_1","GID_0":"GEO","country":"Georgia","GID_1":"GEO.8_1","province":"Racha-Lechkhumi-KvemoSvaneti","NL_NAME_1":"NA","county":"Ambrolauri","VARNAME_2":"NA","NL_NAME_2":"NA","TYPE_2":"Raioni","ENGTYPE_2":"District","CC_2":"NA","HASC_2":"GE.RK.AL","name":"Ambrolauri.county"},
"geometry":{"type": "MultiPolygon","coordinates": [[[[43.2495,42.4107,1207.0513],[43.2514,42.4147,1403.2482],[43.2562,42.4163,1419.6509],[43.2882,42.4155,1259.5647],[43.2861,42.4266,1481.172],[43.2822,42.4342,1512.765],[43.2807,42.4463,1770.4968],[43.2772,42.4528,1884.2522],[43.2751,42.463,1785.0568],[43.27,42.4709,1659.9535],[43.2512,42.4853,1242.1633],[43.2242,42.496,886.9678],[43.2182,42.507,941.6832],[43.2182,42.5144,1177.7439],[43.2235,42.5222,948.971],[43.2364,42.5329,941.8774],[43.2425,42.5416,800.1219],[43.2486,42.555,723.0831],[43.2506,42.5652,993.1987],[43.2579,42.579,1311.6492],[43.2917,42.5917,744.2458],[43.3306,42.6016,974.9233],[43.339,42.6055,1120.3412],[43.3408,42.6097,1099.3279],[43.3403,42.6248,1108.4594],[43.3355,42.6352,1460.3357],[43.3345,42.6583,1688.746],[43.3034,42.7058,1551.443],[43.3096,42.726,1951.0475],[43.3331,42.7615,2965.7703],[43.3293,42.7652,2666.4863],[43.2947,42.7772,1770.8647],[43.2887,42.7739,1808.9413],[43.2739,42.7566,1821.8322],[43.2652,42.7508,1842.0731],[43.2222,42.7354,2227.9656],[43.176,42.7265,2815.2778],[43.1651,42.7221,3251.584],[43.1594,42.7149,2804.4182],[43.1518,42.696,2733.7925],[43.1435,42.6835,2263.5254],[43.1409,42.6755,2091.0432],[43.1355,42.6693,2018.8398],[43.1292,42.6681,1966.2216],[43.0916,42.6678,1531.6411],[42.9982,42.6346,951.5195],[42.9819,42.6327,1259.373],[42.9693,42.628,1135.1145],[42.9585,42.6134,1111.7526],[42.9526,42.6083,893.2481],[42.9135,42.5869,1135.6394],[42.9072,42.5737,1059.8311],[42.9053,42.5595,997.0969],[42.9,42.5477,643.3203],[42.8941,42.5391,474.4592],[42.8748,42.5211,805.2054],[42.8631,42.5169,890.4216],[42.8522,42.5151,1021.7271],[42.8437,42.5113,1206.2689],[42.8412,42.4979,1351.395],[42.8369,42.4887,1234.655],[42.8381,42.4711,874.0951],[42.847,42.4616,826.3608],[42.8523,42.4585,772.4665],[42.8651,42.4567,805.6982],[42.8671,42.4551,695.7934],[42.8791,42.4523,879.3235],[42.8985,42.4429,790.4519],[42.9461,42.4079,1079.9415],[42.9539,42.3928,1070.9869],[42.9553,42.3755,811.4766],[42.9616,42.3637,649.5123],[42.9982,42.3612,602.8438],[43.0196,42.3532,612.4468],[43.0553,42.3325,811.2883],[43.0597,42.3332,773.2762],[43.0742,42.3418,775.087],[43.0911,42.3428,804.673],[43.1048,42.3461,900.0417],[43.1217,42.3444,943.1582],[43.132,42.3491,1049.866],[43.1471,42.3508,1027.1647],[43.159,42.355,1006.2413],[43.1761,42.3633,1028.0898],[43.1894,42.3724,1280.6407],[43.2051,42.3913,1624.2357],[43.2409,42.4046,1211.4149],[43.2495,42.4107,1207.0513]]]]}}