{"type":"Feature","properties":{"GID_2":"GEO.9.4_1","GID_0":"GEO","country":"Georgia","GID_1":"GEO.9_1","province":"Samegrelo-ZemoSvaneti","NL_NAME_1":"NA","county":"Martvili","VARNAME_2":"NA","NL_NAME_2":"NA","TYPE_2":"Raioni","ENGTYPE_2":"District","CC_2":"NA","HASC_2":"GE.SZ.MV","name":"Martvili.county"},
"geometry":{"type": "MultiPolygon","coordinates": [[[[42.6144,42.5242,1255.7946],[42.6075,42.5333,1420.9479],[42.6051,42.5444,1369.8489],[42.5946,42.5602,1553.9741],[42.556399999999996,42.6043,2233.7383],[42.5436,42.6152,2040.108],[42.5373,42.6248,1534.2399],[42.5365,42.6558,2160.8362],[42.5377,42.6625,2168.7112],[42.5445,42.6684,2158.6558],[42.5649,42.6779,1861.7573],[42.5557,42.6845,2296.6401],[42.5345,42.7073,2186.9656],[42.5276,42.7124,2035.5426],[42.4996,42.7227,1518.855],[42.4784,42.7327,1553.3727],[42.46,42.7372,1690.1582],[42.446,42.7387,2087.6238],[42.4341,42.744,2463.4399],[42.4192,42.7201,2193.4973],[42.4189,42.692,1733.9387],[42.4171,42.6864,1545.8933],[42.4051,42.6764,1607.4177],[42.3977,42.6677,1991.9749],[42.3629,42.6422,1332.4121],[42.3608,42.6379,1430.9827],[42.3639,42.6314,1008.2701],[42.3626,42.6286,1152.8586],[42.346,42.6215,1268.9515],[42.336,42.6074,1094.981],[42.3218,42.5966,447.4198],[42.297,42.5857,331.3523],[42.281,42.5622,354.0491],[42.2782,42.5543,372.5095],[42.2699,42.5418,349.8929],[42.2675,42.5347,342.3303],[42.2537,42.5145,296.9727],[42.2519,42.4924,215.7124],[42.2405,42.475,183.8603],[42.2334,42.4677,209.5905],[42.2021,42.4577,174.9154],[42.1892,42.444,149.6546],[42.1839,42.4362,132.9676],[42.1815,42.4286,115.0563],[42.2002,42.4283,164.5474],[42.2116,42.4253,138.8854],[42.2274,42.4242,227.0025],[42.2306,42.4217,223.6014],[42.2314,42.4125,156.0777],[42.2338,42.4095,142.5569],[42.2572,42.4088,209.9343],[42.2624,42.4067,200.0928],[42.2637,42.3907,169.8808],[42.2623,42.3831,114.2037],[42.238,42.3761,140.0601],[42.2326,42.37,153.6883],[42.2297,42.3636,106.874],[42.223,42.3584,97.9786],[42.2233,42.3555,94.0185],[42.2336,42.3407,74.9914],[42.2446,42.3315,73.1968],[42.2524,42.3225,71.3001],[42.2868,42.2969,68.0769],[42.2944,42.2847,63.2857],[42.3146,42.2932,73.8297],[42.3198,42.2934,74.1239],[42.322,42.2915,74.728],[42.3241,42.2824,68.3309],[42.3326,42.2734,68.2654],[42.342,42.2821,74.8811],[42.3507,42.2949,83.9628],[42.3587,42.3025,88.9015],[42.3835,42.3387,116.4009],[42.3945,42.3469,123.4256],[42.4075,42.3528,132.9015],[42.4261,42.3662,144.9744],[42.438,42.3786,155.8373],[42.4546,42.3916,291.7603],[42.4564,42.3982,442.4404],[42.4565,42.445,688.9426],[42.4611,42.45,895.4009],[42.4772,42.4555,901.3034],[42.4819,42.4592,935.9543],[42.4832,42.4641,967.0942],[42.4831,42.483,1031.5415],[42.4862,42.4885,1047.5427],[42.5058,42.4991,1189.4745],[42.516,42.5133,1187.0093],[42.5211,42.5168,1202.7992],[42.5683,42.5174,977.4541],[42.5748,42.5187,976.9753],[42.5878,42.5248,1188.472],[42.6144,42.5242,1255.7946]]]]}}