{"type":"Feature","properties":{"GID_2":"GEO.3.3_1","GID_0":"GEO","country":"Georgia","GID_1":"GEO.3_1","province":"Guria","NL_NAME_1":"NA","county":"Ozurgeti","VARNAME_2":"NA","NL_NAME_2":"NA","TYPE_2":"Raioni","ENGTYPE_2":"District","CC_2":"NA","HASC_2":"GE.GU.OZ","name":"Ozurgeti.county"},
"geometry":{"type": "MultiPolygon","coordinates": [[[[42.2027,41.7943,2411.1523],[42.2221,41.7993,2287.2217],[42.2413,41.8009,2404.5684],[42.2549,41.8041,2496.3633],[42.2621,41.8159,2405.6355],[42.2642,41.8343,2334.1128],[42.2678,41.8405,2303.6848],[42.2686,41.8455,2240.7607],[42.2683,41.8557,2141.2861],[42.2641,41.8651,1811.0519],[42.2627,41.8725,1497.6086],[42.2584,41.8773,1628.6001],[42.2327,41.8901,1502.1249],[42.2141,41.9175,717.3833],[42.2085,41.9228,547.5038],[42.1637,41.9484,251.8946],[42.1615,41.9526,204.545],[42.1609,41.9618,181.1658],[42.1571,41.9705,163.9925],[42.1543,41.9853,156.471],[42.1288,42.0039,88.0219],[42.1168,42.0085,65.1094],[42.0855,41.9987,53.3648],[42.0573,42.0147,153.1336],[42.0487,42.0159,247.6412],[42.0423,42.0093,255.0117],[42.0373,41.9981,163.3381],[42.0321,41.9911,76.6542],[42.0219,41.9859,37.7072],[42.0123,41.9827,35.1453],[42.0063,41.9825,33.6226],[41.9991,41.9865,30.2682],[41.9869,42.0003,100.3014],[41.9789,42.0259,334.7437],[41.9757,42.0285,352.9645],[41.9723,42.0289,340.6511],[41.9507,42.0233,286.6613],[41.9253,42.0063,63.6787],[41.8967,41.9983,46.8451],[41.8879,41.9987,15.7321],[41.8603,42.0093,22.9604],[41.8507,42.0099,78.639],[41.8343,42.0061,120.6922],[41.8029,42.0053,38.4146],[41.7745,41.9963,4.2407],[41.7568,42.0076,3.5265],[41.7596,42.0021,7.2185],[41.7579,42.0001,0.0],[41.7593,41.9824,6.8821],[41.7657,41.9365,3.3432],[41.7668,41.9168,0.0],[41.7701,41.9029,1.5594],[41.7805,41.9037,1.7869],[41.7977,41.9001,4.2957],[41.8499,41.8997,11.1838],[41.8675,41.8959,17.1],[41.9199,41.8947,94.8113],[41.9419,41.8869,100.5207],[41.9467,41.8817,100.4567],[41.9467,41.8579,161.0707],[41.9499,41.8529,208.824],[41.9955,41.8511,407.9086],[42.0027,41.8465,279.701],[42.0125,41.8355,610.9281],[42.0167,41.8335,664.2636],[42.0319,41.8295,869.8278],[42.0485,41.8275,1127.552],[42.0555,41.8247,1390.3488],[42.0579,41.8231,1450.7532],[42.0601,41.8119,1399.174],[42.0631,41.8089,1392.2917],[42.0709,41.8095,1693.8748],[42.0977,41.8195,1726.6554],[42.1163,41.8237,969.3757],[42.1623,41.8237,1947.335],[42.1905,41.8135,2172.2434],[42.1981,41.8039,2276.6987],[42.2027,41.7943,2411.1523]]]]}}