{"type": "Feature","bbox": [42.9869,41.824,43.4906,42.1293],"geometry": {"type": "MultiPolygon","coordinates": [[[[43.0996,41.833,2037.041],[43.1231,41.824,2276.6936],[43.1962,41.85,1714.761],[43.2606,41.8654,1665.2686],[43.2768,41.8674,1524.4386],[43.2982,41.8752,1730.1586],[43.3119,41.884,1797.2068],[43.3237,41.8885,1390.3027],[43.3614,41.8942,1389.8219],[43.3815,41.9073,1196.7839],[43.3934,41.9118,1411.1956],[43.4262,41.9167,1480.0303],[43.4253,41.9233,1522.1389],[43.4213,41.9307,1649.3853],[43.4207,41.9379,1282.915],[43.4219,41.9439,934.2979],[43.4271,41.9518,1055.652],[43.4426,41.9639,1140.5706],[43.4812,41.9849,864.6799],[43.4846,41.9885,943.4764],[43.4853,42.0486,1156.9528],[43.4896,42.0591,1064.332],[43.4906,42.0657,1066.4451],[43.4803,42.0764,927.4901],[43.4499,42.0884,904.5056],[43.424,42.1253,531.7744],[43.4137,42.1216,594.5912],[43.3936,42.1198,846.6113],[43.3819,42.1066,670.8076],[43.3607,42.1018,530.2874],[43.3313,42.1099,352.5179],[43.3025,42.1245,602.8602],[43.284,42.1291,637.5283],[43.275,42.1293,393.9413],[43.2424,42.1183,347.8831],[43.198,42.1097,360.1838],[43.196,42.104,414.0562],[43.1958,42.0958,554.0574],[43.2007,42.0843,600.7944],[43.2015,42.0761,518.0541],[43.2001,42.0712,488.5564],[43.1963,42.068,486.5215],[43.1321,42.0448,372.4095],[43.0943,42.0353,309.1025],[43.0721,42.025,525.1088],[43.0506,42.0173,758.2998],[43.032,42.013,507.1566],[43.0099,42.0121,497.3566],[42.9945,42.0082,888.1556],[42.9869,41.9901,1333.0596],[42.9878,41.9778,1094.3438],[43.0024,41.9621,716.3434],[43.0555,41.9219,1167.5701],[43.0607,41.9139,1609.2311],[43.0634,41.906,1366.1056],[43.0735,41.891,1925.8738],[43.087,41.8793,1664.6682],[43.0929,41.8706,1973.5671],[43.0943,41.8544,1805.0525],[43.0988,41.8452,2163.5581],[43.0996,41.833,2037.041]]]]}
,"properties": {"GID_2": "GEO.4.3_1","GID_0": "GEO","country": "Georgia","GID_1": "GEO.4_1","province": "Imereti","NL_NAME_1": "NA","county": "Kharagauli","VARNAME_2": "Xaragauli","NL_NAME_2": "NA","TYPE_2": "Raioni","ENGTYPE_2": "District","CC_2": "NA","HASC_2": "GE.IM.KG","name": "Kharagauli.county","area_km2": 847.75,"hist_schema_id": "Elevation0-9000","hist_area_km2": {"225": 0.3464,"250": 1.3379,"275": 3.5891,"300": 5.1633,"325": 7.9658,"350": 9.3829,"375": 10.8634,"400": 12.139099999999999,"425": 13.0381,"450": 15.7153,"475": 17.4646,"500": 18.3779,"525": 18.9145,"550": 20.1284,"575": 20.2218,"600": 19.4672,"625": 19.7051,"650": 19.1537,"675": 19.1395,"700": 17.801,"725": 17.8633,"750": 17.0145,"775": 16.6386,"800": 17.0956,"825": 16.0088,"850": 16.0414,"875": 16.8923,"900": 17.3018,"925": 17.3492,"950": 16.5938,"975": 17.5552,"1000": 16.9243,"1025": 17.2397,"1050": 18.1217,"1075": 16.6253,"1100": 17.46,"1125": 18.1217,"1150": 17.7433,"1175": 17.6018,"1200": 15.9169,"1225": 13.3183,"1250": 11.5062,"1275": 10.2158,"1300": 9.1447,"1325": 7.7892,"1350": 7.5063,"1375": 7.649,"1400": 7.869,"1425": 7.1288,"1450": 7.1132,"1475": 6.2309,"1500": 6.1214,"1525": 5.6169,"1550": 6.1853,"1575": 5.1281,"1600": 5.4281,"1625": 5.1601,"1650": 5.8389,"1675": 4.8447,"1700": 4.5136,"1725": 4.9081,"1750": 4.798,"1775": 4.1826,"1800": 4.3089,"1825": 3.8355,"1850": 3.6464,"1875": 3.4567,"1900": 3.536,"1925": 3.3938,"1950": 3.5359,"1975": 3.4098,"2000": 3.4887,"2025": 2.747,"2050": 3.2522,"2075": 3.1575,"2100": 3.126,"2125": 3.2996,"2150": 2.8892,"2175": 2.9839,"2200": 2.6365,"2225": 2.6681,"2250": 2.4313,"2275": 2.3997,"2300": 2.2578,"2325": 1.5629,"2350": 2.084,"2375": 1.421,"2400": 1.3579,"2425": 1.0264,"2450": 1.0106,"2475": 0.7579,"2500": 0.6632,"2525": 0.5053,"2550": 0.3,"2575": 0.1895,"2600": 0.0632,"2625": 0.1263}}}