{"type":"Feature","properties":{"GID_2":"GEO.3.2_1","GID_0":"GEO","country":"Georgia","GID_1":"GEO.3_1","province":"Guria","NL_NAME_1":"NA","county":"Lanchkhuti","VARNAME_2":"NA","NL_NAME_2":"NA","TYPE_2":"Raioni","ENGTYPE_2":"District","CC_2":"NA","HASC_2":"GE.GU.LK","name":"Lanchkhuti.county"},
"geometry":{"type": "MultiPolygon","coordinates": [[[[42.2027,42.0706,463.9895],[42.2039,42.0705,479.4089],[42.2044,42.0798,149.6863],[42.2067,42.0844,109.2272],[42.2175,42.0924,37.0536],[42.229,42.0972,17.7788],[42.2235,42.1059,16.6325],[42.1985,42.1137,15.5556],[42.1445,42.1149,11.8052],[42.1203,42.1191,12.625],[42.1125,42.1229,10.9417],[42.0811,42.1453,9.7402],[42.0429,42.1535,11.3867],[42.0287,42.1551,8.1625],[42.0164,42.1601,17.3231],[41.9838,42.1546,11.4499],[41.9357,42.1547,11.1803],[41.9145,42.1481,16.6211],[41.8611,42.1397,19.9511],[41.7881,42.1397,4.6636],[41.7601,42.1349,2.7881],[41.7551,42.1318,0.1397],[41.7582,42.1293,0.0968],[41.7651,42.1279,0.4254],[41.7679,42.1251,0.3864],[41.7571,42.1229,0.1815],[41.7576,42.1121,0.0],[41.7543,42.1074,0.1425],[41.7518,42.1054,2.6954],[41.7449,42.1063,0.3113],[41.7346,42.1043,0.1324],[41.7254,42.0993,0.1185],[41.7224,42.101,0.1407],[41.7232,42.1018,0.1407],[41.7157,42.1021,0.0],[41.7143,42.0982,0.235],[41.7121,42.0971,0.0],[41.7137,42.0965,0.0],[41.7174,42.0985,0.0],[41.7182,42.0962,0.0707],[41.7215,42.0957,0.3811],[41.7226,42.0938,0.3135],[41.7282,42.0929,0.7809],[41.7304,42.0874,0.2744],[41.736,42.0871,0.6137],[41.7371,42.0857,0.0],[41.7315,42.0815,0.0],[41.7349,42.079,0.3566],[41.7296,42.0765,0.076],[41.7329,42.0721,0.7288],[41.7318,42.0693,0.3416],[41.7287,42.0693,0.0],[41.7299,42.0668,1.3157],[41.7263,42.0687,0.2735],[41.7263,42.0715,0.0],[41.7221,42.0718,0.0929],[41.7243,42.0674,0.3475],[41.7285,42.064,0.4733],[41.7282,42.0621,0.2992],[41.731,42.0624,0.3287],[41.7293,42.0604,1.2524],[41.7274,42.0612,1.3504],[41.7221,42.0699,0.4749],[41.7168,42.0726,1.3367],[41.7165,42.076,0.6762],[41.7188,42.0726,0.9724],[41.7235,42.0738,0.0],[41.7207,42.0732,0.981],[41.7207,42.076,0.0],[41.7179,42.0757,0.0],[41.7188,42.0782,0.3033],[41.7154,42.0829,0.181],[41.7118,42.0962,0.0],[41.7088,42.0946,0.0],[41.7118,42.0868,0.0],[41.7082,42.0918,0.4555],[41.7051,42.0921,0.5438],[41.7038,42.0901,1.6675],[41.704,42.0879,0.0],[41.7235,42.0612,0.8099],[41.7287,42.0488,5.4523],[41.7399,42.0321,0.0],[41.7421,42.0301,0.2789],[41.7446,42.031,4.4189],[41.7471,42.0279,-1.5584],[41.7463,42.0265,0.4662],[41.7515,42.0204,0.0],[41.7535,42.021,0.2928],[41.756,42.0288,2.1452],[41.7576,42.029,0.7127],[41.754,42.0179,0.5521],[41.7565,42.0079,0.0],[41.7745,41.9963,4.2407],[41.8029,42.0053,38.4146],[41.8343,42.0061,120.6922],[41.8507,42.0099,78.639],[41.8603,42.0093,22.9604],[41.8879,41.9987,15.7321],[41.8967,41.9983,46.8451],[41.9253,42.0063,63.6787],[41.9507,42.0233,286.6613],[41.9723,42.0289,340.6511],[41.9757,42.0285,352.9645],[41.9789,42.0259,334.7437],[41.9869,42.0003,100.3014],[41.9991,41.9865,30.2682],[42.0093,41.9823,34.1507],[42.0219,41.9859,37.7072],[42.0321,41.9911,76.6542],[42.0373,41.9981,163.3381],[42.0423,42.0093,255.0117],[42.0487,42.0159,247.6412],[42.0573,42.0147,153.1336],[42.0855,41.9987,53.3648],[42.1168,42.0085,65.1094],[42.1185,42.0169,69.5647],[42.1187,42.0445,242.9235],[42.1217,42.0496,336.2149],[42.1632,42.0707,252.3479],[42.2027,42.0706,463.9895]]],
[[[41.7293,42.0738,0.4306],[41.7274,42.0735,0.2099],[41.7265,42.0721,0.2099],[41.7304,42.0715,0.0],[41.7293,42.0738,0.4306]]],
[[[41.7279,42.0738,0.1222],[41.7279,42.074,0.1222],[41.7301,42.0749,0.1969],[41.7257,42.0735,0.0],[41.7279,42.0738,0.1222]]],
[[[41.7282,42.0796,0.1494],[41.7268,42.0807,0.0],[41.7243,42.0782,0.0],[41.726,42.0779,0.1956],[41.7257,42.0765,0.0],[41.729,42.0762,0.076],[41.7282,42.0785,0.0],[41.7296,42.0793,0.1494],[41.7282,42.0796,0.1494]]],
[[[41.726,42.0924,0.5413],[41.7232,42.0929,0.0],[41.7243,42.0907,0.7877],[41.7215,42.0896,0.0],[41.724,42.0887,0.0],[41.7268,42.0901,0.0],[41.726,42.0924,0.5413]]]]}}