{"type": "Feature","bbox": [42.7504,42.0082,43.2116,42.2051],"geometry": {"type": "MultiPolygon","coordinates": [[[[42.9945,42.0082,888.1556],[43.0099,42.0121,497.3566],[43.032,42.013,507.1566],[43.0506,42.0173,758.2998],[43.0721,42.025,525.1088],[43.0943,42.0353,309.1025],[43.1321,42.0448,372.4095],[43.1981,42.0691,486.4895],[43.2015,42.0761,518.0541],[43.2007,42.0843,600.7944],[43.1958,42.0958,554.0574],[43.196,42.104,414.0562],[43.198,42.1097,360.1838],[43.1916,42.1184,447.5868],[43.186,42.1356,436.4501],[43.1891,42.1407,523.182],[43.207,42.1535,631.983],[43.2113,42.1584,604.353],[43.2116,42.1669,673.3438],[43.2076,42.1743,675.6628],[43.2054,42.1828,655.0948],[43.1779,42.1905,510.9469],[43.1722,42.1946,412.7561],[43.1668,42.2016,297.2472],[43.1619,42.2041,487.5839],[43.1188,42.2051,400.6347],[43.1044,42.1824,396.9617],[43.0998,42.1785,388.1845],[43.0788,42.1737,295.8685],[43.0247,42.1729,205.5065],[43.0142,42.1665,160.404],[43.0049,42.1559,162.701],[42.9951,42.1487,179.2001],[42.9754,42.1412,147.1937],[42.965,42.1354,135.6506],[42.9488,42.1308,131.267],[42.9122,42.1318,190.4629],[42.8826,42.1523,129.5406],[42.8672,42.1582,122.9014],[42.8237,42.1592,117.9483],[42.7934,42.1667,103.104],[42.7504,42.167,115.4991],[42.7518,42.1564,120.1062],[42.7552,42.1499,126.5277],[42.7569,42.1422,108.0266],[42.759,42.1402,113.5342],[42.7933,42.1345,155.2193],[42.8157,42.1204,180.4821],[42.8511,42.118899999999996,175.0083],[42.8728,42.1105,194.1646],[42.8947,42.0797,577.9496],[42.8998,42.0717,913.9547],[42.9026,42.0638,858.1828],[42.9123,42.0502,599.7023],[42.9191,42.0483,638.3722],[42.9529,42.0478,522.6687],[42.9765,42.0392,701.0493],[42.9852,42.029,486.3009],[42.988,42.0171,632.8572],[42.9945,42.0082,888.1556]]]]}
,"properties": {"GID_2": "GEO.4.12_1","GID_0": "GEO","country": "Georgia","GID_1": "GEO.4_1","province": "Imereti","NL_NAME_1": "NA","county": "Zestaponi","VARNAME_2": "NA","NL_NAME_2": "NA","TYPE_2": "Raioni","ENGTYPE_2": "District","CC_2": "NA","HASC_2": "GE.IM.ZP","name": "Zestaponi.county","area_km2": 411.7453,"hist_schema_id": "Elevation0-9000","hist_area_km2": {"100": 2.9547,"125": 11.9157,"150": 35.9903,"175": 35.318,"200": 26.8313,"225": 23.9076,"250": 22.2417,"275": 23.1394,"300": 22.527,"325": 21.0485,"350": 17.6822,"375": 16.564,"400": 16.4071,"425": 15.7142,"450": 15.0214,"475": 14.3917,"500": 13.1009,"525": 12.0471,"550": 9.9244,"575": 7.3773,"600": 6.1664,"625": 6.0246,"650": 5.302,"675": 4.249,"700": 3.3845,"725": 3.2907,"750": 3.1017,"775": 2.771,"800": 2.8656,"825": 2.6294,"850": 2.1728,"875": 1.8577,"900": 1.2753,"925": 0.9289,"950": 0.6611,"975": 0.425,"1000": 0.3463,"1025": 0.0944,"1050": 0.0472,"1075": 0.0472}}}