{"type": "Feature","bbox": [45.0213,41.4103,45.6662,41.917],"geometry": {"type": "MultiPolygon","coordinates": [[[[45.5482,41.4103,672.7723],[45.5555,41.425,584.0635],[45.5714,41.4485,519.3079],[45.578,41.4537,558.4009],[45.5877,41.4576,491.7737],[45.6113,41.4711,455.19],[45.6465,41.5229,389.4679],[45.6662,41.537,504.2766],[45.6351,41.5689,472.0225],[45.6163,41.5826,464.0102],[45.6029,41.5886,434.5708],[45.5987,41.5933,433.0555],[45.6084,41.6086,440.7292],[45.6204,41.6219,444.0256],[45.6494,41.6444,493.0057],[45.6498,41.651,541.6949],[45.6459,41.6572,583.4944],[45.6442,41.6665,663.9115],[45.6386,41.6792,859.3215],[45.632,41.6887,864.8848],[45.6088,41.7102,889.6514],[45.5628,41.7326,1156.8751],[45.5554,41.7383,1106.2653],[45.5439,41.7558,1107.2086],[45.5421,41.7818,1111.8066],[45.5271,41.8018,1314.4519],[45.5037,41.8058,1379.0515],[45.4512,41.8059,1492.0276],[45.4195,41.7952,1408.8467],[45.3818,41.7905,1620.7756],[45.3681,41.7912,1743.1274],[45.3293,41.7995,1593.8051],[45.3169,41.8076,1681.9467],[45.3101,41.8158,1703.2203],[45.2971,41.8274,1540.1431],[45.2868,41.8473,1581.7776],[45.285,41.8564,1561.4963],[45.2812,41.8639,1643.6411],[45.2806,41.8721,1818.2986],[45.2562,41.8771,1520.395],[45.237,41.8788,1423.1298],[45.2301,41.8834,1419.2766],[45.222,41.893,1428.7546],[45.2129,41.8984,1509.4844],[45.1965,41.8969,1367.2102],[45.1866,41.894,1329.1597],[45.1697,41.8931,1071.3314],[45.1481,41.8866,1149.3953],[45.1256,41.8907,1004.1738],[45.1148,41.8945,1113.057],[45.0894,41.912,1075.1047],[45.0731,41.917,1315.2118],[45.0657,41.9136,1268.6377],[45.0213,41.8811,1274.2349],[45.0348,41.8773,1377.5906],[45.0586,41.864,1249.7933],[45.0656,41.8536,1585.5222],[45.0662,41.8375,1476.0996],[45.0853,41.8246,1329.0397],[45.1001,41.8031,1026.6243],[45.1116,41.7904,1015.6653],[45.1234,41.7804,913.3142],[45.1343,41.7658,817.3604],[45.1425,41.7642,804.3048],[45.1563,41.7677,815.9477],[45.1783,41.7681,755.3445],[45.1858,41.7675,878.4294],[45.1891,41.7652,903.1378],[45.196,41.7485,777.9584],[45.2102,41.7272,726.5681],[45.2114,41.7032,663.1979],[45.2313,41.6527,806.1199],[45.2307,41.6492,837.2746],[45.2254,41.6415,865.884],[45.2133,41.6315,825.1754],[45.2068,41.6236,728.4628],[45.1925,41.6129,651.466],[45.1896,41.6077,615.5651],[45.1903,41.6031,583.6508],[45.2045,41.5829,501.9416],[45.2052,41.5783,488.0567],[45.2004,41.5683,459.3591],[45.2005,41.5617,444.4756],[45.2123,41.5435,447.3891],[45.2192,41.5401,456.662],[45.2347,41.5393,506.0355],[45.2474,41.5361,526.3271],[45.2735,41.5352,649.5172],[45.2959,41.5283,712.7786],[45.3153,41.5135,819.8495],[45.3158,41.5111,830.2449],[45.3086,41.5001,715.9999],[45.3085,41.4965,678.9198],[45.3272,41.4692,737.3848],[45.33,41.4614,660.5121],[45.3451,41.4494,571.5055],[45.3919,41.4257,614.8732],[45.4071,41.4261,536.7573],[45.4211,41.4347,563.0955],[45.4369,41.4492,630.0814],[45.4494,41.4484,602.6177],[45.4573,41.4476,587.1087],[45.4644,41.4447,593.8804],[45.4811,41.4296,617.6896],[45.4957,41.4215,610.8118],[45.5482,41.4103,672.7723]]]]}
,"properties": {"GID_2": "GEO.5.6_1","GID_0": "GEO","country": "Georgia","GID_1": "GEO.5_1","province": "Kakheti","NL_NAME_1": "NA","county": "Sagarejo","VARNAME_2": "NA","NL_NAME_2": "NA","TYPE_2": "Raioni","ENGTYPE_2": "District","CC_2": "NA","HASC_2": "GE.KA.SG","name": "Sagarejo.county","area_km2": 1474.273,"hist_schema_id": "Elevation0-9000","hist_area_km2": {"375": 0.206,"400": 10.125,"425": 22.796,"450": 44.097,"475": 42.007,"500": 67.017,"525": 71.761,"550": 72.272,"575": 67.276,"600": 57.805,"625": 56.845,"650": 61.843,"675": 62.304,"700": 56.689,"725": 59.61,"750": 64.76,"775": 71.13,"800": 60.97,"825": 49.609,"850": 42.43,"875": 33.98,"900": 30.121,"925": 25.264,"950": 23.697,"975": 19.849,"1000": 18.578,"1025": 16.917,"1050": 17.2,"1075": 16.455,"1100": 16.88,"1125": 16.295,"1150": 17.954,"1175": 16.989,"1200": 14.806,"1225": 13.225,"1250": 11.96,"1275": 11.138,"1300": 10.427,"1325": 9.557,"1350": 8.989,"1375": 8.878,"1400": 8.721,"1425": 8.247,"1450": 7.852,"1475": 7.473,"1500": 7.062,"1525": 6.715,"1550": 5.972,"1575": 5.498,"1600": 4.203,"1625": 3.239,"1650": 2.67,"1675": 1.943,"1700": 1.469,"1725": 0.916,"1750": 0.774,"1775": 0.316,"1800": 0.347,"1825": 0.095,"1850": 0.047}}}