{"type":"Feature","properties":{"ISO3166-1-Alpha-3":"GEO","country":"Georgia","fill":"#F0F","id":"3033","name":"Kakheti"},
"geometry":{"type": "Polygon","coordinates": [[[45.35597,42.51996,3241.3203],[45.32269,42.53012,3131.0593],[45.31256,42.54172,3216.2893],[45.30157,42.55984,3544.7842],[45.30135,42.5596,3544.7842],[45.269,42.52423,3383.7454],[45.25515,42.47891,3302.7222],[45.25825,42.44847,3101.6748],[45.24275,42.42312,2884.6951],[45.22053,42.40832,3103.3862],[45.21081,42.38496,3034.001],[45.22363,42.34501,2182.1099],[45.21464,42.30628,2314.5752],[45.195,42.30073,1670.6597],[45.17402,42.29845,1771.5765],[45.14808,42.28083,1972.6584],[45.12369,42.25814,1795.7867],[45.10322,42.20763,1647.7133],[45.0842,42.18487,1516.5145],[45.0688,42.12766,1348.0095],[45.05496,42.10446,1176.4908],[45.06694,42.06586,1067.7675],[45.06984,42.03774,802.921],[45.08782,42.00612,1523.8218],[45.07232,41.97883,1649.8619],[45.08172,41.94788,1466.3369],[45.10425,41.94183,1411.7758],[45.12813,41.94021,1291.9375],[45.17712,41.93067,1420.4065],[45.21288,41.89832,1509.4844],[45.13257,41.88977,937.6625],[45.0778,41.91651,1264.6621],[45.04813,41.90284,1725.8693],[45.02137,41.88109,1274.2349],[45.05279,41.86695,1362.0332],[45.06622,41.8375,1476.0996],[45.09237,41.8153,1206.7845],[45.11428,41.78804,995.6574],[45.14735,41.77003,811.4545],[45.18549,41.76699,836.9615],[45.20306,41.74009,756.3085],[45.21081,41.70805,666.7316],[45.22993,41.65446,824.4527],[45.19562,41.59519,593.4523],[45.2011,41.56806,459.3591],[45.20833,41.54858,441.4981],[45.22631,41.53969,467.5832],[45.25835,41.5379,607.0232],[45.28957,41.53121,695.8762],[45.30817,41.51134,746.973],[45.3153,41.48638,733.8753],[45.32367,41.47442,724.8053],[45.32998,41.4614,660.5121],[45.33308,41.44445,645.2699],[45.3331,41.44435,645.2699],[45.38124,41.42559,631.4124],[45.39679,41.42326,639.4271],[45.41695,41.4246,514.1217],[45.45002,41.4322,595.3132],[45.4648,41.43019,572.5674],[45.47927,41.41768,551.1782],[45.51183,41.39458,562.7871],[45.65559,41.35236,555.7499],[45.7207,41.34239,419.537],[45.74406,41.33536,367.9491],[45.7453,41.32916,366.5801],[45.73104,41.32327,368.8201],[45.70809,41.31712,399.6583],[45.68587,41.29624,624.5928],[45.70975,41.26771,616.8151],[45.75109,41.241,679.1575],[45.77034,41.2321,665.5901],[45.82075,41.2088,621.4294],[45.96916,41.16829,546.8299],[46.01743,41.16379,318.861],[46.04161,41.16545,291.3813],[46.06135,41.17092,275.7436],[46.08761,41.18366,272.8604],[46.11313,41.19604,187.5585],[46.13541,41.19992,195.968],[46.21059,41.20017,173.401],[46.22858,41.19542,152.7361],[46.24439,41.18374,142.2968],[46.27343,41.1563,126.3765],[46.33234,41.11589,107.3678],[46.35312,41.10654,102.7525],[46.41265,41.09186,92.8854],[46.42903,41.08096,90.0268],[46.45699,41.05243,85.6982],[46.47492,41.04411,84.2495],[46.49678,41.04483,78.0297],[46.50556,41.05527,85.8816],[46.51115,41.07098,97.0329],[46.52241,41.087,106.1237],[46.54355,41.09703,177.3598],[46.56313,41.09558,222.6542],[46.58215,41.09165,145.314],[46.60179,41.09403,169.7272],[46.61554,41.10867,178.885],[46.62111,41.1146,218.7397],[46.62948,41.14674,322.4053],[46.63476,41.18105,286.3703],[46.64447,41.20798,310.488],[46.65036,41.21418,267.4057],[46.66359,41.22353,192.0794],[46.66948,41.22989,247.9308],[46.6716,41.23645,239.1257],[46.67269,41.25397,351.7305],[46.67465,41.26167,373.8537],[46.68343,41.26947,299.3002],[46.6917,41.26854,260.5345],[46.6948,41.26978,238.2016],[46.6885,41.28435,257.7693],[46.65708,41.32063,285.1424],[46.63775,41.33696,243.1338],[46.63103,41.34554,225.2149],[46.62984,41.34614,225.2149],[46.62287,41.34962,232.8634],[46.60737,41.34502,269.4485],[46.59155,41.37293,214.839],[46.54246,41.39499,240.5868],[46.4451,41.42595,382.049],[46.39828,41.45871,271.0678],[46.37792,41.46248,271.8598],[46.36624,41.46657,262.1398],[46.31395,41.49375,201.9473],[46.29674,41.51039,200.412],[46.28785,41.53214,197.799],[46.27987,41.57117,195.1031],[46.27839,41.57839,195.3121],[46.25617,41.61033,194.8698],[46.2539,41.61591,202.0065],[46.24005,41.6155,200.5709],[46.23344,41.60795,203.3502],[46.22847,41.59873,197.5177],[46.21969,41.5933,198.3714],[46.19277,41.61017,199.7384],[46.18,41.65516,202.1193],[46.17954,41.70588,207.0769],[46.18899,41.74014,230.57],[46.20832,41.75551,249.2104],[46.23013,41.75732,248.9302],[46.27695,41.74931,259.1654],[46.29777,41.75081,264.3666],[46.31374,41.75665,277.309],[46.32831,41.76642,289.2007],[46.37131,41.80569,1075.3339],[46.39275,41.83169,1334.4266],[46.43089,41.89044,2816.5537],[46.40655,41.91504,3012.1843],[46.38206,41.92525,2875.5781],[46.32263,41.92902,2761.4126],[46.29416,41.93863,2494.8584],[46.25049,41.97772,2817.2671],[46.22434,41.99348,2439.2705],[46.21457,41.9955,2150.6418],[46.20615,41.99609,2168.061],[46.19768,41.9955,2474.699],[46.1892,41.99377,2444.4922],[46.18889,41.99364,2303.2327],[46.18858,41.99354,2303.2327],[46.12988,41.98449,1658.8372],[46.09918,41.98506,2169.5454],[46.075,41.99348,1459.2574],[46.06828,42.01532,1608.4434],[46.05846,42.02033,1997.2612],[46.04482,42.01772,2125.0696],[46.02673,42.01679,1938.5118],[46.01836,42.02005,2317.3315],[46.00162,42.03098,2130.6343],[45.99516,42.03346,2074.166],[45.98673,42.03191,1934.12],[45.9735,42.02415,2344.4976],[45.96637,42.02206,2227.7153],[45.94756,42.02291,2493.4382],[45.93413,42.0285,2270.636],[45.92348,42.03963,2165.8562],[45.89516,42.09188,2396.8413],[45.88136,42.10203,2614.439],[45.8116,42.11549,2609.4055],[45.70179,42.17275,3047.1973],[45.66158,42.1867,2906.1643],[45.63141,42.20117,3019.5618],[45.62138,42.22448,2488.5305],[45.73641,42.44754,3122.8447],[45.73951,42.47065,3707.239],[45.73962,42.47147,3707.239],[45.69869,42.50759,3685.4993],[45.62066,42.53038,3060.0991],[45.53684,42.54136,3615.385],[45.47927,42.54234,2730.7339],[45.39855,42.52438,2707.4502],[45.35597,42.51996,3241.3203]]]}}