{"type": "Feature","bbox": [45.0213,41.0385,46.7214,42.5616],"geometry": {"type": "MultiPolygon","coordinates": [[[[45.7671,41.2422,764.9714],[45.7875,41.2302,658.5132],[45.806,41.2249,770.2044],[45.8208,41.2227,657.4218],[45.8448,41.2234,540.6542],[45.8568,41.221,559.3493],[45.897,41.2057,660.6127],[45.9181,41.1914,632.8015],[45.9439,41.1804,598.0282],[45.9763,41.1788,516.0927],[46.0053,41.1833,338.853],[46.0276,41.1815,283.4299],[46.0534,41.1826,325.532],[46.0819,41.1763,344.9064],[46.0955,41.1821,390.6929],[46.1026,41.2015,215.0113],[46.1212,41.2053,200.2044],[46.1398,41.1901,288.2659],[46.1525,41.1831,441.6837],[46.1887,41.185,323.6605],[46.2249,41.1771,270.0685],[46.2372,41.1751,158.2898],[46.2454,41.1758,140.1152],[46.262,41.1569,126.7721],[46.2735,41.1399,127.2059],[46.3136,41.126,109.427],[46.3182,41.1213,107.5367],[46.3404,41.1119,106.2171],[46.3459,41.1035,103.6143],[46.363,41.0995,99.9476],[46.3682,41.0962,100.5455],[46.3732,41.0873,101.887],[46.3773,41.086,95.8802],[46.3884,41.0884,94.4676],[46.4025,41.0864,94.3619],[46.407,41.091,94.3073],[46.414,41.0913,91.9329],[46.4202,41.0842,87.5],[46.4222,41.0764,94.9764],[46.4303,41.0653,88.3096],[46.4666,41.0385,86.4248],[46.5335,41.0503,75.5],[46.5684,41.0617,75.5],[46.6118,41.0651,75.5],[46.6239,41.0567,83.1668],[46.6272,41.0619,82.4722],[46.6261,41.0657,82.6886],[46.6389,41.0788,84.5257],[46.6461,41.0945,96.4792],[46.6382,41.1075,135.4051],[46.6428,41.1121,96.9845],[46.6435,41.1193,136.48],[46.6506,41.1277,118.4507],[46.6487,41.1577,118.9132],[46.6519,41.1655,128.1334],[46.6585,41.1682,112.22],[46.6585,41.1799,164.7871],[46.6622,41.1824,134.5375],[46.6535,41.1949,169.8777],[46.6514,41.2048,324.28],[46.6689,41.2228,143.8295],[46.6727,41.2302,230.8901],[46.6902,41.2435,218.5323],[46.6911,41.2639,286.0198],[46.7069,41.2792,209.6543],[46.7166,41.283,165.8684],[46.7214,41.2869,161.1735],[46.721,41.2913,161.191],[46.7156,41.2967,164.5778],[46.6894,41.299,200.5071],[46.6916,41.3031,183.9837],[46.6903,41.3062,173.7062],[46.6837,41.311,192.6517],[46.6797,41.3163,206.4547],[46.682,41.3224,186.591],[46.6781,41.3303,180.6427],[46.6816,41.3328,172.0195],[46.6804,41.3354,174.4518],[46.6756,41.3365,171.8926],[46.6652,41.3341,203.5096],[46.6584,41.3353,217.3838],[46.6588,41.3467,180.9815],[46.6561,41.3483,168.2765],[46.6506,41.3473,190.5694],[46.6479,41.3484,193.8159],[46.6514,41.3525,178.0475],[46.6517,41.3618,167.1717],[46.6492,41.3675,168.3037],[46.6444,41.3687,176.7383],[46.6421,41.3615,177.2324],[46.6427,41.3573,170.671],[46.6377,41.3517,200.9874],[46.6323,41.356,199.0791],[46.62,41.3572,205.6447],[46.6236,41.3628,186.6618],[46.6333,41.3647,169.6375],[46.6384,41.3729,178.1983],[46.6351,41.3776,193.2205],[46.6297,41.3798,174.2326],[46.626,41.3726,175.988],[46.6213,41.3737,168.7949],[46.6166,41.38,175.5333],[46.6124,41.3775,175.4322],[46.607,41.3776,169.7172],[46.6064,41.3818,169.7178],[46.6094,41.3895,177.7812],[46.6061,41.3927,168.6328],[46.6026,41.3927,178.8183],[46.599,41.3861,174.3033],[46.5949,41.3882,171.2111],[46.5937,41.3908,177.6793],[46.5637,41.3981,175.7451],[46.5612,41.4028,176.1339],[46.4888,41.4235,174.2646],[46.462,41.4381,177.9681],[46.4538,41.4496,176.1113],[46.4448,41.4565,182.2875],[46.4386,41.459,176.9685],[46.4161,41.4599,205.2768],[46.4134,41.4614,212.6337],[46.4115,41.4747,183.4993],[46.3519,41.4926,187.4602],[46.3422,41.4989,187.019],[46.3379,41.5048,184.4126],[46.3406,41.5191,184.3365],[46.3383,41.5279,189.9124],[46.3109,41.5561,188.2569],[46.3039,41.5673,196.3881],[46.3015,41.5781,187.3005],[46.3059,41.5866,193.1452],[46.3026,41.5918,195.2972],[46.2981,41.5983,191.1685],[46.2686,41.6079,193.8199],[46.2744,41.6228,201.0516],[46.2584,41.6332,195.2073],[46.251,41.6444,197.3601],[46.2478,41.6548,200.6265],[46.2509,41.6676,205.2182],[46.2733,41.7104,219.213],[46.2716,41.7185,224.2986],[46.2883,41.7446,252.7106],[46.2907,41.7565,274.4489],[46.2881,41.7731,320.4207],[46.2903,41.7804,328.9631],[46.2959,41.7862,350.1792],[46.3394,41.8155,643.7028],[46.3612,41.8266,769.7489],[46.3768,41.8325,961.4951],[46.3932,41.845,1270.0221],[46.399,41.851,1277.5505],[46.4098,41.8674,1573.0034],[46.4147,41.8796,1741.7979],[46.4182,41.9075,2865.8489],[46.3913,41.9198,3008.9585],[46.3885,41.9249,2932.6147],[46.385,41.9385,2931.2485],[46.3862,41.9481,3101.0737],[46.3842,41.9576,3190.0752],[46.3822,41.9599,3115.3071],[46.3776,41.9601,2978.9507],[46.3732,41.9579,2713.9888],[46.3634,41.9474,2938.1528],[46.3587,41.9451,2890.6611],[46.353,41.9475,2697.3745],[46.3463,41.9548,2950.6204],[46.3415,41.9566,2949.0515],[46.336,41.9563,2825.1494],[46.3324,41.9523,2730.5889],[46.3292,41.9391,2903.9966],[46.3251,41.9365,2824.9421],[46.3092,41.9374,2689.6819],[46.3098,41.9441,2622.2559],[46.3082,41.9471,2613.0908],[46.3043,41.95,2652.2969],[46.2955,41.9518,2800.0798],[46.2896,41.9603,2911.5911],[46.2591,41.9813,2752.8247],[46.2492,41.9913,2935.4294],[46.2456,41.9987,2869.302],[46.2412,42.0023,2778.3555],[46.2358,42.0033,2639.8677],[46.2262,42.0018,2439.7156],[46.2031,41.9903,1991.5236],[46.1916,41.9879,2152.4138],[46.1766,41.9875,2181.293],[46.1653,41.9889,2569.4951],[46.1332,42.0148,2356.3918],[46.1224,42.0188,2236.4812],[46.1183,42.0176,2123.1411],[46.1137,42.0122,2252.4243],[46.1113,41.996,2454.3079],[46.109,41.9926,2350.7229],[46.1034,41.9914,2230.1238],[46.0923,41.9961,2094.3188],[46.0823,42.0044,2003.866],[46.0751,42.0188,1850.3347],[46.0728,42.0349,2274.4624],[46.0675,42.0387,2420.1831],[46.0599,42.0408,2226.9993],[46.0422,42.0255,2152.5022],[46.0304,42.0226,2366.0205],[46.0256,42.0241,2537.6458],[46.0219,42.0366,2643.5801],[46.0191,42.0408,2657.9419],[46.0148,42.042,2577.9551],[46.0049,42.0403,2364.4429],[45.9974,42.0368,2217.6045],[45.9785,42.0412,2527.168],[45.972,42.0405,2426.3755],[45.9467,42.0254,2527.1499],[45.94,42.0265,2211.6353],[45.931,42.0308,2638.9683],[45.9269,42.0339,2577.0293],[45.9244,42.045,2105.0688],[45.9129,42.0551,1946.3566],[45.9089,42.0621,2483.1499],[45.9065,42.0881,2556.1323],[45.8841,42.1024,2687.8481],[45.8724,42.1073,2786.6514],[45.8502,42.1132,2895.4316],[45.8373,42.1137,2572.1978],[45.8184,42.1103,2564.8782],[45.8089,42.1113,2629.7656],[45.7948,42.1183,2711.2866],[45.7838,42.1197,2351.9026],[45.7687,42.1258,2646.5391],[45.7572,42.1364,2404.1768],[45.7448,42.1409,2779.5303],[45.7404,42.1511,2697.3455],[45.7278,42.1592,2507.8447],[45.6652,42.1894,2868.4883],[45.6423,42.1947,2878.0332],[45.6251,42.2084,3001.9783],[45.6126,42.2115,3004.8555],[45.6084,42.2146,2972.2693],[45.6061,42.219,2956.8716],[45.6236,42.2518,3221.9536],[45.6374,42.2846,2701.6704],[45.6407,42.2894,2728.1328],[45.6466,42.2908,3024.7185],[45.6543,42.2902,3054.8567],[45.666,42.2835,2991.1306],[45.6728,42.2833,3058.0503],[45.6835,42.2872,2922.2666],[45.6958,42.2871,2937.7446],[45.7136,42.2905,2694.7407],[45.7348,42.2973,2877.9895],[45.7451,42.3053,2934.4607],[45.7435,42.3164,2813.5642],[45.7244,42.331,2896.5762],[45.7306,42.3442,2433.5964],[45.731,42.3531,2248.7134],[45.7263,42.3722,1583.4822],[45.7313,42.3858,1660.5442],[45.7662,42.4267,2951.0969],[45.7729,42.4363,3157.3926],[45.7751,42.4562,3489.9966],[45.7679,42.4743,3403.4956],[45.7608,42.4811,3368.4443],[45.7514,42.4859,3575.5393],[45.7087,42.4851,3342.9746],[45.6601,42.5067,3635.301],[45.6299,42.5159,3251.6697],[45.602,42.5278,3835.7715],[45.5774,42.5458,3654.4048],[45.5698,42.5485,3879.1396],[45.5568,42.5502,3294.5215],[45.5398,42.5499,3341.2786],[45.5131,42.5416,3531.0845],[45.4877,42.5406,2766.5139],[45.431399999999996,42.5435,3012.2017],[45.4063,42.5422,3256.7244],[45.35,42.529,3231.8938],[45.3401,42.5299,3391.345],[45.3316,42.5326,3648.896],[45.3225,42.5383,3250.2517],[45.3117,42.5477,3383.7456],[45.3032,42.5616,3748.3291],[45.2945,42.5519,3682.1409],[45.2822,42.5418,3874.1328],[45.2736,42.5291,3498.8818],[45.2657,42.5214,3571.0862],[45.2492,42.4971,2678.1648],[45.2492,42.4915,2931.3262],[45.2591,42.4704,3190.1653],[45.2586,42.4327,2378.3391],[45.2553,42.4291,2536.7283],[45.2458,42.4251,2854.3379],[45.2298,42.4143,2948.5566],[45.2168,42.4084,2968.2612],[45.2116,42.4029,2527.4978],[45.2114,42.3749,2639.573],[45.2264,42.3504,2557.9773],[45.2284,42.3416,2140.2793],[45.2324,42.3333,2443.1702],[45.231,42.325,2722.5361],[45.2202,42.3094,2551.3979],[45.2158,42.3067,2314.5752],[45.1986,42.3026,1780.7168],[45.1846,42.3012,1627.9043],[45.1658,42.2959,2033.6628],[45.1488,42.2766,1684.735],[45.1162,42.2519,1760.2821],[45.1144,42.2462,1803.4521],[45.1138,42.2172,1540.0585],[45.1105,42.213,1582.8618],[45.0888,42.1961,1770.0797],[45.0832,42.1834,1482.0834],[45.0814,42.1742,1652.8541],[45.0775,42.1668,1779.8423],[45.0768,42.1456,1394.576],[45.0722,42.1354,1524.48],[45.0709,42.1192,1228.9456],[45.0676,42.1151,1105.0173],[45.0533,42.1046,1176.4908],[45.051,42.1003,1170.1592],[45.0693,42.0716,1022.1916],[45.0584,42.0535,892.2678],[45.0579,42.0505,897.2828],[45.076,42.0351,768.6354],[45.0921,42.0069,1441.6501],[45.0907,42.0025,1454.0631],[45.0794,41.9934,1549.7236],[45.0666,41.9783,1589.3009],[45.0664,41.9678,1426.0521],[45.0726,41.9509,1358.2234],[45.0881,41.9459,1461.9027],[45.102,41.9443,1519.7994],[45.1108,41.9416,1478.7947],[45.1276,41.9405,1317.0138],[45.1401,41.9372,1144.0067],[45.1598,41.9365,1379.652],[45.1795,41.9316,1432.6075],[45.2032,41.9145,1516.4569],[45.2129,41.8984,1509.4844],[45.1965,41.8969,1367.2102],[45.1866,41.894,1329.1597],[45.1697,41.8931,1071.3314],[45.1481,41.8866,1149.3953],[45.1256,41.8907,1004.1738],[45.1148,41.8945,1113.057],[45.0894,41.912,1075.1047],[45.0731,41.917,1315.2118],[45.0657,41.9136,1268.6377],[45.0213,41.8811,1274.2349],[45.0348,41.8773,1377.5906],[45.0586,41.864,1249.7933],[45.0656,41.8536,1585.5222],[45.0662,41.8375,1476.0996],[45.0853,41.8246,1329.0397],[45.1001,41.8031,1026.6243],[45.1116,41.7904,1015.6653],[45.1234,41.7804,913.3142],[45.1343,41.7658,817.3604],[45.1425,41.7642,804.3048],[45.1563,41.7677,815.9477],[45.1783,41.7681,755.3445],[45.1858,41.7675,878.4294],[45.1891,41.7652,903.1378],[45.196,41.7485,777.9584],[45.2102,41.7272,726.5681],[45.2114,41.7032,663.1979],[45.2313,41.6527,806.1199],[45.2307,41.6492,837.2746],[45.2254,41.6415,865.884],[45.2133,41.6315,825.1754],[45.2068,41.6236,728.4628],[45.1925,41.6129,651.466],[45.1896,41.6077,615.5651],[45.1903,41.6031,583.6508],[45.2045,41.5829,501.9416],[45.2052,41.5783,488.0567],[45.2004,41.5683,459.3591],[45.2005,41.5617,444.4756],[45.2123,41.5435,447.3891],[45.2192,41.5401,456.662],[45.2347,41.5393,506.0355],[45.2474,41.5361,526.3271],[45.2735,41.5352,649.5172],[45.2959,41.5283,712.7786],[45.3153,41.5135,819.8495],[45.3158,41.5111,830.2449],[45.3086,41.5001,715.9999],[45.3085,41.4965,678.9198],[45.3272,41.4692,737.3848],[45.33,41.4614,660.5121],[45.3451,41.4494,571.5055],[45.3919,41.4257,614.8732],[45.4071,41.4261,536.7573],[45.413,41.4289,557.3562],[45.4369,41.4492,630.0814],[45.4573,41.4476,587.1087],[45.4644,41.4447,593.8804],[45.4868,41.4256,617.153],[45.4957,41.4215,610.8118],[45.5482,41.4103,672.7723],[45.5616,41.4057,711.4799],[45.5664,41.3974,642.1071],[45.5698,41.3825,689.559],[45.5807,41.3745,619.7007],[45.5891,41.3717,501.1823],[45.5974,41.3696,512.444],[45.6155,41.3735,564.5103],[45.6332,41.3747,583.5113],[45.6444,41.3726,570.5311],[45.6712,41.3605,579.9449],[45.6885,41.3573,587.484],[45.7095,41.3671,479.8106],[45.7152,41.3668,459.6976],[45.7366,41.3501,426.7269],[45.738,41.347,432.668],[45.7357,41.3444,407.6875],[45.7305,41.3431,401.6705],[45.7151,41.3427,427.3395],[45.7055,41.3404,412.8433],[45.6951,41.3324,388.8112],[45.685,41.3185,634.5195],[45.6796,41.3176,573.3043],[45.6767,41.3133,701.0124],[45.6765,41.3099,738.0314],[45.7172,41.2648,643.9549],[45.7454,41.2503,722.2521],[45.7671,41.2422,764.9714]]]]}
,"properties": {"GID_1": "GEO.5_1","GID_0": "GEO","country": "Georgia","province": "Kakheti","VARNAME_1": "Telavi","NL_NAME_1": "NA","TYPE_1": "Region","ENGTYPE_1": "Region","CC_1": "NA","HASC_1": "GE.KA","ISO_1": "NA","name": "Kakheti.province","area_km2": 11514.934,"hist_schema_id": "Elevation0-9000","hist_area_km2": {"75": 27.897,"100": 79.462,"125": 55.767,"150": 46.283,"175": 73.746,"200": 441.278,"225": 468.231,"250": 298.425,"275": 260.115,"300": 245.5,"325": 236.62,"350": 254.581,"375": 276.886,"400": 276.29,"425": 304.45,"450": 323.912,"475": 306.093,"500": 312.126,"525": 319.646,"550": 353.53,"575": 390.127,"600": 320.983,"625": 291.195,"650": 269.014,"675": 243.666,"700": 218.316,"725": 207.543,"750": 197.574,"775": 195.988,"800": 179.678,"825": 153.954,"850": 133.921,"875": 114.912,"900": 102.923,"925": 88.005,"950": 86.585,"975": 77.099,"1000": 74.227,"1025": 69.563,"1050": 69.27,"1075": 65.462,"1100": 65.14,"1125": 65.063,"1150": 66.924,"1175": 65.533,"1200": 63.633,"1225": 62.239,"1250": 59.339,"1275": 59.508,"1300": 56.041,"1325": 53.246,"1350": 52.868,"1375": 52.929,"1400": 52.224,"1425": 49.837,"1450": 48.231,"1475": 47.349,"1500": 44.589,"1525": 42.175,"1550": 38.705,"1575": 36.685,"1600": 35.12,"1625": 33.22,"1650": 31.708,"1675": 31.626,"1700": 28.71,"1725": 28.356,"1750": 27.737,"1775": 28.015,"1800": 26.861,"1825": 27.402,"1850": 27.769,"1875": 26.306,"1900": 25.845,"1925": 26.154,"1950": 28.192,"1975": 27.624,"2000": 27.417,"2025": 27.901,"2050": 28.758,"2075": 28.916,"2100": 29.555,"2125": 31.312,"2150": 31.056,"2175": 29.685,"2200": 31.254,"2225": 32.333,"2250": 32.414,"2275": 31.387,"2300": 32.625,"2325": 32.763,"2350": 33.0,"2375": 32.922,"2400": 33.023,"2425": 32.319,"2450": 31.483,"2475": 32.722,"2500": 31.42,"2525": 31.448,"2550": 32.808,"2575": 30.881,"2600": 31.504,"2625": 31.317,"2650": 31.965,"2675": 32.168,"2700": 31.417,"2725": 32.295,"2750": 31.73,"2775": 32.014,"2800": 31.217,"2825": 32.172,"2850": 29.724,"2875": 28.45,"2900": 26.769,"2925": 24.555,"2950": 22.514,"2975": 19.721,"3000": 18.418,"3025": 16.394,"3050": 15.404,"3075": 13.257,"3100": 12.457,"3125": 12.033,"3150": 11.234,"3175": 10.732,"3200": 10.34,"3225": 9.652,"3250": 9.994,"3275": 8.367,"3300": 8.788,"3325": 8.131,"3350": 7.365,"3375": 7.098,"3400": 6.082,"3425": 5.503,"3450": 5.221,"3475": 4.924,"3500": 4.877,"3525": 4.314,"3550": 4.095,"3575": 3.408,"3600": 3.736,"3625": 3.235,"3650": 2.423,"3675": 2.063,"3700": 1.875,"3725": 1.969,"3750": 1.563,"3775": 1.375,"3800": 1.172,"3825": 1.157,"3850": 0.922,"3875": 0.797,"3900": 0.453,"3925": 0.516,"3950": 0.328,"3975": 0.219,"4000": 0.109,"4025": 0.109}}}