{"type":"Feature","properties":{"GID_2":"GEO.1.1_1","GID_0":"GEO","country":"Georgia","GID_1":"GEO.1_1","province":"Abkhazia","NL_NAME_1":"NA","county":"Gagra","VARNAME_2":"NA","NL_NAME_2":"NA","TYPE_2":"Raioni","ENGTYPE_2":"District","CC_2":"NA","HASC_2":"GE.AB.GG","name":"Gagra.county"},
"geometry":{"type": "MultiPolygon","coordinates": [[[[40.4255,43.1604,8.0897],[40.4191,43.1775,88.7107],[40.4091,43.1919,160.9537],[40.4099,43.1971,164.9087],[40.4207,43.2205,81.5841],[40.4347,43.2417,424.073],[40.4345,43.2457,608.022],[40.4257,43.2671,1227.9597],[40.4261,43.2719,1324.8706],[40.4409,43.2947,1510.1514],[40.4415,43.3205,716.0678],[40.4453,43.3283,1081.9713],[40.4477,43.3389,1149.5232],[40.4537,43.3479,1472.7224],[40.4755,43.3647,386.1424],[40.4885,43.3789,1067.5244],[40.4937,43.3867,1402.291],[40.4963,43.3977,1435.7627],[40.4999,43.4051,1538.5835],[40.4905,43.4309,852.5719],[40.4885,43.4485,1774.1567],[40.4845,43.4565,1884.8004],[40.4841,43.4687,1943.5918],[40.4825,43.4733,1793.5891],[40.4753,43.4791,1519.6499],[40.4651,43.4837,1332.7902],[40.4623,43.4915,1298.7092],[40.4641,43.4951,1584.8773],[40.4715,43.4969,1776.4108],[40.4837,43.4957,2002.2461],[40.4937,43.4925,1567.0281],[40.5031,43.4931,1689.6339],[40.5057,43.4965,1667.4429],[40.5071,43.5294,2700.9241],[40.5008,43.5313,2860.5942],[40.4922,43.5401,3001.7312],[40.4826,43.5445,2957.873],[40.4624,43.5464,2519.6035],[40.4431,43.5554,2854.7285],[40.424,43.5457,2078.3442],[40.4146,43.5455,2175.929],[40.3747,43.549,1466.8442],[40.3556,43.5555,1437.0618],[40.3353,43.5527,1674.4371],[40.3132,43.5671,1315.3145],[40.3063,43.5693,1055.5256],[40.2927,43.5677,891.7515],[40.2821,43.5747,814.46],[40.2631,43.5829,686.1271],[40.2485,43.5845,623.4847],[40.2362,43.5838,588.2448],[40.2267,43.5813,600.5066],[40.2121,43.575,501.7625],[40.1925,43.5747,477.4171],[40.1827,43.5775,702.216],[40.176,43.5775,512.7967],[40.1616,43.5751,427.1974],[40.1346,43.5667,362.5544],[40.1246,43.5655,337.3853],[40.1067,43.5685,339.0037],[40.1019,43.5677,275.8378],[40.0969,43.5633,319.0215],[40.0935,43.5569,344.051],[40.0933,43.5495,262.8833],[40.0985,43.5391,421.6915],[40.0989,43.5347,403.0342],[40.0955,43.5289,168.7587],[40.0677,43.5087,150.4307],[40.0645,43.5035,97.9416],[40.0635,43.4977,147.3356],[40.0461,43.4817,100.2851],[40.0389,43.4565,122.0285],[40.0169,43.4279,24.3487],[40.0147,43.4225,20.5812],[40.0159,43.4147,15.5784],[40.0111,43.3987,5.985],[40.012,43.3849,0.0],[40.0282,43.3832,0.0],[40.0513,43.3776,0.2414],[40.0735,43.3785,0.0],[40.0804,43.3771,2.9765],[40.0996,43.3688,6.6388],[40.1162,43.3587,0.0],[40.1263,43.359,24.701],[40.1324,43.3568,7.3411],[40.1482,43.3462,9.8195],[40.1615,43.3404,0.0],[40.1896,43.3332,1.3968],[40.206,43.3312,25.0512],[40.224,43.3226,0.0],[40.2374,43.3207,6.6607],[40.2449,43.316,10.3525],[40.2529,43.3054,2.7612],[40.2565,43.2976,0.0],[40.2671,43.2646,1.3378],[40.2743,43.2032,0.0],[40.2779,43.1893,0.5308],[40.2938,43.1757,1.1503],[40.3007,43.1724,0.5503],[40.3074,43.1724,0.9209],[40.3107,43.1704,0.0],[40.3207,43.1601,1.2345],[40.3321,43.154,11.8281],[40.3401,43.1468,0.0],[40.346,43.1465,0.6138],[40.3479,43.1504,0.0],[40.3465,43.1526,2.0801],[40.3665,43.1682,3.8287],[40.3757,43.1721,8.6435],[40.3879,43.1743,3.2973],[40.4018,43.1726,40.5457],[40.411,43.1679,21.0464],[40.4193,43.1604,0.0],[40.4255,43.1604,8.0897]]]]}}