{"type":"Feature","properties":{"GID_2":"GEO.4.6_1","GID_0":"GEO","country":"Georgia","GID_1":"GEO.4_1","province":"Imereti","NL_NAME_1":"NA","county":"Sachkhere","VARNAME_2":"NA","NL_NAME_2":"NA","TYPE_2":"Raioni","ENGTYPE_2":"District","CC_2":"NA","HASC_2":"GE.IM.SC","name":"Sachkhere.county"},
"geometry":{"type": "MultiPolygon","coordinates": [[[[43.424,42.1253,531.7744],[43.4499,42.0884,904.5056],[43.4803,42.0764,927.4901],[43.4906,42.0657,1066.4451],[43.5331,42.0819,1115.7725],[43.5404,42.0864,1068.6228],[43.5466,42.0941,1189.5887],[43.5587,42.1042,1167.4316],[43.5641,42.112,1042.7271],[43.5701,42.1255,1009.9012],[43.5721,42.1357,1010.6],[43.5825,42.1553,1130.0425],[43.5875,42.1589,1152.7053],[43.6079,42.1663,1065.9265],[43.6091,42.177,1040.2114],[43.6137,42.1871,895.0051],[43.6139,42.2083,1201.434],[43.6131,42.2132,1179.5229],[43.6042,42.2305,1225.5991],[43.6035,42.235,1204.7267],[43.6095,42.2495,1179.2114],[43.6142,42.2565,1076.9363],[43.6197,42.2609,1155.4019],[43.6404,42.2691,1280.0151],[43.6489,42.2758,1172.3176],[43.6564,42.2848,1415.7163],[43.6667,42.2915,1705.5576],[43.7032,42.2932,1320.6836],[43.7269,42.3034,1328.1351],[43.7602,42.3091,1388.7236],[43.7539,42.3211,1489.432],[43.7532,42.3277,1458.7465],[43.7547,42.3322,1524.2048],[43.7627,42.3438,1579.6567],[43.7742,42.369,1453.5116],[43.7737,42.3746,1671.0201],[43.7686,42.3825,1622.0553],[43.7626,42.3896,1758.4646],[43.754,42.3935,1770.1261],[43.7322,42.3946,2023.2739],[43.7161,42.3901,1829.5781],[43.6992,42.3798,1185.812],[43.6766,42.3718,932.9464],[43.6703,42.3717,894.3979],[43.6591,42.3749,920.0312],[43.6343,42.3756,1018.6517],[43.6078,42.3807,865.6267],[43.5875,42.3948,1580.4406],[43.5739,42.3957,1724.0143],[43.5501,42.4002,1833.2117],[43.4968,42.4191,1398.326],[43.487,42.4187,1244.0085],[43.4338,42.4076,948.4377],[43.3959,42.4124,931.7256],[43.3653,42.4197,1237.1776],[43.3143,42.4198,1186.4463],[43.2882,42.4155,1259.5647],[43.2622,42.4165,1250.7664],[43.2514,42.4147,1403.2482],[43.2495,42.4107,1207.0513],[43.2537,42.4042,1022.5665],[43.2556,42.3939,874.5257],[43.2612,42.3812,1016.4845],[43.2686,42.3709,907.4293],[43.2766,42.3658,712.4713],[43.3156,42.3515,599.202],[43.323,42.3459,589.6696],[43.3283,42.3379,574.0819],[43.3307,42.3269,551.8459],[43.3349,42.3185,518.3602],[43.3363,42.2906,636.1218],[43.3491,42.2763,676.1069],[43.365,42.2639,737.025],[43.3755,42.2516,755.9624],[43.3724,42.244,722.6417],[43.3629,42.2309,721.2161],[43.3628,42.2236,761.0775],[43.3695,42.2159,763.6953],[43.3925,42.2064,809.4063],[43.4012,42.1795,907.8759],[43.4252,42.1599,1000.1106],[43.4263,42.1349,754.665],[43.424,42.1253,531.7744]]]]}}