{"type":"Feature","properties":{"GID_2":"GEO.11.3_1","GID_0":"GEO","country":"Georgia","GID_1":"GEO.11_1","province":"ShidaKartli","NL_NAME_1":"NA","county":"Kareli","VARNAME_2":"NA","NL_NAME_2":"NA","TYPE_2":"Raioni","ENGTYPE_2":"District","CC_2":"NA","HASC_2":"GE.SD.KR","name":"Kareli.county"},
"geometry":{"type": "MultiPolygon","coordinates": [[[[43.6079,42.1663,1065.9265],[43.6596,42.1299,1007.8235],[43.6911,42.1176,819.9439],[43.7203,42.0841,805.3829],[43.7248,42.0771,816.1006],[43.7254,42.0736,762.3922],[43.7167,42.0605,769.6016],[43.7161,42.055,727.9645],[43.72,42.0477,703.1462],[43.7222,42.0376,664.2979],[43.7362,42.0084,660.2754],[43.738,41.9991,676.4317],[43.7469,41.9769,852.3804],[43.7487,41.9638,988.4979],[43.7532,41.9545,815.1638],[43.7522,41.947,956.0743],[43.7464,41.9418,1141.9252],[43.7353,41.937,987.7959],[43.7217,41.9285,1133.6354],[43.6947,41.9189,1211.1604],[43.69,41.9151,1249.155],[43.6878,41.9051,1462.8767],[43.6841,41.8976,1317.9326],[43.6827,41.8855,1584.8726],[43.6637,41.8572,2004.521],[43.6614,41.8434,2063.4531],[43.657,41.8338,1774.6384],[43.6572,41.808,1677.5393],[43.6622,41.7937,1773.282],[43.6647,41.7908,1702.7607],[43.6871,41.7893,1773.7212],[43.6992,41.7852,1739.7263],[43.7233,41.7685,1648.9216],[43.7294,41.7664,1730.7638],[43.7609,41.7663,1753.9705],[43.7823,41.7738,1840.6592],[43.7951,41.7897,2180.6743],[43.8002,41.7976,2186.3254],[43.803,41.8055,2103.8132],[43.8131,41.8205,1643.6377],[43.8252,41.8337,1723.7194],[43.8372,41.8438,1542.8694],[43.8459,41.8565,1617.9346],[43.8572,41.8688,1695.6653],[43.8633,41.8714,1652.4374],[43.9069,41.8759,1332.3872],[43.9145,41.8796,1550.6774],[43.9288,41.8953,1485.3695],[43.9309,41.9094,1613.8538],[43.9377,41.9274,1436.4033],[43.979,41.9428,1044.0916],[43.988,41.9475,1006.7775],[43.9892,41.9548,923.5648],[43.9887,41.9749,845.5292],[43.9905,41.9801,715.0796],[44.0001,41.9843,627.6284],[44.0141,41.9855,636.8923],[44.0293,41.9895,606.7147],[44.0359,41.9998,596.9318],[44.0364,42.0033,608.7959],[44.0333,42.0069,672.7561],[44.012,42.0153,730.7604],[44.0045,42.0208,712.5139],[43.9918,42.0338,745.0144],[43.9591,42.047,747.9993],[43.9424,42.0712,691.8004],[43.9343,42.091,708.5687],[43.9246,42.1048,734.5435],[43.9043,42.1129,744.1511],[43.9023,42.1255,766.4024],[43.8982,42.1338,780.7921],[43.8974,42.1522,810.679],[43.8913,42.1658,818.2805],[43.8794,42.1792,778.7217],[43.8674,42.1893,815.0908],[43.8612,42.1979,854.4028],[43.8555,42.2077,848.8867],[43.8539,42.2288,965.7497],[43.8353,42.2484,1028.6379],[43.8218,42.2682,961.7428],[43.8137,42.2759,1031.0531],[43.8093,42.2828,1127.8237],[43.8097,42.2859,1196.6497],[43.8198,42.2973,1346.4933],[43.8348,42.3082,1580.2905],[43.829,42.3108,1567.5374],[43.8122,42.3155,1311.5771],[43.7717,42.3085,1177.1995],[43.7602,42.3091,1388.7236],[43.7269,42.3034,1328.1351],[43.7032,42.2932,1320.6836],[43.6732,42.2928,1641.4744],[43.6622,42.2892,1557.8284],[43.6404,42.2691,1280.0151],[43.6154,42.258,1095.9619],[43.6042,42.2378,1110.6523],[43.6042,42.2305,1225.5991],[43.6131,42.2132,1179.5229],[43.6139,42.2083,1201.434],[43.6137,42.1871,895.0051],[43.6091,42.177,1040.2114],[43.6079,42.1663,1065.9265]]]]}}