{"type": "Feature","bbox": [42.4775,41.5725,42.9446,41.8337],"geometry": {"type": "MultiPolygon","coordinates": [[[[42.5893,41.5725,2519.3188],[42.5969,41.5763,2453.3008],[42.6023,41.5838,2453.9631],[42.6073,41.5859,2319.9194],[42.6215,41.5843,2119.3188],[42.6779,41.5973,1999.1106],[42.7083,41.598,1886.9309],[42.74,41.5942,1723.0162],[42.7629,41.5844,1497.7146],[42.7726,41.5828,1394.8596],[42.7836,41.5782,1347.7911],[42.7933,41.5885,1588.7095],[42.8284,41.5879,1218.2504],[42.8228,41.5932,1226.9252],[42.8197,41.6037,1328.8495],[42.8157,41.6111,1374.5583],[42.8151,41.6197,1231.6787],[42.8167,41.6251,1213.7657],[42.8271,41.6401,1036.2452],[42.8349,41.6477,1043.598],[42.8459,41.6621,1217.5078],[42.8639,41.6668,1250.6047],[42.8845,41.6683,1183.3467],[42.8999,41.6733,1281.2207],[42.9003,41.6783,1345.1385],[42.8961,41.6865,1385.9401],[42.8955,41.6961,1405.9126],[42.8963,41.7045,1458.1729],[42.9009,41.7151,1508.2993],[42.9009,41.7435,1688.7465],[42.9001,41.7487,1786.6285],[42.8959,41.7562,1846.6454],[42.8957,41.7621,2034.4165],[42.8993,41.7655,1943.5977],[42.9259,41.7701,1956.2739],[42.9316,41.7731,1982.6534],[42.9431,41.7865,2132.9377],[42.9446,41.8091,2155.7075],[42.9241,41.8093,2012.085],[42.8925,41.8204,2081.1135],[42.8519,41.8211,2008.5814],[42.8295,41.8283,2019.1487],[42.8051,41.8289,1935.7458],[42.7674,41.8167,2132.7437],[42.7451,41.8025,2201.4043],[42.7179,41.8019,2241.7578],[42.6957,41.8092,2242.8025],[42.6783,41.8097,2085.7561],[42.6755,41.8109,2149.0005],[42.6669,41.8203,2498.6533],[42.6497,41.8335,2656.3801],[42.6227,41.8337,2655.6165],[42.6149,41.8319,2455.7771],[42.6031,41.8235,2264.5542],[42.5967,41.8137,2133.1921],[42.594,41.8018,2377.7288],[42.5895,41.7963,2472.0664],[42.5865,41.7949,2449.1218],[42.5609,41.7911,2180.9475],[42.5549,41.7931,2024.311],[42.5426,41.8012,2107.9253],[42.5345,41.8027,2215.812],[42.5157,41.8027,2233.6458],[42.5013,41.7993,2137.144],[42.4817,41.7987,2078.9958],[42.4841,41.7914,1933.5284],[42.4979,41.771,1663.8514],[42.4991,41.764,1530.2048],[42.4984,41.7372,2090.7212],[42.4807,41.7225,2224.1826],[42.4779,41.7182,2384.3472],[42.4775,41.7086,2279.0969],[42.4836,41.6942,2037.0469],[42.4953,41.6767,2010.7578],[42.5081,41.6657,2308.2271],[42.5121,41.6603,2334.0371],[42.5319,41.6523,2286.0659],[42.5391,41.6475,2139.3105],[42.5497,41.6323,1791.1907],[42.5717,41.6153,1921.4547],[42.5753,41.6025,2128.7993],[42.5893,41.5725,2519.3188]]]]}
,"properties": {"GID_2": "GEO.10.1_1","GID_0": "GEO","country": "Georgia","GID_1": "GEO.10_1","province": "Samtskhe-Javakheti","NL_NAME_1": "NA","county": "Adigeni","VARNAME_2": "NA","NL_NAME_2": "NA","TYPE_2": "Raioni","ENGTYPE_2": "District","CC_2": "NA","HASC_2": "GE.SJ.AD","name": "Adigeni.county","area_km2": 766.8802,"hist_schema_id": "Elevation0-9000","hist_area_km2": {"1025": 0.2535,"1050": 3.3111,"1075": 4.7368,"1100": 5.9085,"1125": 7.0641,"1150": 9.2965,"1175": 9.7234,"1200": 10.1035,"1225": 10.4835,"1250": 11.1167,"1275": 12.0029,"1300": 13.0951,"1325": 13.7759,"1350": 15.0752,"1375": 15.3431,"1400": 14.8352,"1425": 14.5494,"1450": 15.6574,"1475": 15.4822,"1500": 16.7321,"1525": 16.8412,"1550": 17.5368,"1575": 17.1247,"1600": 17.3294,"1625": 17.3116,"1650": 17.7384,"1675": 17.121,"1700": 18.6077,"1725": 17.8637,"1750": 19.8759,"1775": 19.5269,"1800": 18.6401,"1825": 19.2242,"1850": 18.5584,"1875": 18.2888,"1900": 17.6403,"1925": 19.0161,"1950": 18.0199,"1975": 18.2595,"2000": 18.7207,"2025": 17.3603,"2050": 17.1074,"2075": 16.0643,"2100": 14.7671,"2125": 13.9107,"2150": 13.7371,"2175": 13.8956,"2200": 10.5868,"2225": 9.13,"2250": 8.4343,"2275": 8.3546,"2300": 8.4031,"2325": 8.5292,"2350": 6.0762,"2375": 4.6047,"2400": 3.0385,"2425": 2.5322,"2450": 2.089,"2475": 1.5511,"2500": 1.2184,"2525": 1.0598,"2550": 0.6479,"2575": 0.632,"2600": 0.4424,"2625": 0.3634,"2650": 0.1896,"2675": 0.1422,"2700": 0.1264,"2725": 0.0474,"2750": 0.0474}}}