{"type": "Feature","bbox": [42.5365,42.4351,43.0916,42.7319],"geometry": {"type": "MultiPolygon","coordinates": [[[[42.6321,42.4355,738.0204],[42.6529,42.4351,866.2709],[42.6959,42.4464,732.2375],[42.7012,42.4497,926.3253],[42.7103,42.4628,943.1829],[42.7165,42.4657,1028.0884],[42.7267,42.4655,765.846],[42.7367,42.4624,748.22],[42.7493,42.4611,434.9953],[42.7665,42.4509,500.1506],[42.7773,42.4497,776.0545],[42.8027,42.4549,654.4944],[42.8098,42.4737,905.3789],[42.8135,42.4767,919.998],[42.8193,42.4767,863.9091],[42.8381,42.4711,874.0951],[42.8369,42.4887,1234.655],[42.8412,42.4979,1351.395],[42.8431,42.5105,1220.7046],[42.8522,42.5151,1021.7271],[42.8631,42.5169,890.4216],[42.8748,42.5211,805.2054],[42.8941,42.5391,474.4592],[42.9,42.5477,643.3203],[42.9053,42.5595,997.0969],[42.9072,42.5737,1059.8311],[42.915,42.5883,1127.4214],[42.9526,42.6083,893.2481],[42.9585,42.6134,1111.7526],[42.9669,42.6261,1318.9095],[42.9712,42.629,1035.2495],[42.9819,42.6327,1259.373],[42.9982,42.6346,951.5195],[43.0916,42.6678,1531.6411],[43.081,42.681399999999996,1906.7981],[43.0614,42.6993,2281.5854],[43.0346,42.707,2081.6147],[43.0207,42.7085,1644.4897],[43.0034,42.7128,1550.2247],[42.9757,42.723,1960.6056],[42.9319,42.7319,1478.2666],[42.9027,42.7276,2005.2795],[42.8926,42.7238,1908.7983],[42.8734,42.6971,1842.2429],[42.8676,42.6918,1558.6902],[42.8192,42.6568,1005.1042],[42.8083,42.6521,1245.1531],[42.7946,42.6433,643.5247],[42.7749,42.6347,554.9737],[42.7593,42.634,476.9106],[42.7456,42.6306,504.5833],[42.7312,42.6311,591.2964],[42.6657,42.6552,1462.3765],[42.6391,42.669,1693.4038],[42.6209,42.6739,1848.0126],[42.6109,42.6731,2191.0486],[42.5973,42.6642,1699.3029],[42.5902,42.6625,1694.9021],[42.5811,42.663,1496.2482],[42.5755,42.6655,1476.1427],[42.571,42.6692,1504.6272],[42.5649,42.6779,1861.7573],[42.5445,42.6684,2158.6558],[42.5389,42.6642,2242.1812],[42.5367,42.6597,2155.2661],[42.5365,42.6306,1434.3413],[42.5381,42.623,1669.9344],[42.5436,42.6152,2040.108],[42.556399999999996,42.6043,2233.7383],[42.5778,42.5807,2389.5168],[42.5866,42.5679,1822.3846],[42.5946,42.5602,1553.9741],[42.6051,42.5444,1369.8489],[42.6085,42.5317,1434.0181],[42.6271,42.5119,732.8268],[42.6276,42.5007,663.5721],[42.6229,42.4913,363.0576],[42.6222,42.4802,704.2613],[42.6236,42.4743,920.3699],[42.6312,42.4665,1322.8448],[42.6329,42.4628,1399.8055],[42.6321,42.4355,738.0204]]]]}
,"properties": {"GID_2": "GEO.8.4_1","GID_0": "GEO","country": "Georgia","GID_1": "GEO.8_1","province": "Racha-Lechkhumi-KvemoSvaneti","NL_NAME_1": "NA","county": "Tsageri","VARNAME_2": "NA","NL_NAME_2": "NA","TYPE_2": "Raioni","ENGTYPE_2": "District","CC_2": "NA","HASC_2": "GE.RK.TG","name": "Tsageri.county","area_km2": 697.6781,"hist_schema_id": "Elevation0-9000","hist_area_km2": {"275": 0.4067,"300": 1.3136,"325": 2.2511,"350": 3.282,"375": 4.625,"400": 4.8281,"425": 8.1373,"450": 9.7755,"475": 8.3079,"500": 10.7912,"525": 10.5412,"550": 10.6503,"575": 11.306,"600": 11.2741,"625": 12.6323,"650": 12.5069,"675": 13.1787,"700": 14.2096,"725": 14.7718,"750": 16.6294,"775": 15.755,"800": 17.2392,"825": 17.3789,"850": 16.0366,"875": 15.5511,"900": 15.4744,"925": 16.5818,"950": 14.7074,"975": 14.4567,"1000": 13.0679,"1025": 13.0829,"1050": 11.8021,"1075": 11.8484,"1100": 11.3642,"1125": 11.2706,"1150": 11.2071,"1175": 10.6445,"1200": 10.4581,"1225": 11.3005,"1250": 10.8786,"1275": 11.4402,"1300": 10.0034,"1325": 10.2688,"1350": 11.0017,"1375": 11.0962,"1400": 11.0962,"1425": 10.9553,"1450": 10.4236,"1475": 9.1599,"1500": 9.2834,"1525": 8.3935,"1550": 8.0341,"1575": 7.425,"1600": 7.362,"1625": 6.6599,"1650": 5.6302,"1675": 5.9415,"1700": 4.9904,"1725": 4.9431,"1750": 5.0059,"1775": 4.3359,"1800": 4.6011,"1825": 3.9297,"1850": 3.9761,"1875": 4.0698,"1900": 4.2415,"1925": 3.8981,"1950": 3.3986,"1975": 3.6171,"2000": 3.5236,"2025": 2.8841,"2050": 3.6952,"2075": 2.7286,"2100": 2.6353,"2125": 2.6669,"2150": 3.2447,"2175": 4.197,"2200": 4.3843,"2225": 2.5895,"2250": 1.9654,"2275": 1.5442,"2300": 1.0917,"2325": 1.0605,"2350": 0.8109,"2375": 0.6551,"2400": 0.4523,"2425": 0.3899,"2450": 0.156,"2475": 0.1559,"2500": 0.0156,"2525": 0.0468,"2550": 0.0779}}}