{"type": "Feature","bbox": [42.1168,41.7911,42.6497,42.0714],"geometry": {"type": "MultiPolygon","coordinates": [[[[42.4817,41.7987,2078.9958],[42.5013,41.7993,2137.144],[42.5157,41.8027,2233.6458],[42.5345,41.8027,2215.812],[42.5426,41.8012,2107.9253],[42.5549,41.7931,2024.311],[42.5609,41.7911,2180.9475],[42.5865,41.7949,2449.1218],[42.5895,41.7963,2472.0664],[42.594,41.8018,2377.7288],[42.5967,41.8137,2133.1921],[42.6017,41.8217,2248.6501],[42.6127,41.8307,2346.8105],[42.6227,41.8337,2655.6165],[42.6497,41.8335,2656.3801],[42.6485,41.8469,2348.1851],[42.6441,41.8567,2150.4512],[42.6438,41.9104,1972.4298],[42.6419,41.9167,1841.4315],[42.6277,41.9307,1726.9935],[42.6159,41.9321,1608.192],[42.5597,41.9326,1327.8224],[42.5372,41.9466,1128.9304],[42.5078,41.9538,971.0598],[42.4859,41.9693,1074.2266],[42.4729,41.9747,889.161],[42.4491,41.9831,954.5717],[42.4201,41.9849,554.764],[42.4091,41.9999,940.6638],[42.4034,42.0127,895.5689],[42.4005,42.0244,609.2424],[42.3866,42.0449,337.5739],[42.3833,42.0458,327.9973],[42.3605,42.0506,248.0091],[42.3271,42.0508,168.6326],[42.3222,42.0485,159.2017],[42.3101,42.0325,166.1554],[42.2945,42.0314,198.9498],[42.2682,42.0425,440.502],[42.2341,42.0437,226.1252],[42.2208,42.0481,225.5486],[42.2159,42.0518,226.3878],[42.2039,42.0705,479.4089],[42.1729,42.0714,476.3265],[42.1632,42.0707,252.3479],[42.1585,42.0689,317.1036],[42.1209,42.0489,304.3709],[42.1187,42.0445,242.9235],[42.1185,42.0169,69.5647],[42.1168,42.0085,65.1094],[42.132,42.0023,92.8817],[42.1543,41.9853,156.471],[42.1571,41.9705,163.9925],[42.1609,41.9618,181.1658],[42.1625,41.9499,235.7677],[42.2085,41.9228,547.5038],[42.2141,41.9175,717.3833],[42.2327,41.8901,1502.1249],[42.2584,41.8773,1628.6001],[42.2627,41.8725,1497.6086],[42.2641,41.8651,1811.0519],[42.2683,41.8557,2141.2861],[42.2686,41.8455,2240.7607],[42.2678,41.8405,2303.6848],[42.2642,41.8343,2334.1128],[42.2621,41.8159,2405.6355],[42.2549,41.8041,2496.3633],[42.3061,41.8035,2586.9963],[42.3301,41.8208,2592.2703],[42.3496,41.8282,2135.8313],[42.3643,41.8374,2184.4192],[42.3942,41.8387,1992.187],[42.4044,41.8368,2104.1821],[42.4191,41.8263,2297.9961],[42.4355,41.8033,2218.3242],[42.4395,41.8002,2160.1855],[42.4471,41.7989,2064.5774],[42.4817,41.7987,2078.9958]]]]}
,"properties": {"GID_2": "GEO.3.1_1","GID_0": "GEO","country": "Georgia","GID_1": "GEO.3_1","province": "Guria","NL_NAME_1": "NA","county": "Chokhatauri","VARNAME_2": "NA","NL_NAME_2": "NA","TYPE_2": "Raioni","ENGTYPE_2": "District","CC_2": "NA","HASC_2": "GE.GU.CK","name": "Chokhatauri.county","area_km2": 770.6264,"hist_schema_id": "Elevation0-9000","hist_area_km2": {"75": 5.5605,"100": 14.7922,"125": 20.7,"150": 20.9362,"175": 19.0312,"200": 17.2362,"225": 13.3763,"250": 11.281,"275": 9.721,"300": 8.9337,"325": 8.1471,"350": 8.3521,"375": 8.3684,"400": 8.3368,"425": 9.6141,"450": 9.3151,"475": 8.5429,"500": 9.1107,"525": 8.6067,"550": 9.2214,"575": 8.638,"600": 9.112,"625": 8.2765,"650": 8.5449,"675": 8.2928,"700": 8.0411,"725": 7.0001,"750": 8.1516,"775": 7.9788,"800": 8.1678,"825": 7.8058,"850": 6.7969,"875": 7.5225,"900": 6.7975,"925": 6.5769,"950": 5.8516,"975": 6.4041,"1000": 5.9469,"1025": 5.8681,"1050": 5.6635,"1075": 5.6478,"1100": 5.7427,"1125": 5.7429,"1150": 6.1693,"1175": 6.2008,"1200": 5.8855,"1225": 5.8701,"1250": 6.5804,"1275": 6.6912,"1300": 6.8017,"1325": 6.7545,"1350": 6.6443,"1375": 7.3546,"1400": 7.1178,"1425": 7.7181,"1450": 8.3973,"1475": 8.4446,"1500": 8.508,"1525": 8.9025,"1550": 8.0661,"1575": 8.382,"1600": 8.1298,"1625": 9.1403,"1650": 7.9092,"1675": 7.799,"1700": 7.8943,"1725": 7.3261,"1750": 8.4629,"1775": 8.2265,"1800": 8.4634,"1825": 8.1323,"1850": 9.0956,"1875": 9.1277,"1900": 9.4119,"1925": 8.6382,"1950": 8.8595,"1975": 8.4018,"2000": 7.9282,"2025": 8.2441,"2050": 7.8968,"2075": 7.2811,"2100": 6.7125,"2125": 6.2232,"2150": 5.876,"2175": 5.3391,"2200": 4.8971,"2225": 5.2762,"2250": 4.7551,"2275": 4.2497,"2300": 3.9496,"2325": 4.2181,"2350": 3.6179,"2375": 3.6022,"2400": 3.0493,"2425": 2.8754,"2450": 2.6543,"2475": 2.0224,"2500": 1.6748,"2525": 1.5642,"2550": 1.4378,"2575": 1.3272,"2600": 1.2956,"2625": 1.2008,"2650": 0.8058,"2675": 0.79,"2700": 0.4108,"2725": 0.1896}}}