{"type":"Feature","properties":{"GID_2":"GEO.5.8_1","GID_0":"GEO","country":"Georgia","GID_1":"GEO.5_1","province":"Kakheti","NL_NAME_1":"NA","county":"Telavi","VARNAME_2":"NA","NL_NAME_2":"NA","TYPE_2":"Raioni","ENGTYPE_2":"District","CC_2":"NA","HASC_2":"GE.KA.TE","name":"Telavi.county"},
"geometry":{"type": "MultiPolygon","coordinates": [[[[45.2806,41.8721,1818.2986],[45.2812,41.8639,1643.6411],[45.2924,41.8345,1581.8125],[45.2983,41.8258,1515.13],[45.3101,41.8158,1703.2203],[45.3169,41.8076,1681.9467],[45.3293,41.7995,1593.8051],[45.3707,41.7908,1748.2312],[45.3874,41.7907,1584.5272],[45.4016,41.794,1400.2356],[45.4195,41.7952,1408.8467],[45.4512,41.8059,1492.0276],[45.5037,41.8058,1379.0515],[45.5271,41.8018,1314.4519],[45.5362,41.8079,1264.6176],[45.5544,41.8165,1024.922],[45.6017,41.8258,838.9957],[45.6413,41.8422,633.5833],[45.6482,41.8472,572.2085],[45.6674,41.8686,465.8849],[45.6896,41.8774,394.3014],[45.7023,41.8857,351.6799],[45.7131,41.8903,330.7155],[45.7264,41.9005,285.1014],[45.7087,41.9083,301.8011],[45.6826,41.9229,312.1005],[45.6563,41.9533,333.5235],[45.6349,41.9612,337.0616],[45.6133,41.967,333.0],[45.5739,41.9839,347.7319],[45.5706,41.9875,353.6039],[45.5691,41.9967,358.4047],[45.565,42.0041,362.6259],[45.5651,42.0164,421.4442],[45.5695,42.0206,448.7413],[45.5867,42.0266,652.5689],[45.6241,42.0442,739.8101],[45.6862,42.067,1284.783],[45.6918,42.0716,1393.0537],[45.7016,42.0858,1902.1855],[45.7192,42.0959,1525.199],[45.7244,42.1037,1932.1377],[45.7266,42.1109,2206.813],[45.733,42.1203,2492.4443],[45.7557,42.1372,2567.7783],[45.7448,42.1409,2779.5303],[45.7404,42.1511,2697.3455],[45.7278,42.1592,2507.8447],[45.6652,42.1894,2868.4883],[45.6423,42.1947,2878.0332],[45.6251,42.2084,3001.9783],[45.6126,42.2115,3004.8555],[45.6067,42.2178,2941.2671],[45.5961,42.2168,2420.7939],[45.5723,42.2065,2511.959],[45.5384,42.2062,2501.9702],[45.531,42.2081,2682.2268],[45.5171,42.2273,2071.6462],[45.5169,42.2357,2198.8599],[45.5212,42.243,2587.2246],[45.5219,42.2493,2729.1028],[45.5203,42.2526,2669.3784],[45.5129,42.2561,2527.7388],[45.4794,42.2624,1846.1466],[45.4507,42.2727,2321.2471],[45.4459,42.2723,2436.6682],[45.4239,42.2642,2959.9539],[45.4211,42.2614,2906.0881],[45.4198,42.2565,2711.1985],[45.4203,42.2221,1735.0887],[45.4191,42.2165,1443.6711],[45.41,42.2118,1402.1737],[45.3936,42.2101,1609.7762],[45.3831,42.2054,1668.4591],[45.3627,42.1761,1311.0638],[45.3459,42.1423,792.7296],[45.3519,42.1319,783.4595],[45.3638,42.122,784.5063],[45.3761,42.1085,535.9947],[45.3924,42.08,564.4086],[45.3935,42.0609,420.8195],[45.3984,42.0488,417.0917],[45.3988,42.0177,436.2263],[45.4038,42.0063,446.643],[45.4032,41.9921,463.475],[45.3855,41.9621,559.9274],[45.3702,41.9508,630.7846],[45.3541,41.9429,819.2975],[45.3412,41.9327,947.6579],[45.3394,41.9269,1082.0659],[45.3396,41.905,1429.774],[45.3371,41.8997,1373.0879],[45.3222,41.8918,1388.4087],[45.3112,41.8786,1481.7018],[45.2806,41.8721,1818.2986]]]]}}