{"type":"Feature","properties":{"GID_2":"GEO.9.7_1","GID_0":"GEO","country":"Georgia","GID_1":"GEO.9_1","province":"Samegrelo-ZemoSvaneti","NL_NAME_1":"NA","county":"Tsalenjikha","VARNAME_2":"NA","NL_NAME_2":"NA","TYPE_2":"Raioni","ENGTYPE_2":"District","CC_2":"NA","HASC_2":"GE.SZ.TL","name":"Tsalenjikha.county"},
"geometry":{"type": "MultiPolygon","coordinates": [[[[41.9095,42.6072,154.1175],[41.9301,42.5989,186.4577],[41.9602,42.5984,224.0513],[41.9681,42.5993,266.4801],[41.9992,42.6095,324.7167],[42.0051,42.6073,322.769],[42.0145,42.5997,299.5561],[42.0178,42.5877,306.5408],[42.0218,42.5805,296.8505],[42.0219,42.5729,285.459],[42.0192,42.569,277.667],[41.9916,42.5555,264.7314],[41.9898,42.55,278.3091],[41.99,42.5318,185.8028],[41.9967,42.5197,267.4182],[42.0204,42.4966,95.0121],[42.0251,42.4869,86.9499],[42.0464,42.5017,154.0891],[42.0658,42.5089,203.9299],[42.0717,42.5127,189.2667],[42.105,42.5599,283.9271],[42.1285,42.5815,230.5305],[42.1415,42.5907,216.6731],[42.1526,42.5954,224.5522],[42.1592,42.6002,231.424],[42.1616,42.6057,238.7652],[42.162,42.6308,269.4047],[42.1659,42.6382,286.244],[42.1678,42.6484,295.4952],[42.1722,42.6542,620.4401],[42.1757,42.6561,646.3185],[42.2073,42.661,579.2787],[42.2132,42.6668,754.8837],[42.2161,42.6786,1075.7207],[42.2202,42.687,897.6053],[42.2209,42.7169,1516.6115],[42.231,42.7341,2511.6255],[42.2305,42.7493,2790.4507],[42.2169,42.765,2713.0317],[42.2074,42.7724,2458.7751],[42.1852,42.796,1599.2812],[42.175,42.8036,1492.3413],[42.1134,42.8249,1554.2725],[42.1077,42.8233,1239.3623],[42.0904,42.7994,1187.7078],[42.0717,42.7946,904.4643],[42.0654,42.7952,855.829],[42.0436,42.8022,598.4996],[42.0152,42.7952,698.1929],[42.0077,42.7952,908.9673],[41.9895,42.8017,1141.7323],[41.9637,42.8075,1757.0161],[41.9427,42.8145,1534.4879],[41.9141,42.8145,1735.1682],[41.8989,42.8109,1729.968],[41.8989,42.8069,1638.4885],[41.9037,42.7969,1500.6488],[41.9047,42.7789,1578.814],[41.9092,42.7683,1823.3945],[41.9104,42.7178,1139.3275],[41.9193,42.7017,559.8506],[41.9393,42.6865,229.6206],[41.9514,42.6726,279.7146],[41.9527,42.6669,335.3535],[41.9518,42.6474,183.6201],[41.941,42.6193,212.2735],[41.9359,42.6151,206.5853],[41.9264,42.6114,196.8918],[41.9095,42.6072,154.1175]]]]}}