{"type": "Feature","bbox": [44.1468,41.7169,44.5733,42.0344],"geometry": {"type": "MultiPolygon","coordinates": [[[[44.4792,41.748,1760.9752],[44.4718,41.7643,1705.6327],[44.4714,41.7712,1604.6838],[44.4737,41.7744,1705.6918],[44.4948,41.7825,1301.3794],[44.4979,41.7861,1225.6034],[44.4979,41.8097,1315.3495],[44.4933,41.8202,1157.5322],[44.4925,41.8293,874.3563],[44.4934,41.8363,822.0286],[44.499,41.8474,679.6063],[44.5057,41.8494,634.5892],[44.5361,41.8492,558.3657],[44.5532,41.8456,567.0631],[44.5611,41.8463,575.3409],[44.5721,41.8611,487.5466],[44.5733,41.8789,491.9984],[44.5714,41.8849,495.0673],[44.5519,41.9039,527.6167],[44.5205,41.9281,616.1022],[44.5039,41.9537,595.2452],[44.5024,41.9983,649.7831],[44.4699,42.0228,810.3143],[44.4329,42.0227,914.2257],[44.3999,42.0298,799.197],[44.382,42.0312,777.232],[44.369,42.0344,834.1946],[44.3565,42.0343,835.947],[44.336,42.0289,756.2023],[44.3198,42.0083,813.9044],[44.2945,41.9972,884.1573],[44.2951,41.981,1070.6399],[44.3083,41.9717,914.2656],[44.2999,41.9586,745.3368],[44.2953,41.9564,754.2067],[44.2766,41.9546,646.3238],[44.2372,41.9268,613.7498],[44.219,41.918,726.2117],[44.1903,41.9074,1170.2437],[44.1873,41.9026,1049.5306],[44.1874,41.8831,988.8988],[44.1857,41.8776,991.7287],[44.1468,41.8477,1339.1946],[44.1471,41.8453,1308.7716],[44.1564,41.8345,1278.0779],[44.1648,41.8288,1089.4851],[44.1931,41.838,1153.5873],[44.214,41.8426,1087.5074],[44.2202,41.8415,1072.8591],[44.2254,41.8386,948.287],[44.2333,41.8322,920.0646],[44.2353,41.8278,1085.7339],[44.2349,41.8241,1058.5114],[44.2308,41.8169,914.7336],[44.229,41.8076,955.1149],[44.2171,41.7903,1142.1688],[44.1911,41.7711,1777.0515],[44.1621,41.7568,1853.6262],[44.1603,41.7523,1906.8909],[44.1597,41.7294,1772.2209],[44.1855,41.7283,1810.0325],[44.2043,41.7208,1797.4995],[44.2206,41.7206,1546.7849],[44.233,41.7172,1486.6344],[44.2474,41.7169,1505.9042],[44.2992,41.735,1496.4164],[44.3111,41.7374,1436.212],[44.3323,41.7473,1477.7434],[44.3426,41.7502,1419.043],[44.3528,41.7445,1474.1705],[44.3612,41.7347,1348.5741],[44.3703,41.7272,1485.402],[44.3819,41.7206,1415.2117],[44.4668,41.7198,1430.3992],[44.4745,41.7227,1556.1326],[44.4848,41.7347,1451.7482],[44.4792,41.748,1760.9752]]]]}
,"properties": {"GID_2": "GEO.11.4_1","GID_0": "GEO","country": "Georgia","GID_1": "GEO.11_1","province": "ShidaKartli","NL_NAME_1": "NA","county": "Kaspi","VARNAME_2": "NA","NL_NAME_2": "NA","TYPE_2": "Raioni","ENGTYPE_2": "District","CC_2": "NA","HASC_2": "GE.SD.KP","name": "Kaspi.county","area_km2": 789.8273,"hist_schema_id": "Elevation0-9000","hist_area_km2": {"475": 2.3841,"500": 18.9406,"525": 28.0537,"550": 29.5019,"575": 29.3136,"600": 28.8718,"625": 30.3981,"650": 26.2216,"675": 24.7524,"700": 29.0558,"725": 35.8922,"750": 28.2439,"775": 23.1376,"800": 20.8375,"825": 17.9515,"850": 14.8795,"875": 14.2191,"900": 13.8551,"925": 13.6027,"950": 12.5941,"975": 11.9158,"1000": 10.2613,"1025": 8.9836,"1050": 8.0527,"1075": 7.0596,"1100": 6.4765,"1125": 6.1455,"1150": 6.446,"1175": 6.4777,"1200": 7.1414,"1225": 7.3943,"1250": 7.3633,"1275": 6.5264,"1300": 7.3484,"1325": 6.6218,"1350": 7.0173,"1375": 7.3494,"1400": 8.1876,"1425": 8.4414,"1450": 9.1693,"1475": 9.8344,"1500": 10.7524,"1525": 11.6701,"1550": 12.6189,"1575": 12.3031,"1600": 13.6629,"1625": 13.742,"1650": 13.3942,"1675": 13.11,"1700": 11.0381,"1725": 9.7575,"1750": 8.7297,"1775": 8.2715,"1800": 8.177,"1825": 8.1297,"1850": 5.8836,"1875": 4.792,"1900": 3.4791,"1925": 3.1943,"1950": 3.0678,"1975": 2.3089,"2000": 1.4708,"2025": 0.9331,"2050": 0.8224,"2075": 0.4744,"2100": 0.3322,"2125": 0.2689,"2150": 0.2056,"2175": 0.174,"2200": 0.0949,"2225": 0.0474}}}