{"type":"Feature","properties":{"GID_2":"GEO.4.8_1","GID_0":"GEO","country":"Georgia","GID_1":"GEO.4_1","province":"Imereti","NL_NAME_1":"NA","county":"Terjola","VARNAME_2":"NA","NL_NAME_2":"NA","TYPE_2":"Raioni","ENGTYPE_2":"District","CC_2":"NA","HASC_2":"GE.IM.TJ","name":"Terjola.county"},
"geometry":{"type": "MultiPolygon","coordinates": [[[[42.7504,42.167,115.4991],[42.7934,42.1667,103.104],[42.8237,42.1592,117.9483],[42.8672,42.1582,122.9014],[42.8826,42.1523,129.5406],[42.9122,42.1318,190.4629],[42.9516,42.1311,131.5624],[42.965,42.1354,135.6506],[42.9754,42.1412,147.1937],[42.9951,42.1487,179.2001],[43.0049,42.1559,162.701],[43.0142,42.1665,160.404],[43.0247,42.1729,205.5065],[43.0788,42.1737,295.8685],[43.0998,42.1785,388.1845],[43.1044,42.1824,396.9617],[43.1188,42.2051,400.6347],[43.1001,42.2258,383.3775],[43.0987,42.2379,375.395],[43.0943,42.2474,384.5056],[43.093,42.2637,416.0624],[43.073,42.263,310.0804],[43.0494,42.2487,316.3732],[43.022,42.2482,268.5923],[43.0129,42.2497,272.042],[42.9864,42.2636,472.583],[42.9769,42.267,591.6263],[42.971,42.2673,592.1729],[42.9059,42.2458,359.6905],[42.8683,42.2411,305.7645],[42.8331,42.2418,253.9776],[42.7946,42.2561,275.1263],[42.7832,42.2571,248.8676],[42.7693,42.2538,243.0312],[42.7528,42.2528,256.2902],[42.7242,42.2457,111.7857],[42.7097,42.2305,157.7681],[42.7029,42.22,141.5323],[42.7028,42.1872,97.3396],[42.7097,42.1745,89.7744],[42.7205,42.1665,88.3423],[42.7504,42.167,115.4991]]]]}}