{"type":"Feature","properties":{"GID_2":"GEO.7.4_1","GID_0":"GEO","country":"Georgia","GID_1":"GEO.7_1","province":"Mtskheta-Mtianeti","NL_NAME_1":"NA","county":"Mtskheta","VARNAME_2":"NA","NL_NAME_2":"NA","TYPE_2":"Raioni","ENGTYPE_2":"District","CC_2":"NA","HASC_2":"GE.MM.MK","name":"Mtskheta.county"},
"geometry":{"type": "MultiPolygon","coordinates": [[[[45.0213,41.8811,1274.2349],[44.989,41.8865,1322.5544],[44.9651,41.8865,1265.387],[44.9505,41.8832,1113.2347],[44.9347,41.8827,1069.2139],[44.8975,41.8877,1077.863],[44.8946,41.8917,1084.8318],[44.8941,41.9117,1316.6603],[44.8802,41.9195,1200.1404],[44.8756,41.9248,1173.5968],[44.8627,41.9521,1103.5846],[44.8551,41.9477,1109.2935],[44.8469,41.9395,989.8887],[44.8288,41.9348,895.0355],[44.8201,41.9352,876.1091],[44.7807,41.9456,711.9591],[44.7587,41.9393,530.051],[44.755,41.941,530.9858],[44.7509,41.9467,535.6917],[44.7492,41.957,553.0609],[44.743,41.9704,575.0317],[44.7389,41.9735,585.5763],[44.7284,41.9772,798.521],[44.7212,41.9762,879.5845],[44.6932,41.9627,934.0228],[44.6279,41.9626,608.5275],[44.6165,41.9636,588.9396],[44.5995,41.9698,613.1738],[44.5807,41.9743,677.7112],[44.5363,41.975,610.26],[44.5218,41.9784,621.3508],[44.5035,41.9795,627.9214],[44.5034,41.9578,600.9844],[44.505,41.9509,604.057],[44.522,41.9264,614.4374],[44.5519,41.9039,527.6167],[44.5714,41.8849,495.0673],[44.5733,41.8789,491.9984],[44.5731,41.8651,490.2131],[44.5666,41.8523,499.2293],[44.559,41.8456,568.3371],[44.5361,41.8492,558.3657],[44.5057,41.8494,634.5892],[44.499,41.8474,679.6063],[44.4934,41.8363,822.0286],[44.4925,41.8293,874.3563],[44.4933,41.8202,1157.5322],[44.4979,41.8097,1315.3495],[44.4979,41.7861,1225.6034],[44.4948,41.7825,1301.3794],[44.4729,41.7738,1672.381],[44.4713,41.7663,1746.5609],[44.4792,41.748,1760.9752],[44.4952,41.7468,1413.2349],[44.5078,41.7435,1394.4135],[44.5285,41.7426,1216.6013],[44.562,41.7344,1251.7744],[44.5718,41.7302,1390.5856],[44.5916,41.7023,1115.2518],[44.6122,41.6873,859.8894],[44.6276,41.6875,945.7878],[44.6446,41.6836,950.0934],[44.657,41.6841,886.0823],[44.662,41.6866,879.5817],[44.6807,41.7055,733.1006],[44.6864,41.7171,680.3207],[44.6923,41.722,632.475],[44.7022,41.7258,677.7645],[44.7142,41.7281,587.5693],[44.7216,41.7315,654.3925],[44.7231,41.739,628.1776],[44.7177,41.7515,641.3254],[44.7201,41.7577,729.119],[44.7277,41.7611,751.7606],[44.7364,41.7616,657.6284],[44.7564,41.7556,502.0433],[44.7667,41.7589,435.8489],[44.7827,41.7668,403.9536],[44.7872,41.7707,435.9188],[44.7918,41.7777,426.8073],[44.794,41.7849,430.0789],[44.8048,41.7996,484.508],[44.8101,41.7998,500.8085],[44.8353,41.7922,518.9683],[44.8554,41.7788,590.7017],[44.8672,41.7743,720.9285],[44.8922,41.7698,790.9039],[44.9005,41.7733,838.7203],[44.9198,41.7881,889.7695],[44.9215,41.7926,966.9689],[44.9215,41.8072,1047.3381],[44.923,41.8127,1180.8021],[44.9285,41.8205,1177.1907],[44.953,41.8462,1326.4688],[44.9599,41.8463,1242.9392],[44.9928,41.836,1318.5354],[45.0257,41.835,1267.0381],[45.0437,41.8291,1344.7129],[45.0662,41.8375,1476.0996],[45.0656,41.8536,1585.5222],[45.0586,41.864,1249.7933],[45.0348,41.8773,1377.5906],[45.0213,41.8811,1274.2349]]]]}}