{"type":"Feature","properties":{"GID_2":"GEO.4.2_1","GID_0":"GEO","country":"Georgia","GID_1":"GEO.4_1","province":"Imereti","NL_NAME_1":"NA","county":"Chiatura","VARNAME_2":"Tchiatura","NL_NAME_2":"NA","TYPE_2":"Raioni","ENGTYPE_2":"District","CC_2":"NA","HASC_2":"GE.IM.CT","name":"Chiatura.county"},
"geometry":{"type": "MultiPolygon","coordinates": [[[[43.424,42.1253,531.7744],[43.4263,42.1349,754.665],[43.4252,42.1599,1000.1106],[43.4012,42.1795,907.8759],[43.3925,42.2064,809.4063],[43.3695,42.2159,763.6953],[43.3628,42.2236,761.0775],[43.3629,42.2309,721.2161],[43.3724,42.244,722.6417],[43.3755,42.2516,755.9624],[43.365,42.2639,737.025],[43.3491,42.2763,676.1069],[43.3363,42.2906,636.1218],[43.3349,42.3185,518.3602],[43.3307,42.3269,551.8459],[43.3283,42.3379,574.0819],[43.323,42.3459,589.6696],[43.3156,42.3515,599.202],[43.2766,42.3658,712.4713],[43.2686,42.3709,907.4293],[43.2612,42.3812,1016.4845],[43.2556,42.3939,874.5257],[43.2537,42.4042,1022.5665],[43.2495,42.4107,1207.0513],[43.2409,42.4046,1211.4149],[43.2051,42.3913,1624.2357],[43.1928,42.3753,1340.856],[43.1761,42.3633,1028.0898],[43.1482,42.3511,1022.2778],[43.132,42.3491,1049.866],[43.1217,42.3444,943.1582],[43.12,42.3317,806.9175],[43.1105,42.3164,796.8392],[43.1093,42.2886,525.6589],[43.093,42.2637,416.0624],[43.0943,42.2474,384.5056],[43.0987,42.2379,375.395],[43.1001,42.2258,383.3775],[43.1188,42.2051,400.6347],[43.1619,42.2041,487.5839],[43.1668,42.2016,297.2472],[43.1722,42.1946,412.7561],[43.1779,42.1905,510.9469],[43.2054,42.1828,655.0948],[43.2076,42.1743,675.6628],[43.2116,42.1669,673.3438],[43.2113,42.1584,604.353],[43.207,42.1535,631.983],[43.1891,42.1407,523.182],[43.186,42.1356,436.4501],[43.1916,42.1184,447.5868],[43.198,42.1097,360.1838],[43.2424,42.1183,347.8831],[43.2712,42.1287,412.7293],[43.2802,42.1295,570.1713],[43.3036,42.1241,602.8602],[43.3291,42.1108,358.3235],[43.3399,42.1067,354.4362],[43.3582,42.1021,524.7034],[43.3645,42.1019,436.4873],[43.3819,42.1066,670.8076],[43.3936,42.1198,846.6113],[43.4137,42.1216,594.5912],[43.424,42.1253,531.7744]]]]}}