{"type": "Feature","bbox": [44.2572,41.9972,44.6158,42.4948],"geometry": {"type": "MultiPolygon","coordinates": [[[[44.3344,42.4948,3183.7603],[44.3122,42.4791,2921.0],[44.309,42.4625,2875.7534],[44.2966,42.4562,2299.5891],[44.2914,42.4514,2237.3821],[44.2843,42.4382,2054.0732],[44.2836,42.4328,1981.744],[44.2865,42.4283,2067.657],[44.2961,42.4261,2260.2979],[44.3042,42.4219,2444.9165],[44.3059,42.4063,2712.8501],[44.3102,42.3968,2629.1296],[44.3105,42.3858,2346.4097],[44.3123,42.3815,2103.8809],[44.3397,42.3702,1973.2286],[44.3529,42.3515,2364.2947],[44.3538,42.3433,2021.9539],[44.3523,42.3374,2191.5117],[44.3407,42.3309,2496.1057],[44.3377,42.3269,2189.5747],[44.3374,42.2981,2033.228],[44.3437,42.2863,1708.1211],[44.363,42.2659,1835.8729],[44.364,42.2431,1753.1084],[44.3572,42.2242,1652.6981],[44.3487,42.2203,1412.5277],[44.3379,42.2184,1374.6201],[44.328,42.2144,1643.4727],[44.3228,42.208,1514.4822],[44.3196,42.1992,1418.2896],[44.3105,42.1863,1612.326],[44.2878,42.1752,1360.1072],[44.2741,42.1564,1415.4766],[44.2737,42.1509,1582.2389],[44.2776,42.1437,1395.8021],[44.2779,42.1391,1249.6643],[44.2688,42.1249,1110.7234],[44.2676,42.1169,987.7042],[44.2679,42.0981,825.2598],[44.2726,42.0878,792.1301],[44.2729,42.0811,773.8983],[44.2577,42.0533,721.7337],[44.2572,42.0302,717.414],[44.2606,42.028,720.6323],[44.2787,42.0312,725.2051],[44.2927,42.0296,732.4727],[44.2949,42.0239,730.4641],[44.2945,41.9972,884.1573],[44.3198,42.0083,813.9044],[44.336,42.0289,756.2023],[44.3565,42.0343,835.947],[44.3718,42.0341,832.1381],[44.382,42.0312,777.232],[44.3999,42.0298,799.197],[44.4329,42.0227,914.2257],[44.463,42.0224,855.4502],[44.4699,42.0228,810.3143],[44.478,42.0345,819.1419],[44.4824,42.0372,788.3463],[44.4861,42.0374,704.8128],[44.4978,42.0333,693.0594],[44.5229,42.0201,956.0466],[44.528,42.0205,1032.7676],[44.5434,42.028,1010.7888],[44.5467,42.0347,1099.687],[44.5449,42.0421,1187.1545],[44.5315,42.0538,1253.915],[44.5252,42.0673,1338.4639],[44.5259,42.0767,1337.0969],[44.5307,42.0813,1169.0449],[44.5438,42.0872,1055.0649],[44.5502,42.0921,1096.4932],[44.556,42.1008,1072.8503],[44.5586,42.1088,1082.1646],[44.5648,42.1172,1059.5637],[44.5984,42.1353,1255.8212],[44.6158,42.1624,1399.6317],[44.6157,42.2473,1853.7341],[44.603,42.2626,1580.6013],[44.5917,42.2719,1793.4275],[44.5802,42.2845,2161.8706],[44.569,42.3009,1838.7241],[44.5694,42.3053,1786.1525],[44.5832,42.3255,2383.8457],[44.5835,42.3452,1986.808],[44.5804,42.3476,1867.4541],[44.5674,42.351,1566.743],[44.5511,42.3532,1577.2844],[44.5299,42.367,1715.5383],[44.476,42.3848,1394.6101],[44.4676,42.391,1590.3779],[44.4624,42.4009,1601.551],[44.4439,42.4086,2051.9353],[44.4281,42.4185,2030.6715],[44.4149,42.4229,1904.5457],[44.3753,42.4241,2236.7102],[44.3488,42.4348,2414.2349],[44.3336,42.4467,2835.0398],[44.3319,42.4516,2822.4629],[44.3321,42.463,2941.5017],[44.3357,42.4664,2941.1177],[44.3562,42.4712,2916.9993],[44.3582,42.4731,2909.0952],[44.3586,42.4765,2868.4753],[44.3474,42.4924,3103.3926],[44.3344,42.4948,3183.7603]]]]}
,"properties": {"GID_2": "GEO.7.1_1","GID_0": "GEO","country": "Georgia","GID_1": "GEO.7_1","province": "Mtskheta-Mtianeti","NL_NAME_1": "NA","county": "Akhalgori","VARNAME_2": "NA","NL_NAME_2": "NA","TYPE_2": "Raioni","ENGTYPE_2": "District","CC_2": "NA","HASC_2": "GE.MM.AG","name": "Akhalgori.county","area_km2": 953.5682,"hist_schema_id": "Elevation0-9000","hist_area_km2": {"700": 2.0628,"725": 13.6997,"750": 12.9419,"775": 11.6017,"800": 10.4202,"825": 11.0014,"850": 13.425,"875": 14.7463,"900": 12.7921,"925": 12.2093,"950": 14.7417,"975": 15.2592,"1000": 15.4783,"1025": 15.7275,"1050": 17.6444,"1075": 18.0988,"1100": 19.2601,"1125": 21.5532,"1150": 20.0905,"1175": 23.1217,"1200": 23.4814,"1225": 23.2744,"1250": 23.5708,"1275": 23.8672,"1300": 23.6296,"1325": 23.5019,"1350": 23.1692,"1375": 21.661,"1400": 21.0448,"1425": 20.8861,"1450": 20.8522,"1475": 19.7515,"1500": 18.6023,"1525": 17.517,"1550": 16.3211,"1575": 15.4731,"1600": 14.4207,"1625": 14.4669,"1650": 13.3826,"1675": 12.6452,"1700": 12.6127,"1725": 12.1734,"1750": 11.4341,"1775": 11.2307,"1800": 11.45,"1825": 11.6216,"1850": 10.9942,"1875": 9.7703,"1900": 9.676,"1925": 8.938,"1950": 7.51,"1975": 8.1994,"2000": 7.4469,"2025": 7.0859,"2050": 7.0697,"2075": 6.7404,"2100": 6.6149,"2125": 6.301,"2150": 5.7361,"2175": 4.8895,"2200": 4.5443,"2225": 3.9797,"2250": 3.6505,"2275": 3.7912,"2300": 3.6814,"2325": 3.4931,"2350": 3.2894,"2375": 2.741,"2400": 2.7249,"2425": 2.8189,"2450": 2.7247,"2475": 2.4113,"2500": 2.4271,"2525": 2.4268,"2550": 2.4892,"2575": 2.1759,"2600": 2.5047,"2625": 2.2228,"2650": 1.7846,"2675": 1.7063,"2700": 1.9568,"2725": 1.6592,"2750": 1.9879,"2775": 1.8158,"2800": 2.0036,"2825": 1.6749,"2850": 1.3775,"2875": 1.9405,"2900": 1.6899,"2925": 3.3789,"2950": 2.4247,"2975": 2.0806,"3000": 1.6112,"3025": 1.267,"3050": 0.9698,"3075": 0.9071,"3100": 0.9539,"3125": 0.5629,"3150": 0.3284,"3175": 0.2345,"3200": 0.1564,"3225": 0.1094}}}