{"type":"Feature","properties":{"GID_2":"GEO.6.5_1","GID_0":"GEO","country":"Georgia","GID_1":"GEO.6_1","province":"KvemoKartli","NL_NAME_1":"NA","county":"TetriTskaro","VARNAME_2":"NA","NL_NAME_2":"NA","TYPE_2":"Raioni","ENGTYPE_2":"District","CC_2":"NA","HASC_2":"GE.KK.TR","name":"Tetri_Tskaro.county"},
"geometry":{"type": "MultiPolygon","coordinates": [[[[44.7341,41.4703,396.7907],[44.7344,41.4884,513.7567],[44.7368,41.4921,523.967],[44.7427,41.4959,515.1946],[44.744,41.4989,507.4789],[44.7399,41.5086,533.6112],[44.7407,41.5149,528.2731],[44.7575,41.5391,516.8676],[44.7738,41.5517,524.3065],[44.7805,41.56,537.8672],[44.7928,41.5692,546.9244],[44.7739,41.5907,624.2977],[44.7454,41.612,742.7324],[44.7362,41.6226,921.8237],[44.7281,41.6276,1153.283],[44.7129,41.6284,970.205],[44.6973,41.6248,1012.3494],[44.6647,41.6246,834.2585],[44.6503,41.6212,864.3493],[44.633,41.6208,1032.0176],[44.6231,41.6215,996.7693],[44.6069,41.6254,1076.6797],[44.5959,41.6299,962.7708],[44.5849,41.645,1219.6235],[44.5794,41.6596,1276.9843],[44.5846,41.6651,1212.8093],[44.6016,41.6734,1098.5836],[44.6122,41.6873,859.8894],[44.5916,41.7023,1115.2518],[44.5771,41.7238,1290.9163],[44.57,41.7311,1411.0171],[44.5285,41.7426,1216.6013],[44.5078,41.7435,1394.4135],[44.4952,41.7468,1413.2349],[44.4792,41.748,1760.9752],[44.4848,41.7347,1451.7482],[44.4759,41.724,1582.257],[44.4708,41.7206,1512.0858],[44.386,41.7201,1396.969],[44.3794,41.7214,1437.2993],[44.3741,41.7244,1496.8882],[44.3612,41.7347,1348.5741],[44.3528,41.7445,1474.1705],[44.3426,41.7502,1419.043],[44.3323,41.7473,1477.7434],[44.3111,41.7374,1436.212],[44.2992,41.735,1496.4164],[44.2499,41.7173,1508.9688],[44.2356,41.7169,1541.9941],[44.2206,41.7206,1546.7849],[44.2043,41.7208,1797.4995],[44.2024,41.7104,1755.0555],[44.1981,41.7022,1708.6853],[44.1986,41.6946,1693.5426],[44.2109,41.6805,1700.7207],[44.2227,41.6698,1688.5779],[44.2205,41.6665,1660.9951],[44.2061,41.6561,1615.218],[44.2044,41.6504,1606.6057],[44.2096,41.6387,1623.0409],[44.2154,41.6316,1819.2045],[44.2375,41.6226,1804.6622],[44.2404,41.6199,1707.3518],[44.2404,41.6091,1730.4126],[44.2354,41.5967,1728.3203],[44.2361,41.5846,1310.877],[44.2508,41.5623,1065.8035],[44.2528,41.5394,935.1339],[44.2665,41.52,865.9047],[44.272,41.5075,1252.1204],[44.2699,41.5024,1309.1429],[44.2593,41.4941,1361.9272],[44.2473,41.4808,1154.5671],[44.246,41.475,1025.3136],[44.2461,41.454,761.7988],[44.2485,41.4501,978.3829],[44.2679,41.4416,1149.2906],[44.2772,41.4324,1217.3132],[44.311,41.4446,1010.2693],[44.3421,41.4502,859.5338],[44.358,41.4597,771.4321],[44.3766,41.4682,921.7868],[44.4064,41.4688,875.4586],[44.4221,41.4723,905.1923],[44.4547,41.4732,729.4507],[44.4628,41.4781,768.6172],[44.4717,41.4884,835.4896],[44.4812,41.4919,815.7996],[44.5793,41.4913,651.9174],[44.5994,41.4866,576.0906],[44.619,41.4798,622.642],[44.6329,41.4797,631.0265],[44.6459,41.483,600.9189],[44.6584,41.4833,588.1909],[44.6798,41.4784,532.8614],[44.6981,41.4719,413.6844],[44.7341,41.4703,396.7907]]]]}}