{"type":"Feature","properties":{"GID_2":"GEO.5.4_1","GID_0":"GEO","country":"Georgia","GID_1":"GEO.5_1","province":"Kakheti","NL_NAME_1":"NA","county":"Kvareli","VARNAME_2":"NA","NL_NAME_2":"NA","TYPE_2":"Raioni","ENGTYPE_2":"District","CC_2":"NA","HASC_2":"GE.KA.QV","name":"Kvareli.county"},
"geometry":{"type": "MultiPolygon","coordinates": [[[[45.9306,41.8013,236.1774],[45.9461,41.8233,254.8671],[45.951,41.8278,261.9946],[45.9713,41.8379,280.462],[45.9928,41.8458,294.3253],[46.0261,41.8509,284.5724],[46.0386,41.8503,295.667],[46.0514,41.8469,296.6483],[46.0681,41.8467,294.5473],[46.0889,41.8524,382.3418],[46.0901,41.8569,430.0383],[46.0897,41.8823,473.9625],[46.0909,41.8895,523.8461],[46.0969,41.8981,664.6804],[46.1049,41.9057,1152.2664],[46.1205,41.9284,1169.1855],[46.1221,41.9332,1489.1177],[46.1218,41.9414,1561.3431],[46.1173,41.9509,1593.6802],[46.1159,41.963,1684.2767],[46.1021,41.9835,2310.2029],[46.1009,41.9925,2172.0244],[46.0923,41.9961,2094.3188],[46.0823,42.0044,2003.866],[46.0751,42.0188,1850.3347],[46.0728,42.0349,2274.4624],[46.0675,42.0387,2420.1831],[46.0599,42.0408,2226.9993],[46.0422,42.0255,2152.5022],[46.0304,42.0226,2366.0205],[46.0256,42.0241,2537.6458],[46.0219,42.0366,2643.5801],[46.0191,42.0408,2657.9419],[46.0148,42.042,2577.9551],[46.0049,42.0403,2364.4429],[45.9974,42.0368,2217.6045],[45.9785,42.0412,2527.168],[45.972,42.0405,2426.3755],[45.9467,42.0254,2527.1499],[45.94,42.0265,2211.6353],[45.9269,42.0339,2577.0293],[45.9244,42.045,2105.0688],[45.9129,42.0551,1946.3566],[45.9089,42.0621,2483.1499],[45.9065,42.0881,2556.1323],[45.8841,42.1024,2687.8481],[45.8724,42.1073,2786.6514],[45.8502,42.1132,2895.4316],[45.8373,42.1137,2572.1978],[45.8184,42.1103,2564.8782],[45.8089,42.1113,2629.7656],[45.7948,42.1183,2711.2866],[45.7838,42.1197,2351.9026],[45.7687,42.1258,2646.5391],[45.7646,42.1307,2501.0347],[45.7557,42.1372,2567.7783],[45.733,42.1203,2492.4443],[45.7266,42.1109,2206.813],[45.7244,42.1037,1932.1377],[45.7192,42.0959,1525.199],[45.7016,42.0858,1902.1855],[45.6918,42.0716,1393.0537],[45.6862,42.067,1284.783],[45.6241,42.0442,739.8101],[45.5867,42.0266,652.5689],[45.5695,42.0206,448.7413],[45.5651,42.0164,421.4442],[45.565,42.0041,362.6259],[45.5691,41.9967,358.4047],[45.5706,41.9875,353.6039],[45.5739,41.9839,347.7319],[45.6133,41.967,333.0],[45.6349,41.9612,337.0616],[45.6563,41.9533,333.5235],[45.6787,41.9264,314.1865],[45.6853,41.9211,311.1113],[45.6959,41.9166,305.9445],[45.7087,41.9083,301.8011],[45.754,41.8895,278.6196],[45.7783,41.8726,272.8387],[45.809,41.863,262.9935],[45.8196,41.8496,256.8895],[45.8373,41.837,250.0208],[45.875,41.8231,246.7729],[45.8866,41.8167,241.9184],[45.9306,41.8013,236.1774]]]]}}