{"type":"Feature","properties":{"ISO3166-1-Alpha-3":"GEO","country":"Georgia","fill":"#F0F","id":"3036","name":"Tbilisi"},
"geometry":{"type": "Polygon","coordinates": [[[44.89217,41.76975,790.9039],[44.83078,41.79368,480.5148],[44.80526,41.79533,473.2224],[44.78975,41.77456,427.5631],[44.76143,41.76107,446.3452],[44.7326,41.76174,703.9401],[44.71244,41.72753,619.0148],[44.69312,41.72148,632.475],[44.68071,41.70549,733.1006],[44.6987,41.70185,921.0706],[44.7019,41.68779,975.7133],[44.71565,41.67389,1133.3997],[44.74531,41.67505,896.6687],[44.82686,41.64356,687.7106],[44.85156,41.64203,579.1025],[44.87595,41.63756,486.9499],[44.90489,41.62679,408.6344],[44.94323,41.62503,350.7494],[44.98085,41.63433,433.6733],[45.00927,41.66573,505.0591],[44.99977,41.69032,541.7065],[44.98354,41.68082,521.8654],[44.97021,41.66671,472.9782],[44.94737,41.66224,447.8902],[44.92411,41.66671,414.1846],[44.90654,41.67324,423.5869],[44.89124,41.6834,439.8369],[44.88659,41.70084,507.6559],[44.87967,41.71838,545.056],[44.86055,41.73166,574.8321],[44.86282,41.74887,626.4473],[44.89217,41.76975,790.9039]]]}}