{"type": "Feature","bbox": [44.6807,41.6238,45.0168,41.8],"geometry": {"type": "MultiPolygon","coordinates": [[[[44.8922,41.7698,790.9039],[44.8672,41.7743,720.9285],[44.8554,41.7788,590.7017],[44.8353,41.7922,518.9683],[44.8245,41.7961,493.7393],[44.8058,41.8,484.508],[44.7989,41.7929,437.1756],[44.794,41.7849,430.0789],[44.7918,41.7777,426.8073],[44.786,41.7692,431.4873],[44.7667,41.7589,435.8489],[44.7553,41.7555,502.0433],[44.7389,41.7611,631.1216],[44.7326,41.7618,703.9401],[44.7201,41.7577,729.119],[44.7177,41.7515,641.3254],[44.7231,41.739,628.1776],[44.7223,41.7323,648.1843],[44.7142,41.7281,587.5693],[44.7022,41.7258,677.7645],[44.6923,41.722,632.475],[44.6864,41.7171,680.3207],[44.6807,41.7055,733.1006],[44.6962,41.7026,881.2641],[44.7052,41.6982,936.1154],[44.7055,41.6944,941.4316],[44.6976,41.6799,1225.7893],[44.6978,41.6775,1307.9907],[44.7004,41.6758,1389.832],[44.7445,41.6753,909.5099],[44.7583,41.6719,826.0122],[44.7751,41.6709,811.5638],[44.7816,41.6679,737.7522],[44.8007,41.654,951.5441],[44.8201,41.6446,728.6118],[44.8608,41.643,551.7969],[44.9125,41.6241,376.3214],[44.9277,41.6238,363.1141],[44.9406,41.627,352.8559],[44.9626,41.6279,362.2366],[44.9951,41.6401,450.7887],[45.0061,41.655,481.7238],[45.0081,41.6652,502.8418],[45.0168,41.6859,550.5001],[45.0152,41.6896,528.9788],[45.0025,41.6905,540.552],[44.9906,41.689,544.3508],[44.9866,41.6859,535.9484],[44.9749,41.6702,475.6049],[44.9662,41.6644,467.8435],[44.9586,41.6627,461.5527],[44.9326,41.6637,420.4448],[44.9112,41.6716,424.0305],[44.8933,41.6803,429.5469],[44.8904,41.6831,436.7402],[44.8886,41.705,521.9678],[44.8777,41.7217,556.103],[44.8696,41.7282,582.3942],[44.8541,41.7342,574.0688],[44.8518,41.738,565.3181],[44.8526,41.7416,538.5],[44.8556,41.7447,538.5],[44.8748,41.7545,714.4968],[44.8862,41.7631,763.7236],[44.8922,41.7698,790.9039]]]]}
,"properties": {"GID_1": "GEO.12_1","GID_0": "GEO","country": "Georgia","province": "Tbilisi","VARNAME_1": "NA","NL_NAME_1": "NA","TYPE_1": "K'alak'i","ENGTYPE_1": "IndependentCity","CC_1": "NA","HASC_1": "GE.TB","ISO_1": "GE-TB","name": "Tbilisi.province","area_km2": 235.6923,"hist_schema_id": "Elevation0-9000","hist_area_km2": {"350": 5.1498,"375": 13.957,"400": 16.0727,"425": 20.8816,"450": 23.2882,"475": 19.7378,"500": 16.7297,"525": 14.2446,"550": 20.6171,"575": 13.8465,"600": 10.6346,"625": 10.16,"650": 7.7074,"675": 6.631,"700": 5.128,"725": 4.4952,"750": 3.5619,"775": 3.1508,"800": 2.6285,"825": 2.4386,"850": 2.3595,"875": 2.011,"900": 1.6468,"925": 1.441,"950": 1.061,"975": 0.8075,"1000": 0.6334,"1025": 0.6809,"1050": 0.57,"1075": 0.5225,"1100": 0.4592,"1125": 0.6175,"1150": 0.3642,"1175": 0.3009,"1200": 0.2692,"1225": 0.3009,"1250": 0.1425,"1275": 0.1425,"1300": 0.0792,"1325": 0.095,"1350": 0.0633,"1375": 0.0475,"1400": 0.0158}}}