{"type": "Feature","id": "3034","bbox": [44.1858,41.68562,45.30157,42.75951],"geometry": {"type": "Polygon","coordinates": [[[45.04808,42.6859,3583.7319],[45.02979,42.68876,3533.7642],[45.01212,42.6953,3429.4617],[44.90297,42.75308,2849.385],[44.85936,42.75951,2425.3467],[44.83368,42.73409,2288.4434],[44.82742,42.71796,3274.8555],[44.79848,42.67174,2332.8015],[44.78231,42.61665,2769.834],[44.77347,42.60965,2923.4639],[44.76107,42.61923,3581.4023],[44.73637,42.67755,3240.7444],[44.72448,42.69104,2627.8806],[44.69503,42.71422,2477.2593],[44.67942,42.72367,2039.3357],[44.64242,42.73928,1773.4602],[44.63876,42.74015,1709.3197],[44.60098,42.74912,2256.3545],[44.55829,42.7531,3452.9519],[44.50811,42.75029,3858.5312],[44.47923,42.74429,2581.853],[44.4014,42.71352,3761.9038],[44.36068,42.70375,3376.2588],[44.27201,42.70238,3110.3472],[44.24865,42.682,3591.3657],[44.23015,42.65381,2778.9182],[44.21135,42.63963,2858.0549],[44.19738,42.6291,2942.2617],[44.1858,42.62651,3188.9624],[44.18783,42.62319,3004.2961],[44.20043,42.59678,2680.6323],[44.2209,42.57593,2194.9077],[44.26834,42.56627,2416.0361],[44.30172,42.52234,2985.8057],[44.31888,42.51115,3024.3264],[44.33438,42.49472,3183.7603],[44.30224,42.46511,2639.6548],[44.28694,42.42937,2038.8987],[44.29821,42.42439,2336.1995],[44.30534,42.41423,2829.1167],[44.3074,42.39816,2781.7607],[44.31185,42.38268,2203.6411],[44.32528,42.37263,1847.4023],[44.33903,42.35912,2170.8833],[44.3412,42.32899,2449.4597],[44.33769,42.29757,2033.228],[44.35464,42.27104,1645.6101],[44.36259,42.23964,1606.8771],[44.34544,42.2222,1487.0651],[44.32477,42.21047,1551.0967],[44.31784,42.19724,1386.5117],[44.30895,42.18513,1510.1796],[44.29635,42.1788,1252.1055],[44.28436,42.17076,1395.6104],[44.26896,42.12193,1041.9413],[44.26679,42.07046,750.0402],[44.26609,42.06894,747.9306],[44.25769,42.05066,720.3083],[44.26193,42.03397,715.0724],[44.28973,42.02286,740.5571],[44.29449,41.99718,884.1573],[44.30797,42.00649,852.9945],[44.32363,42.01731,729.8914],[44.35267,42.03343,809.9027],[44.38699,42.03258,727.8351],[44.45861,42.02056,831.6205],[44.49303,42.00633,714.9494],[44.497,41.9965,721.1],[44.50564,41.97516,620.0322],[44.51318,41.93925,632.0209],[44.54605,41.91036,542.4518],[44.57323,41.87889,491.9984],[44.55969,41.85057,529.5458],[44.5229,41.84928,594.4247],[44.49509,41.82928,877.6951],[44.4984,41.79083,1086.7007],[44.47897,41.77357,1713.3022],[44.47918,41.74797,1760.9752],[44.53457,41.74247,1224.8663],[44.58119,41.71735,1211.5149],[44.62832,41.68562,1014.4634],[44.68071,41.70549,733.1006],[44.69312,41.72148,632.475],[44.71244,41.72753,619.0148],[44.7326,41.76174,703.9401],[44.76143,41.76107,446.3452],[44.78975,41.77456,427.5631],[44.80526,41.79533,473.2224],[44.83078,41.79368,480.5148],[44.89217,41.76975,790.9039],[44.91574,41.79138,899.202],[44.92783,41.81946,1144.1437],[44.94457,41.83789,1282.9956],[44.96607,41.84416,1271.0372],[45.0163,41.83522,1273.9827],[45.06622,41.8375,1476.0996],[45.05279,41.86695,1362.0332],[45.02137,41.88109,1274.2349],[45.04813,41.90284,1725.8693],[45.0778,41.91651,1264.6621],[45.13257,41.88977,937.6625],[45.21288,41.89832,1509.4844],[45.17712,41.93067,1420.4065],[45.12813,41.94021,1291.9375],[45.10425,41.94183,1411.7758],[45.08172,41.94788,1466.3369],[45.07232,41.97883,1649.8619],[45.08782,42.00612,1523.8218],[45.06984,42.03774,802.921],[45.06694,42.06586,1067.7675],[45.05496,42.10446,1176.4908],[45.0688,42.12766,1348.0095],[45.0842,42.18487,1516.5145],[45.10322,42.20763,1647.7133],[45.12369,42.25814,1795.7867],[45.14808,42.28083,1972.6584],[45.17402,42.29845,1771.5765],[45.195,42.30073,1670.6597],[45.21464,42.30628,2314.5752],[45.22363,42.34501,2182.1099],[45.21081,42.38496,3034.001],[45.22053,42.40832,3103.3862],[45.24275,42.42312,2884.6951],[45.25825,42.44847,3101.6748],[45.25515,42.47891,3302.7222],[45.269,42.52423,3383.7454],[45.30135,42.5596,3544.7842],[45.30157,42.55984,3544.7842],[45.29365,42.57291,3556.3574],[45.28269,42.58639,3510.9844],[45.1842,42.67484,1377.757],[45.15536,42.69326,2637.6274],[45.12296,42.70228,2921.4854],[45.10389,42.70055,3056.3184],[45.07602,42.69141,3222.2441],[45.067,42.68845,3570.0786],[45.04808,42.6859,3583.7319]]]}
,"properties": {"ISO3166-1-Alpha-3": "GEO","country": "Georgia","fill": "#00F","name": "Mtskheta-Mtianeti","area_km2": 6949.203,"hist_schema_id": "Elevation0-9000","hist_area_km2": {"400": 1.201,"425": 11.16,"450": 14.569,"475": 16.919,"500": 42.734,"525": 69.278,"550": 54.077,"575": 47.522,"600": 37.034,"625": 34.116,"650": 35.001,"675": 36.584,"700": 36.819,"725": 48.98,"750": 49.531,"775": 49.436,"800": 60.764,"825": 52.706,"850": 57.885,"875": 69.847,"900": 71.493,"925": 66.197,"950": 69.432,"975": 70.151,"1000": 73.394,"1025": 90.192,"1050": 99.68,"1075": 95.959,"1100": 100.396,"1125": 104.863,"1150": 103.228,"1175": 106.482,"1200": 106.619,"1225": 103.787,"1250": 98.882,"1275": 99.134,"1300": 95.454,"1325": 92.266,"1350": 87.892,"1375": 84.719,"1400": 79.324,"1425": 77.024,"1450": 76.615,"1475": 73.298,"1500": 72.028,"1525": 70.506,"1550": 69.124,"1575": 66.373,"1600": 63.316,"1625": 64.539,"1650": 63.098,"1675": 61.027,"1700": 62.317,"1725": 63.557,"1750": 67.645,"1775": 65.173,"1800": 65.61,"1825": 66.561,"1850": 65.893,"1875": 64.184,"1900": 64.259,"1925": 62.292,"1950": 60.919,"1975": 63.372,"2000": 61.847,"2025": 60.375,"2050": 59.853,"2075": 59.112,"2100": 56.964,"2125": 58.761,"2150": 57.249,"2175": 56.834,"2200": 58.067,"2225": 54.728,"2250": 55.599,"2275": 54.109,"2300": 55.635,"2325": 55.07,"2350": 52.799,"2375": 55.418,"2400": 54.792,"2425": 54.539,"2450": 52.303,"2475": 52.607,"2500": 52.749,"2525": 52.809,"2550": 51.82,"2575": 50.975,"2600": 52.971,"2625": 51.719,"2650": 50.702,"2675": 50.998,"2700": 49.231,"2725": 49.229,"2750": 50.164,"2775": 46.134,"2800": 46.757,"2825": 47.019,"2850": 45.909,"2875": 44.595,"2900": 44.44,"2925": 43.751,"2950": 39.36,"2975": 36.936,"3000": 34.922,"3025": 34.31,"3050": 32.341,"3075": 31.168,"3100": 30.591,"3125": 29.606,"3150": 27.577,"3175": 28.465,"3200": 27.248,"3225": 27.53,"3250": 23.656,"3275": 20.657,"3300": 20.345,"3325": 19.5,"3350": 17.721,"3375": 17.065,"3400": 16.05,"3425": 14.037,"3450": 13.897,"3475": 12.929,"3500": 11.353,"3525": 9.98,"3550": 9.153,"3575": 8.419,"3600": 7.499,"3625": 6.532,"3650": 5.909,"3675": 5.69,"3700": 4.396,"3725": 4.068,"3750": 3.772,"3775": 3.678,"3800": 3.46,"3825": 2.587,"3850": 2.758,"3875": 2.587,"3900": 2.462,"3925": 2.228,"3950": 2.182,"3975": 2.166,"4000": 1.792,"4025": 1.979,"4050": 2.057,"4075": 1.994,"4100": 1.963,"4125": 1.527,"4150": 1.807,"4175": 1.729,"4200": 1.667,"4225": 1.2,"4250": 1.2,"4275": 0.95,"4300": 0.686,"4325": 0.982,"4350": 1.075,"4375": 1.028,"4400": 0.748,"4425": 0.763,"4450": 0.826,"4475": 0.608,"4500": 0.452,"4525": 0.312,"4550": 0.171,"4575": 0.249,"4600": 0.14,"4625": 0.125,"4650": 0.203,"4675": 0.125,"4700": 0.125,"4725": 0.109,"4750": 0.125,"4775": 0.125,"4800": 0.093,"4825": 0.062,"4850": 0.109,"4875": 0.078,"4900": 0.062}}}