{"type":"Feature","properties":{"GID_1":"GEO.7_1","GID_0":"GEO","country":"Georgia","province":"Mtskheta-Mtianeti","VARNAME_1":"Mtskheta","NL_NAME_1":"NA","TYPE_1":"Region","ENGTYPE_1":"Region","CC_1":"NA","HASC_1":"GE.MM","ISO_1":"GE-MM","name":"Mtskheta-Mtianeti.province"},
"geometry":{"type": "MultiPolygon","coordinates": [[[[45.0325,41.8781,1317.7621],[45.0213,41.8811,1274.2349],[45.0657,41.9136,1268.6377],[45.0731,41.917,1315.2118],[45.0894,41.912,1075.1047],[45.1148,41.8945,1113.057],[45.1256,41.8907,1004.1738],[45.1481,41.8866,1149.3953],[45.1697,41.8931,1071.3314],[45.1866,41.894,1329.1597],[45.1965,41.8969,1367.2102],[45.2129,41.8984,1509.4844],[45.2032,41.9145,1516.4569],[45.1795,41.9316,1432.6075],[45.1598,41.9365,1379.652],[45.1401,41.9372,1144.0067],[45.1276,41.9405,1317.0138],[45.1108,41.9416,1478.7947],[45.102,41.9443,1519.7994],[45.0881,41.9459,1461.9027],[45.0726,41.9509,1358.2234],[45.0664,41.9678,1426.0521],[45.0666,41.9783,1589.3009],[45.0794,41.9934,1549.7236],[45.0907,42.0025,1454.0631],[45.0921,42.0069,1441.6501],[45.076,42.0351,768.6354],[45.0579,42.0505,897.2828],[45.0584,42.0535,892.2678],[45.0693,42.0716,1022.1916],[45.051,42.1003,1170.1592],[45.0533,42.1046,1176.4908],[45.0676,42.1151,1105.0173],[45.0709,42.1192,1228.9456],[45.0722,42.1354,1524.48],[45.0768,42.1456,1394.576],[45.0775,42.1668,1779.8423],[45.0814,42.1742,1652.8541],[45.0832,42.1834,1482.0834],[45.0888,42.1961,1770.0797],[45.1105,42.213,1582.8618],[45.1138,42.2172,1540.0585],[45.1144,42.2462,1803.4521],[45.1162,42.2519,1760.2821],[45.1488,42.2766,1684.735],[45.1658,42.2959,2033.6628],[45.1846,42.3012,1627.9043],[45.1986,42.3026,1780.7168],[45.2178,42.3076,2385.5957],[45.2318,42.3267,2736.7383],[45.2318,42.3361,2279.2283],[45.2284,42.3416,2140.2793],[45.2264,42.3504,2557.9773],[45.2114,42.3749,2639.573],[45.2111,42.401,2605.2944],[45.2126,42.4047,2635.6304],[45.2168,42.4084,2968.2612],[45.2298,42.4143,2948.5566],[45.2458,42.4251,2854.3379],[45.2553,42.4291,2536.7283],[45.2586,42.4327,2378.3391],[45.2591,42.4704,3190.1653],[45.2492,42.4915,2931.3262],[45.2488,42.4952,2810.252],[45.2657,42.5214,3571.0862],[45.2736,42.5291,3498.8818],[45.2822,42.5418,3874.1328],[45.2945,42.5519,3682.1409],[45.3032,42.5616,3748.3291],[45.296,42.5872,3479.6133],[45.2891,42.5949,3845.4333],[45.2559,42.616,3350.8232],[45.2069,42.6637,2437.0674],[45.1866,42.6786,1525.6798],[45.1765,42.6907,2539.1094],[45.1672,42.6978,3109.1299],[45.1562,42.7016,3072.9421],[45.1305,42.7035,2772.4785],[45.0829,42.6946,3152.366],[45.0455,42.6985,3310.0037],[45.0351,42.7012,3343.4004],[44.9957,42.7299,2861.6128],[44.9711,42.7446,2060.9641],[44.9275,42.7527,3062.1689],[44.9061,42.7519,3006.3635],[44.8783,42.7469,2911.7876],[44.8601,42.7342,3096.2717],[44.8321,42.7017,3309.2136],[44.8179,42.6669,3146.532],[44.7982,42.6317,2996.0161],[44.7834,42.6253,3059.2349],[44.7679,42.6256,3303.0847],[44.753,42.6334,3325.9697],[44.7465,42.644,3125.5815],[44.7274,42.7206,3203.1189],[44.7068,42.7381,3273.0972],[44.6872,42.746,3231.085],[44.6621,42.7503,2814.6538],[44.6026,42.7438,2455.7151],[44.5062,42.7516,3769.8613],[44.4913,42.7493,2716.3926],[44.474,42.7436,2689.7979],[44.4564,42.7352,3047.5425],[44.4353,42.7224,3811.6365],[44.413,42.7138,4334.1416],[44.4049,42.712,3946.7202],[44.3919,42.7124,3791.2729],[44.3442,42.716,3666.8555],[44.323,42.7133,3167.9253],[44.2789,42.7001,3497.7258],[44.2566,42.6887,3326.167],[44.249,42.6808,3709.9629],[44.2298,42.6561,2822.2637],[44.2213,42.6337,3056.4385],[44.209,42.6268,2699.1394],[44.1879,42.6232,3004.2961],[44.1919,42.6154,2628.8027],[44.1939,42.6052,2375.0972],[44.2073,42.5864,2939.4204],[44.2307,42.5701,2682.7729],[44.2594,42.5689,2553.8931],[44.2768,42.564,2839.8384],[44.2785,42.5607,2952.2146],[44.2792,42.5468,2501.2441],[44.2854,42.5371,2939.5659],[44.2986,42.5236,2954.5522],[44.3112,42.5206,3120.6208],[44.3207,42.5162,3134.0981],[44.3256,42.5097,3063.647],[44.3284,42.5017,3137.7581],[44.3344,42.4948,3183.7603],[44.3122,42.4791,2921.0],[44.309,42.4625,2875.7534],[44.2966,42.4562,2299.5891],[44.2914,42.4514,2237.3821],[44.2843,42.4382,2054.0732],[44.2836,42.4328,1981.744],[44.2865,42.4283,2067.657],[44.2961,42.4261,2260.2979],[44.3042,42.4219,2444.9165],[44.3059,42.4063,2712.8501],[44.3102,42.3968,2629.1296],[44.3105,42.3858,2346.4097],[44.3123,42.3815,2103.8809],[44.3397,42.3702,1973.2286],[44.3529,42.3515,2364.2947],[44.3538,42.3433,2021.9539],[44.3523,42.3374,2191.5117],[44.3407,42.3309,2496.1057],[44.3377,42.3269,2189.5747],[44.3374,42.2981,2033.228],[44.3437,42.2863,1708.1211],[44.361,42.2684,1783.2561],[44.3642,42.262,1979.1239],[44.364,42.2431,1753.1084],[44.3578,42.2249,1606.6423],[44.3487,42.2203,1412.5277],[44.3379,42.2184,1374.6201],[44.328,42.2144,1643.4727],[44.3228,42.208,1514.4822],[44.3196,42.1992,1418.2896],[44.3105,42.1863,1612.326],[44.2878,42.1752,1360.1072],[44.2741,42.1564,1415.4766],[44.2737,42.1509,1582.2389],[44.2776,42.1437,1395.8021],[44.2779,42.1391,1249.6643],[44.2688,42.1249,1110.7234],[44.2676,42.1169,987.7042],[44.2679,42.0981,825.2598],[44.2726,42.0878,792.1301],[44.2729,42.0811,773.8983],[44.2577,42.0533,721.7337],[44.2572,42.0302,717.414],[44.2606,42.028,720.6323],[44.2787,42.0312,725.2051],[44.2927,42.0296,732.4727],[44.2949,42.0239,730.4641],[44.2945,41.9972,884.1573],[44.3198,42.0083,813.9044],[44.336,42.0289,756.2023],[44.3565,42.0343,835.947],[44.3718,42.0341,832.1381],[44.382,42.0312,777.232],[44.3999,42.0298,799.197],[44.4329,42.0227,914.2257],[44.4699,42.0228,810.3143],[44.5024,41.9983,649.7831],[44.5039,41.9537,595.2452],[44.5205,41.9281,616.1022],[44.5519,41.9039,527.6167],[44.5728,41.882,492.7669],[44.5728,41.8631,488.0157],[44.5666,41.8523,499.2293],[44.5611,41.8463,575.3409],[44.5532,41.8456,567.0631],[44.5361,41.8492,558.3657],[44.5057,41.8494,634.5892],[44.499,41.8474,679.6063],[44.4934,41.8363,822.0286],[44.4925,41.8293,874.3563],[44.4933,41.8202,1157.5322],[44.4979,41.8097,1315.3495],[44.4979,41.7861,1225.6034],[44.4948,41.7825,1301.3794],[44.4722,41.773,1647.7637],[44.4713,41.7663,1746.5609],[44.4781,41.7488,1807.1704],[44.4952,41.7468,1413.2349],[44.5078,41.7435,1394.4135],[44.5285,41.7426,1216.6013],[44.5641,41.7336,1293.3948],[44.5725,41.7295,1390.5856],[44.5916,41.7023,1115.2518],[44.6122,41.6873,859.8894],[44.6276,41.6875,945.7878],[44.6446,41.6836,950.0934],[44.657,41.6841,886.0823],[44.662,41.6866,879.5817],[44.6807,41.7055,733.1006],[44.6864,41.7171,680.3207],[44.6923,41.722,632.475],[44.7022,41.7258,677.7645],[44.7142,41.7281,587.5693],[44.7216,41.7315,654.3925],[44.7231,41.739,628.1776],[44.7177,41.7515,641.3254],[44.7201,41.7577,729.119],[44.7277,41.7611,751.7606],[44.7364,41.7616,657.6284],[44.7564,41.7556,502.0433],[44.7667,41.7589,435.8489],[44.7827,41.7668,403.9536],[44.7872,41.7707,435.9188],[44.7918,41.7777,426.8073],[44.794,41.7849,430.0789],[44.8048,41.7996,484.508],[44.8101,41.7998,500.8085],[44.8353,41.7922,518.9683],[44.8554,41.7788,590.7017],[44.8672,41.7743,720.9285],[44.8922,41.7698,790.9039],[44.9005,41.7733,838.7203],[44.9198,41.7881,889.7695],[44.9215,41.7926,966.9689],[44.9215,41.8072,1047.3381],[44.923,41.8127,1180.8021],[44.9285,41.8205,1177.1907],[44.953,41.8462,1326.4688],[44.9599,41.8463,1242.9392],[44.9928,41.836,1318.5354],[45.0257,41.835,1267.0381],[45.0437,41.8291,1344.7129],[45.0662,41.8375,1476.0996],[45.0656,41.8536,1585.5222],[45.06,41.8624,1254.3696],[45.052,41.868899999999996,1408.5404],[45.0325,41.8781,1317.7621]]]]}}