{"type":"Feature","properties":{"GID_2":"GEO.9.8_1","GID_0":"GEO","country":"Georgia","GID_1":"GEO.9_1","province":"Samegrelo-ZemoSvaneti","NL_NAME_1":"NA","county":"Zugdidi","VARNAME_2":"NA","NL_NAME_2":"NA","TYPE_2":"K'alak'i","ENGTYPE_2":"City","CC_2":"NA","HASC_2":"GE.SZ.ZG","name":"Zugdidi.county"},
"geometry":{"type": "MultiPolygon","coordinates": [[[[41.5515,42.4066,1.5442],[41.5574,42.3913,0.0],[41.5588,42.3915,0.0],[41.5579,42.3946,0.0],[41.5604,42.4001,0.0],[41.5621,42.3949,0.9047],[41.5596,42.3896,0.0195],[41.566,42.3882,1.8684],[41.5874,42.3754,0.0],[41.5921,42.374,0.8944],[41.5946,42.3676,1.5725],[41.5968,42.3674,1.1846],[41.5979,42.3654,1.8928],[41.5968,42.364,1.8928],[41.599,42.3632,1.6842],[41.5988,42.3601,0.368],[41.6043,42.3526,1.0202],[41.6071,42.3429,0.2876],[41.6229,42.3087,0.3422],[41.6683,42.3091,11.2193],[41.7001,42.3175,12.5608],[41.7045,42.3205,4.2547],[41.7205,42.3425,8.7653],[41.7523,42.3527,7.9955],[41.7587,42.3607,10.4121],[41.7611,42.3721,9.7497],[41.7679,42.3811,11.0026],[41.7945,42.3909,18.7753],[41.8015,42.3905,18.223],[41.8341,42.3783,154.653],[41.8733,42.3561,40.0317],[41.9025,42.3551,69.2759],[41.9097,42.3563,24.2872],[41.9457,42.3813,31.9646],[41.9517,42.3873,39.1046],[41.9523,42.4137,60.9403],[41.9513,42.4175,104.7888],[41.9433,42.4291,127.0008],[41.9427,42.4327,111.8335],[41.9449,42.4359,143.7692],[41.9517,42.4405,181.2393],[41.9701,42.4485,166.3355],[41.9749,42.4481,103.0136],[42.006,42.4373,75.7929],[42.0047,42.4449,76.983],[42.0009,42.4521,65.5775],[42.0013,42.4598,70.042],[42.0157,42.4729,78.2818],[42.0251,42.4869,86.9499],[42.0204,42.4966,95.0121],[41.9967,42.5197,267.4182],[41.991,42.528,246.3781],[41.9898,42.55,278.3091],[41.9923,42.5561,264.7314],[42.0163,42.5674,277.9706],[42.0213,42.5714,271.1052],[42.0218,42.5805,296.8505],[42.0178,42.5877,306.5408],[42.0161,42.597,302.5128],[42.0101,42.6037,309.2601],[41.9992,42.6095,324.7167],[41.9681,42.5993,266.4801],[41.9602,42.5984,224.0513],[41.9301,42.5989,186.4577],[41.9095,42.6072,154.1175],[41.9001,42.5987,162.9766],[41.8925,42.5873,155.9982],[41.8793,42.5759,142.9291],[41.8745,42.5695,138.7332],[41.8539,42.5539,137.826],[41.8467,42.5453,119.2532],[41.8319,42.5345,112.0984],[41.8073,42.5233,87.8462],[41.7751,42.5057,57.2838],[41.7115,42.4827,31.1938],[41.6957,42.4809,24.394],[41.6687,42.4735,19.1473],[41.6607,42.4681,16.1344],[41.6539,42.4599,15.1152],[41.6349,42.4455,10.3191],[41.6229,42.4331,8.6129],[41.5515,42.4066,1.5442]]]]}}