{"type": "Feature","bbox": [44.1879,42.4009,44.8282,42.7516],"geometry": {"type": "MultiPolygon","coordinates": [[[[44.4624,42.4009,1601.551],[44.4826,42.4082,2316.1328],[44.4872,42.4134,2277.4639],[44.4874,42.4484,1839.7595],[44.4822,42.4613,1966.3219],[44.4831,42.4697,2101.0916],[44.4879,42.4734,2175.3528],[44.5188,42.4844,2304.2852],[44.5258,42.4844,2274.8213],[44.5642,42.4702,2035.4276],[44.5903,42.4693,2417.7734],[44.6031,42.4659,2237.0901],[44.6143,42.4655,1825.3768],[44.6222,42.4666,2013.7865],[44.6604,42.4803,2230.8135],[44.6847,42.4733,1804.5243],[44.7163,42.4735,1889.9124],[44.7604,42.4892,2614.3455],[44.7694,42.4946,2855.0261],[44.7802,42.5062,2403.7844],[44.7967,42.5193,2931.7764],[44.8188,42.5436,3016.8245],[44.8282,42.5582,2942.7778],[44.8249,42.5657,3357.1985],[44.8156,42.579,2587.8789],[44.8096,42.5926,2888.4844],[44.8085,42.6079,3109.8545],[44.8039,42.6181,3395.7803],[44.8038,42.6417,2764.3015],[44.7982,42.6317,2996.0161],[44.7834,42.6253,3059.2349],[44.7679,42.6256,3303.0847],[44.753,42.6334,3325.9697],[44.7465,42.644,3125.5815],[44.7274,42.7206,3203.1189],[44.7068,42.7381,3273.0972],[44.6872,42.746,3231.085],[44.6621,42.7503,2814.6538],[44.6026,42.7438,2455.7151],[44.5062,42.7516,3769.8613],[44.4913,42.7493,2716.3926],[44.474,42.7436,2689.7979],[44.4564,42.7352,3047.5425],[44.4353,42.7224,3811.6365],[44.413,42.7138,4334.1416],[44.4049,42.712,3946.7202],[44.3919,42.7124,3791.2729],[44.3442,42.716,3666.8555],[44.323,42.7133,3167.9253],[44.2789,42.7001,3497.7258],[44.2566,42.6887,3326.167],[44.2298,42.6561,2822.2637],[44.2213,42.6337,3056.4385],[44.209,42.6268,2699.1394],[44.1879,42.6232,3004.2961],[44.1919,42.6154,2628.8027],[44.1939,42.6052,2375.0972],[44.2044,42.5894,2749.4685],[44.2241,42.5737,2347.1821],[44.2307,42.5701,2682.7729],[44.2594,42.5689,2553.8931],[44.2768,42.564,2839.8384],[44.2785,42.5607,2952.2146],[44.28,42.545,2581.6475],[44.2961,42.5255,2947.0967],[44.3006,42.5227,2985.8057],[44.3112,42.5206,3120.6208],[44.32,42.5169,3134.0981],[44.3256,42.5097,3063.647],[44.3284,42.5017,3137.7581],[44.3344,42.4948,3183.7603],[44.3455,42.4934,3103.3926],[44.3512,42.4883,2928.3911],[44.3584,42.4774,2873.061],[44.3578,42.4724,2909.0952],[44.3348,42.466,2941.5972],[44.3317,42.4611,2937.3792],[44.3326,42.4485,2913.9709],[44.3411,42.4401,2546.825],[44.3528,42.4324,2485.2275],[44.3753,42.4241,2236.7102],[44.4185,42.4221,1838.3253],[44.4303,42.4175,2021.84],[44.4439,42.4086,2051.9353],[44.4624,42.4009,1601.551]]]]}
,"properties": {"GID_2": "GEO.7.3_1","GID_0": "GEO","country": "Georgia","GID_1": "GEO.7_1","province": "Mtskheta-Mtianeti","NL_NAME_1": "NA","county": "Kazbegi","VARNAME_2": "NA","NL_NAME_2": "NA","TYPE_2": "Raioni","ENGTYPE_2": "District","CC_2": "NA","HASC_2": "GE.MM.QZ","name": "Kazbegi.county","area_km2": 1282.0,"hist_schema_id": "Elevation0-9000","hist_area_km2": {"1225": 0.0779,"1250": 0.0779,"1275": 0.1869,"1300": 0.1246,"1325": 0.218,"1350": 0.3738,"1375": 0.2648,"1400": 0.2648,"1425": 0.5296,"1450": 0.6543,"1475": 0.982,"1500": 0.8577,"1525": 1.2477,"1550": 1.6544,"1575": 1.7795,"1600": 1.6549,"1625": 2.0923,"1650": 2.3732,"1675": 2.4677,"1700": 2.6546,"1725": 4.0433,"1750": 8.2244,"1775": 7.4151,"1800": 6.7299,"1825": 6.9787,"1850": 8.1197,"1875": 8.2913,"1900": 7.8703,"1925": 8.4483,"1950": 9.9774,"1975": 11.1816,"2000": 11.3059,"2025": 10.9156,"2050": 10.1509,"2075": 11.1349,"2100": 10.7283,"2125": 11.9784,"2150": 13.8049,"2175": 14.4748,"2200": 15.224,"2225": 16.2551,"2250": 16.1152,"2275": 17.1604,"2300": 17.5183,"2325": 17.9567,"2350": 18.1118,"2375": 20.1113,"2400": 20.5321,"2425": 19.3138,"2450": 18.1427,"2475": 20.6395,"2500": 20.3435,"2525": 21.0596,"2550": 20.53,"2575": 21.0439,"2600": 22.7766,"2625": 22.5109,"2650": 21.6835,"2675": 22.511,"2700": 22.6985,"2725": 22.8231,"2750": 23.6498,"2775": 21.4495,"2800": 22.2459,"2825": 22.9462,"2850": 22.7903,"2875": 22.9144,"2900": 22.2915,"2925": 22.3366,"2950": 20.9308,"2975": 20.2265,"3000": 19.3055,"3025": 19.6793,"3050": 19.6318,"3075": 19.8042,"3100": 19.0864,"3125": 19.8667,"3150": 18.6034,"3175": 19.9609,"3200": 19.1971,"3225": 19.6821,"3250": 17.2132,"3275": 14.0268,"3300": 14.0898,"3325": 13.2769,"3350": 11.8717,"3375": 11.9492,"3400": 11.012,"3425": 9.4823,"3450": 10.1376,"3475": 9.0607,"3500": 8.3741,"3525": 7.282,"3550": 7.0012,"3575": 6.0961,"3600": 5.6437,"3625": 5.0666,"3650": 4.1933,"3675": 4.349,"3700": 3.5069,"3725": 3.2262,"3750": 3.0545,"3775": 3.0855,"3800": 2.8828,"3825": 2.353,"3850": 2.2283,"3875": 2.2125,"3900": 2.1346,"3925": 1.9789,"3950": 1.9788,"3975": 1.8697,"4000": 1.6673,"4025": 1.7296,"4050": 1.8542,"4075": 1.8542,"4100": 1.8697,"4125": 1.4334,"4150": 1.6515,"4175": 1.5736,"4200": 1.4958,"4225": 1.1529,"4250": 1.1841,"4275": 0.9348,"4300": 0.6856,"4325": 0.9348,"4350": 1.0595,"4375": 0.9972,"4400": 0.7011,"4425": 0.67,"4450": 0.8258,"4475": 0.5765,"4500": 0.4207,"4525": 0.2649,"4550": 0.1558,"4575": 0.2337,"4600": 0.1091,"4625": 0.1247,"4650": 0.187,"4675": 0.1091,"4700": 0.1091,"4725": 0.0935,"4750": 0.1091,"4775": 0.1247,"4800": 0.0935,"4825": 0.0623,"4850": 0.1091,"4875": 0.0779,"4900": 0.0623,"4925": 0.0156,"4950": 0.0156,"4975": 0.0312,"5000": 0.0312}}}