{"type":"Feature","properties":{"GID_2":"GEO.9.2_1","GID_0":"GEO","country":"Georgia","GID_1":"GEO.9_1","province":"Samegrelo-ZemoSvaneti","NL_NAME_1":"NA","county":"Chkhorotsku","VARNAME_2":"NA","NL_NAME_2":"NA","TYPE_2":"Raioni","ENGTYPE_2":"District","CC_2":"NA","HASC_2":"GE.SZ.CQ","name":"Chkhorotsku.county"},
"geometry":{"type": "MultiPolygon","coordinates": [[[[42.3526,42.7938,1798.8752],[42.3372,42.7936,1709.2485],[42.3205,42.7973,2053.272],[42.2865,42.7969,1931.7861],[42.2584,42.789,2871.5667],[42.2401,42.7801,2736.7356],[42.2266,42.7715,2133.6233],[42.2134,42.7682,2720.144],[42.2295,42.7511,2763.3945],[42.2315,42.7412,2497.0645],[42.2305,42.7322,2439.5188],[42.2209,42.7169,1516.6115],[42.2202,42.687,897.6053],[42.2161,42.6786,1075.7207],[42.2132,42.6668,754.8837],[42.2073,42.661,579.2787],[42.1757,42.6561,646.3185],[42.1722,42.6542,620.4401],[42.1678,42.6484,295.4952],[42.1659,42.6382,286.244],[42.162,42.6308,269.4047],[42.1616,42.6057,238.7652],[42.1592,42.6002,231.424],[42.1526,42.5954,224.5522],[42.1415,42.5907,216.6731],[42.1285,42.5815,230.5305],[42.105,42.5599,283.9271],[42.0717,42.5127,189.2667],[42.0658,42.5089,203.9299],[42.0464,42.5017,154.0891],[42.0251,42.4869,86.9499],[42.0157,42.4729,78.2818],[42.0013,42.4598,70.042],[42.0009,42.4521,65.5775],[42.0047,42.4449,76.983],[42.006,42.4373,75.7929],[42.0163,42.4365,134.9726],[42.0313,42.4326,91.7943],[42.0555,42.4239,71.1677],[42.0574,42.4208,86.1513],[42.0469,42.4028,60.808],[42.0591,42.4007,103.2336],[42.0828,42.3903,114.1545],[42.1203,42.39,91.8839],[42.1275,42.3962,107.4288],[42.1484,42.4265,102.6495],[42.1565,42.4288,106.8814],[42.1815,42.4286,115.0563],[42.1839,42.4362,132.9676],[42.1892,42.444,149.6546],[42.2021,42.4577,174.9154],[42.2144,42.4627,243.7717],[42.2275,42.4653,172.3254],[42.2359,42.4693,193.5066],[42.2519,42.4924,215.7124],[42.2537,42.5145,296.9727],[42.2675,42.5347,342.3303],[42.2699,42.5418,349.8929],[42.2782,42.5543,372.5095],[42.281,42.5622,354.0491],[42.297,42.5857,331.3523],[42.3218,42.5966,447.4198],[42.336,42.6074,1094.981],[42.346,42.6215,1268.9515],[42.3626,42.6286,1152.8586],[42.3639,42.6314,1008.2701],[42.3608,42.6379,1430.9827],[42.3629,42.6422,1332.4121],[42.3977,42.6677,1991.9749],[42.4184,42.6891,1639.5076],[42.4192,42.7201,2193.4973],[42.4341,42.744,2463.4399],[42.4096,42.76,2712.3567],[42.3733,42.7756,1892.9972],[42.3674,42.7802,1933.3876],[42.3615,42.7879,1924.0668],[42.3526,42.7938,1798.8752]]]]}}