{"type": "Feature","id": "3037","bbox": [43.67271,41.16462,45.3331,41.84416],"geometry": {"type": "Polygon","coordinates": [[[45.0163,41.83522,1273.9827],[44.96607,41.84416,1271.0372],[44.94457,41.83789,1282.9956],[44.92783,41.81946,1144.1437],[44.91574,41.79138,899.202],[44.89217,41.76975,790.9039],[44.86282,41.74887,626.4473],[44.86055,41.73166,574.8321],[44.87967,41.71838,545.056],[44.88659,41.70084,507.6559],[44.89124,41.6834,439.8369],[44.90654,41.67324,423.5869],[44.92411,41.66671,414.1846],[44.94737,41.66224,447.8902],[44.97021,41.66671,472.9782],[44.98354,41.68082,521.8654],[44.99977,41.69032,541.7065],[45.00927,41.66573,505.0591],[44.98085,41.63433,433.6733],[44.94323,41.62503,350.7494],[44.90489,41.62679,408.6344],[44.87595,41.63756,486.9499],[44.85156,41.64203,579.1025],[44.82686,41.64356,687.7106],[44.74531,41.67505,896.6687],[44.71565,41.67389,1133.3997],[44.7019,41.68779,975.7133],[44.6987,41.70185,921.0706],[44.68071,41.70549,733.1006],[44.62832,41.68562,1014.4634],[44.58119,41.71735,1211.5149],[44.53457,41.74247,1224.8663],[44.47918,41.74797,1760.9752],[44.46305,41.72159,1448.3147],[44.39329,41.7203,1422.7712],[44.37024,41.72719,1485.402],[44.35412,41.74179,1417.1227],[44.33593,41.74843,1484.9897],[44.27568,41.72645,1535.6921],[44.2272,41.72009,1457.1799],[44.18007,41.72882,1826.4629],[44.14845,41.72479,1764.9642],[44.11755,41.71717,1775.798],[43.88624,41.7342,2131.2517],[43.83694,41.69505,1696.6282],[43.7772,41.69322,1859.8831],[43.73307,41.69872,2098.5771],[43.71023,41.66738,2150.2749],[43.70393,41.56744,2856.1384],[43.69359,41.54299,2779.4048],[43.67933,41.53442,2877.8188],[43.67271,41.5185,2905.2871],[43.70775,41.51341,2895.9541],[43.75168,41.51483,2548.3247],[43.79974,41.52387,2240.9583],[43.84738,41.52186,2583.7041],[43.87353,41.50093,2186.646],[43.89172,41.47204,2162.2039],[43.90102,41.46602,2235.5264],[43.90495,41.45225,2412.4292],[43.90805,41.43078,2600.6555],[43.90846,41.40892,2726.0029],[43.91611,41.38585,2756.0083],[43.93699,41.3759,2640.8516],[43.94753,41.35678,2720.1274],[43.95146,41.33536,2911.302],[43.93699,41.2912,2662.3296],[43.94412,41.2471,2765.2847],[43.95704,41.23268,2711.2463],[43.96748,41.21674,2762.3237],[43.97812,41.16493,2938.5801],[43.97819,41.16462,2938.5801],[44.00112,41.16886,2817.9619],[44.04132,41.18255,2427.208],[44.06127,41.18415,2193.2456],[44.10364,41.17516,1788.8003],[44.12473,41.17806,1734.6213],[44.14436,41.18607,1651.2655],[44.16007,41.1979,1625.0919],[44.16519,41.20767,1615.6049],[44.16586,41.21614,1610.5713],[44.16845,41.22358,1613.9614],[44.18033,41.22994,1597.1428],[44.19098,41.23004,1585.0],[44.21811,41.22157,1704.5869],[44.26648,41.19619,1660.6161],[44.28498,41.19087,1614.1385],[44.30849,41.19382,1624.776],[44.31774,41.19857,1560.3489],[44.32492,41.20482,1498.8188],[44.33309,41.21035,1549.2488],[44.34492,41.21325,1674.4805],[44.35727,41.21216,1693.1636],[44.4106,41.18772,1775.6699],[44.43246,41.18167,1770.8833],[44.45494,41.18048,1794.9097],[44.47923,41.18581,1670.1973],[44.49938,41.20281,1365.6471],[44.50589,41.20658,1560.1194],[44.51664,41.20684,1550.5027],[44.52191,41.1993,1369.6627],[44.52553,41.18906,1437.8633],[44.53101,41.18147,1240.3066],[44.55152,41.17702,1500.1344],[44.56625,41.18694,1377.9644],[44.57845,41.20281,1339.2896],[44.59137,41.21578,1144.2911],[44.61286,41.22312,1234.5323],[44.63312,41.22105,1165.9312],[44.67493,41.20849,1013.535],[44.82153,41.20622,783.7131],[44.84778,41.20891,734.1522],[44.85771,41.21935,477.0571],[44.85382,41.22351,450.0445],[44.84706,41.23077,448.5568],[44.80954,41.24441,419.7417],[44.80128,41.25852,411.1698],[44.82071,41.27335,462.7166],[44.91724,41.26177,860.166],[44.95517,41.2627,846.1316],[44.96736,41.26901,852.3455],[44.99,41.28446,715.6862],[45.0024,41.29045,669.5781],[45.09783,41.34992,267.7711],[45.24962,41.4445,378.063],[45.28171,41.45292,642.3851],[45.31442,41.45163,684.6455],[45.3331,41.44435,645.2699],[45.33308,41.44445,645.2699],[45.32998,41.4614,660.5121],[45.32367,41.47442,724.8053],[45.3153,41.48638,733.8753],[45.30817,41.51134,746.973],[45.28957,41.53121,695.8762],[45.25835,41.5379,607.0232],[45.22631,41.53969,467.5832],[45.20833,41.54858,441.4981],[45.2011,41.56806,459.3591],[45.19562,41.59519,593.4523],[45.22993,41.65446,824.4527],[45.21081,41.70805,666.7316],[45.20306,41.74009,756.3085],[45.18549,41.76699,836.9615],[45.14735,41.77003,811.4545],[45.11428,41.78804,995.6574],[45.09237,41.8153,1206.7845],[45.06622,41.8375,1476.0996],[45.0163,41.83522,1273.9827]]]}
,"properties": {"ISO3166-1-Alpha-3": "GEO","country": "Georgia","fill": "#FF0","name": "Kvemo Kartli","area_km2": 6409.293,"hist_schema_id": "Elevation0-9000","hist_area_km2": {"250": 0.621,"275": 100.897,"300": 171.267,"325": 173.512,"350": 165.924,"375": 134.607,"400": 121.86,"425": 110.74,"450": 111.054,"475": 118.843,"500": 116.534,"525": 114.5,"550": 112.45,"575": 102.735,"600": 93.676,"625": 94.308,"650": 95.979,"675": 107.812,"700": 125.177,"725": 109.211,"750": 89.977,"775": 84.13,"800": 85.04,"825": 84.068,"850": 78.63,"875": 71.934,"900": 73.332,"925": 73.148,"950": 74.267,"975": 73.495,"1000": 74.102,"1025": 73.573,"1050": 73.293,"1075": 77.567,"1100": 78.068,"1125": 79.827,"1150": 77.867,"1175": 80.516,"1200": 81.115,"1225": 81.939,"1250": 79.112,"1275": 84.088,"1300": 93.735,"1325": 82.057,"1350": 79.531,"1375": 77.437,"1400": 66.746,"1425": 66.754,"1450": 64.356,"1475": 62.924,"1500": 91.079,"1525": 97.118,"1550": 98.754,"1575": 87.443,"1600": 90.307,"1625": 90.292,"1650": 79.75,"1675": 76.976,"1700": 78.049,"1725": 76.526,"1750": 77.575,"1775": 72.91,"1800": 58.473,"1825": 47.08,"1850": 40.265,"1875": 37.892,"1900": 30.34,"1925": 26.122,"1950": 21.42,"1975": 18.946,"2000": 18.119,"2025": 17.375,"2050": 17.82,"2075": 22.855,"2100": 23.395,"2125": 20.966,"2150": 16.871,"2175": 15.98,"2200": 15.602,"2225": 16.584,"2250": 16.473,"2275": 16.761,"2300": 16.872,"2325": 17.426,"2350": 17.11,"2375": 16.367,"2400": 14.972,"2425": 14.275,"2450": 13.07,"2475": 12.848,"2500": 13.453,"2525": 12.582,"2550": 11.932,"2575": 13.697,"2600": 13.241,"2625": 13.815,"2650": 12.974,"2675": 11.653,"2700": 11.4,"2725": 10.867,"2750": 9.576,"2775": 7.144,"2800": 5.744,"2825": 3.755,"2850": 3.372,"2875": 2.593,"2900": 1.797,"2925": 1.557,"2950": 1.144,"2975": 0.762,"3000": 0.889,"3025": 0.762,"3050": 0.683,"3075": 0.333,"3100": 0.111}}}