{"type":"Feature","properties":{"GID_1":"GEO.6_1","GID_0":"GEO","country":"Georgia","province":"KvemoKartli","VARNAME_1":"Rustavi","NL_NAME_1":"NA","TYPE_1":"Region","ENGTYPE_1":"Region","CC_1":"NA","HASC_1":"GE.KK","ISO_1":"GE-KK","name":"Kvemo_Kartli.province"},
"geometry":{"type": "MultiPolygon","coordinates": [[[[44.3523,41.2323,1847.3328],[44.3868,41.2162,1998.5835],[44.4056,41.2029,1870.7971],[44.4355,41.1877,1676.4739],[44.4475,41.1843,1661.3792],[44.4615,41.185,1814.8772],[44.4813,41.1925,1515.2218],[44.4944,41.1953,1423.9586],[44.5011,41.1957,1511.8043],[44.5337,41.1908,1295.521],[44.556,41.1997,1158.7384],[44.5764,41.2037,1325.4614],[44.5797,41.1995,1283.194],[44.5796,41.1856,1444.4683],[44.5866,41.1875,1561.4705],[44.5937,41.1927,1442.3215],[44.6002,41.2205,1215.5145],[44.6079,41.2334,1137.4763],[44.6109,41.235,1179.5468],[44.6284,41.2317,1072.1097],[44.6587,41.2322,966.4688],[44.6638,41.2303,963.0875],[44.6667,41.2245,1016.9722],[44.6723,41.2191,1145.0715],[44.678,41.2179,1145.0183],[44.7033,41.2205,767.1834],[44.7107,41.2167,880.3726],[44.7117,41.2082,1026.5577],[44.7171,41.2061,910.7065],[44.728,41.2084,757.0669],[44.7373,41.2144,703.7169],[44.7592,41.2154,713.0375],[44.7787,41.2204,616.459],[44.7868,41.2179,730.7249],[44.7945,41.221,766.5035],[44.8018,41.2216,638.9421],[44.8111,41.2198,514.2802],[44.8354,41.2109,620.4121],[44.8648,41.2113,523.5394],[44.8661,41.2156,456.6779],[44.8557,41.2225,450.0445],[44.8411,41.2287,435.5153],[44.8149,41.2351,427.5305],[44.7974,41.2576,419.9932],[44.7993,41.2708,403.9333],[44.8071,41.276,395.2926],[44.806,41.2794,394.3297],[44.8019,41.2834,394.2815],[44.809,41.2995,380.3329],[44.8161,41.3012,379.5557],[44.8193,41.2986,381.7555],[44.8321,41.2806,507.5346],[44.8498,41.2745,743.4243],[44.8664,41.2731,683.6983],[44.8864,41.2608,652.7587],[44.9034,41.2628,736.3987],[44.926,41.2583,917.3118],[44.946,41.2586,867.2258],[44.9517,41.266,782.5372],[44.9535,41.2745,772.2697],[44.957,41.2783,677.8666],[44.988,41.299,510.1953],[44.9957,41.3018,516.7516],[45.0041,41.3014,566.0067],[45.0465,41.3148,423.1357],[45.0691,41.3274,317.6635],[45.0912,41.3327,275.6465],[45.1032,41.3382,264.5587],[45.1126,41.3463,262.1931],[45.1446,41.3832,267.5566],[45.1577,41.3916,269.5154],[45.1722,41.405,271.8956],[45.1787,41.4079,271.9338],[45.2065,41.4121,295.9911],[45.2234,41.425,289.5],[45.2457,41.4353,317.4795],[45.254,41.4535,494.0046],[45.2606,41.459,616.0959],[45.2889,41.4605,722.0939],[45.2995,41.4664,671.386],[45.3069,41.4681,680.3913],[45.3172,41.4667,692.3604],[45.33,41.4614,660.5121],[45.3272,41.4692,737.3848],[45.3085,41.4965,678.9198],[45.3086,41.5001,715.9999],[45.3158,41.5111,830.2449],[45.3117,41.5169,802.6166],[45.2896,41.5313,695.8762],[45.2722,41.5354,623.9363],[45.2474,41.5361,526.3271],[45.2347,41.5393,506.0355],[45.2168,41.5407,454.8928],[45.2116,41.5442,445.225],[45.2011,41.5599,440.5902],[45.2004,41.5683,459.3591],[45.2048,41.5765,483.5468],[45.2051,41.5811,496.9815],[45.1903,41.6031,583.6508],[45.19,41.6095,630.7661],[45.2254,41.6415,865.884],[45.2314,41.6518,824.2356],[45.228,41.659,817.5136],[45.2261,41.6682,763.9149],[45.2175,41.6856,684.2707],[45.2153,41.6958,656.4406],[45.2114,41.7032,663.1979],[45.2102,41.7272,726.5681],[45.196,41.7485,777.9584],[45.1891,41.7652,903.1378],[45.1858,41.7675,878.4294],[45.1783,41.7681,755.3445],[45.1563,41.7677,815.9477],[45.1425,41.7642,804.3048],[45.1343,41.7658,817.3604],[45.1234,41.7804,913.3142],[45.1116,41.7904,1015.6653],[45.1001,41.8031,1026.6243],[45.0853,41.8246,1329.0397],[45.0662,41.8375,1476.0996],[45.0437,41.8291,1344.7129],[45.0257,41.835,1267.0381],[44.9928,41.836,1318.5354],[44.9599,41.8463,1242.9392],[44.953,41.8462,1326.4688],[44.9285,41.8205,1177.1907],[44.923,41.8127,1180.8021],[44.9215,41.8072,1047.3381],[44.9215,41.7926,966.9689],[44.9198,41.7881,889.7695],[44.9005,41.7733,838.7203],[44.8922,41.7698,790.9039],[44.8862,41.7631,763.7236],[44.8748,41.7545,714.4968],[44.8585,41.7467,538.5],[44.8526,41.7416,538.5],[44.8518,41.738,565.3181],[44.8533,41.7348,575.3754],[44.8717,41.727,606.1591],[44.8763,41.7234,557.6047],[44.8831,41.7139,544.8918],[44.8886,41.705,521.9678],[44.8894,41.6859,446.1942],[44.8917,41.6816,433.4988],[44.9112,41.6716,424.0305],[44.9326,41.6637,420.4448],[44.9639,41.6635,465.7213],[44.9774,41.6724,494.9165],[44.9866,41.6859,535.9484],[44.9906,41.689,544.3508],[45.0093,41.6905,550.3091],[45.0167,41.6882,553.2346],[45.0117,41.6717,515.5004],[45.0081,41.6652,502.8418],[45.0061,41.655,481.7238],[44.9951,41.6401,450.7887],[44.9626,41.6279,362.2366],[44.9406,41.627,352.8559],[44.9277,41.6238,363.1141],[44.9101,41.6248,380.5187],[44.8608,41.643,551.7969],[44.8201,41.6446,728.6118],[44.8007,41.654,951.5441],[44.7816,41.6679,737.7522],[44.7751,41.6709,811.5638],[44.7583,41.6719,826.0122],[44.7445,41.6753,909.5099],[44.7004,41.6758,1389.832],[44.6978,41.6775,1307.9907],[44.6976,41.6799,1225.7893],[44.7055,41.6944,941.4316],[44.7057,41.6975,928.8071],[44.6982,41.7019,921.0706],[44.6872,41.7047,793.6926],[44.6807,41.7055,733.1006],[44.662,41.6866,879.5817],[44.657,41.6841,886.0823],[44.6446,41.6836,950.0934],[44.6276,41.6875,945.7878],[44.6122,41.6873,859.8894],[44.5916,41.7023,1115.2518],[44.5771,41.7238,1290.9163],[44.57,41.7311,1411.0171],[44.5285,41.7426,1216.6013],[44.5078,41.7435,1394.4135],[44.4952,41.7468,1413.2349],[44.4792,41.748,1760.9752],[44.4848,41.737,1483.6145],[44.4839,41.7331,1424.3755],[44.4728,41.7215,1528.4497],[44.4613,41.7197,1536.4609],[44.3819,41.7206,1415.2117],[44.3703,41.7272,1485.402],[44.3612,41.7347,1348.5741],[44.3528,41.7445,1474.1705],[44.3426,41.7502,1419.043],[44.3323,41.7473,1477.7434],[44.3111,41.7374,1436.212],[44.2992,41.735,1496.4164],[44.2522,41.7179,1504.5664],[44.2435,41.7167,1536.0743],[44.233,41.7172,1486.6344],[44.2206,41.7206,1546.7849],[44.2043,41.7208,1797.4995],[44.1879,41.7277,1802.9043],[44.1801,41.7289,1826.4629],[44.1597,41.7294,1772.2209],[44.1278,41.7182,1772.4033],[44.1099,41.7172,1787.8536],[44.098,41.7181,1806.1593],[44.0861,41.7212,1807.1494],[44.0565,41.722,1830.4325],[44.0417,41.7254,1946.3514],[43.9576,41.726,2244.0776],[43.9321,41.7335,2200.2886],[43.8862,41.7342,2131.2517],[43.8705,41.718,2011.406],[43.8298,41.6881,1699.0588],[43.8225,41.6842,1711.8477],[43.7977,41.6879,1753.4296],[43.7741,41.6944,1891.1719],[43.7463,41.6993,1936.8816],[43.7279,41.699,2097.2349],[43.7165,41.6938,2157.8948],[43.7105,41.6807,2364.5247],[43.7099,41.6439,2171.1033],[43.6997,41.6167,2629.0767],[43.7003,41.6105,2602.7771],[43.7049,41.5997,2510.009],[43.7043,41.5644,2891.8679],[43.6971,41.5453,2764.5906],[43.6777,41.5375,2950.7349],[43.6738,41.5342,3083.7017],[43.6724,41.5283,3028.7749],[43.6731,41.515,2838.0984],[43.7539,41.5149,2536.6362],[43.7669,41.518,2427.8149],[43.7835,41.519,2327.9121],[43.8018,41.5253,2252.1467],[43.824,41.5298,2435.8333],[43.8695,41.514,2295.3845],[43.8748,41.5106,2204.9773],[43.8765,41.5038,2149.6575],[43.8711,41.4912,2173.2639],[43.872,41.4831,2239.3398],[43.8758,41.4798,2311.865],[43.8917,41.4721,2195.5117],[43.9056,41.4674,2197.4595],[43.903,41.455,2388.5786],[43.904,41.4486,2458.6646],[43.9084,41.4377,2654.0601],[43.9085,41.3842,2767.6177],[43.9125,41.3807,2747.9253],[43.9302,41.3801,2692.614],[43.9353,41.3779,2644.4214],[43.9448,41.3642,2780.0415],[43.947,41.3541,2721.2371],[43.9508,41.3464,2868.3149],[43.9509,41.3158,2633.9897],[43.937,41.2984,2653.2249],[43.9311,41.2857,2698.5278],[43.9297,41.2783,2751.9912],[43.9303,41.2686,2845.1628],[43.9371,41.2541,2820.9792],[43.9485,41.2414,2697.5618],[43.9604,41.2315,2699.8521],[43.9664,41.2227,2749.3931],[43.9677,41.1909,2914.2642],[43.9719,41.1825,2854.248],[43.9799,41.1567,3013.0571],[43.982,41.1569,2955.9883],[43.9983,41.1714,2809.7961],[44.0081,41.1768,2727.8589],[44.0406,41.1833,2447.8232],[44.0568,41.1898,2217.9568],[44.0747,41.1916,2099.2754],[44.1354,41.1891,1676.6958],[44.1576,41.1925,1628.9099],[44.1692,41.1995,1610.9344],[44.1802,41.2193,1593.6211],[44.1727,41.2331,1671.6863],[44.1718,41.2377,1686.1975],[44.1774,41.2442,1606.4167],[44.1832,41.2444,1672.6691],[44.1954,41.236,1634.5903],[44.2106,41.2345,1707.5215],[44.2148,41.2351,1688.0747],[44.2262,41.2444,1496.7112],[44.2358,41.2399,1788.7557],[44.2409,41.2348,1736.3652],[44.2448,41.2185,1699.6229],[44.2481,41.2164,1732.6365],[44.2592,41.2144,1729.9846],[44.2796,41.2165,1594.87],[44.2989,41.2151,1606.5925],[44.3251,41.2074,1547.7029],[44.3291,41.2092,1542.0642],[44.3316,41.2138,1549.405],[44.3328,41.2266,1639.3837],[44.3359,41.2309,1811.1042],[44.3418,41.2333,1702.9553],[44.3523,41.2323,1847.3328]]]]}}