{"type": "Feature","id": 132982.0,"bbox": [43.988291862896233,41.611273504681577,44.088877800396233,41.643683172650327],"geometry": {"type": "Polygon","coordinates": [[[43.988291862896233,41.615423895306577,1512.4244],[43.988291862896233,41.615423895306577,1512.4244],[44.007578972271233,41.611273504681577,1504.1477],[44.029307487896233,41.616034246869077,1500.5045],[44.053111198833733,41.616644598431577,1498.7739],[44.081309441021233,41.622015692181577,1503.6157],[44.088877800396233,41.635992742962827,1514.0266],[44.062266472271233,41.643683172650327,1611.9315],[44.031382683208733,41.640753485150327,1539.1199],[44.010508659771233,41.634161688275327,1523.7854],[43.990977409771233,41.626715399212827,1526.1799],[43.988291862896233,41.615423895306577,1512.4244]]]}
,"properties": {"name": null,"lge_id": null,"pfafstette": 879.0,"lke_type": null,"altitude": 1505,"objectid": 81601,"scalerank": 12,"featurecla": "Lake","note": "_untitled_81601","funkyname": 0,"min_zoom": 7.0,"min_label": 8.0,"area_km2": 19.31895,"hist_schema_id": "Elevation0-9000","hist_area_km2": {"1500": 15.54755,"1525": 2.66226,"1550": 0.45951,"1575": 0.42781,"1600": 0.19014,"1625": 0.03169}}}