{"type":"Feature","properties":{"GID_2":"GEO.10.3_1","GID_0":"GEO","country":"Georgia","GID_1":"GEO.10_1","province":"Samtskhe-Javakheti","NL_NAME_1":"NA","county":"Akhaltsikhe","VARNAME_2":"NA","NL_NAME_2":"NA","TYPE_2":"Raioni","ENGTYPE_2":"District","CC_2":"NA","HASC_2":"GE.SJ.AT","name":"Akhaltsikhe.county"},
"geometry":{"type": "MultiPolygon","coordinates": [[[[42.9446,41.8091,2155.7075],[42.9431,41.7865,2132.9377],[42.9316,41.7731,1982.6534],[42.9259,41.7701,1956.2739],[42.8993,41.7655,1943.5977],[42.8957,41.7621,2034.4165],[42.8959,41.7562,1846.6454],[42.9001,41.7487,1786.6285],[42.9009,41.7435,1688.7465],[42.9009,41.7151,1508.2993],[42.8963,41.7045,1458.1729],[42.8955,41.6961,1405.9126],[42.8961,41.6865,1385.9401],[42.9003,41.6783,1345.1385],[42.8999,41.6733,1281.2207],[42.8845,41.6683,1183.3467],[42.8639,41.6668,1250.6047],[42.8459,41.6621,1217.5078],[42.8349,41.6477,1043.598],[42.8271,41.6401,1036.2452],[42.8167,41.6251,1213.7657],[42.8151,41.6139,1304.2041],[42.8228,41.5932,1226.9252],[42.8363,41.5828,1122.4664],[42.8388,41.5707,1234.2025],[42.8324,41.565,1140.4441],[42.8205,41.5604,1279.9426],[42.8184,41.5577,1316.3335],[42.8208,41.5359,1297.5332],[42.812,41.5306,1276.6688],[42.7977,41.5251,1299.5654],[42.7935,41.5164,1245.6044],[42.7944,41.5123,1268.6667],[42.8072,41.5032,1419.6296],[42.8099,41.4984,1594.8385],[42.8096,41.4927,1399.575],[42.8227,41.4847,1426.8452],[42.8306,41.4833,1507.641],[42.8358,41.4806,1570.5371],[42.8471,41.4726,1504.2319],[42.8519,41.4728,1539.6404],[42.8562,41.4753,1693.7808],[42.8613,41.484,2018.3887],[42.8662,41.4991,2098.8047],[42.8759,41.5028,2194.3342],[42.8954,41.5037,2494.3118],[42.9021,41.4991,2568.156],[42.9033,41.492,2431.3848],[42.9024,41.4847,2415.3547],[42.9045,41.4808,2441.6707],[42.9313,41.4726,2450.6155],[42.945,41.4582,2558.623],[42.9623,41.4535,2479.374],[42.9864,41.458,2162.7488],[42.9981,41.4538,2274.2117],[43.0407,41.432,2650.0613],[43.0516,41.4308,2557.5659],[43.0645,41.4317,2572.0408],[43.0674,41.4365,2604.6304],[43.0672,41.4622,2514.3152],[43.0721,41.4735,2465.4768],[43.0735,41.4975,2161.854],[43.0773,41.5007,2186.9163],[43.0945,41.5068,1961.6624],[43.1015,41.5111,1604.431],[43.1084,41.5168,1818.251],[43.1202,41.5312,1728.7316],[43.12,41.5358,1694.512],[43.1137,41.5516,1372.1199],[43.1053,41.5556,1334.9016],[43.0873,41.5601,1297.1365],[43.083,41.5648,1242.0494],[43.083,41.5723,1152.8442],[43.0848,41.5769,1241.0186],[43.1035,41.5923,1358.3403],[43.1063,41.6122,1086.5724],[43.1637,41.6547,1376.5717],[43.1765,41.6605,1355.55],[43.1907,41.6695,1800.3],[43.2041,41.6737,2084.1387],[43.2248,41.6744,2232.7637],[43.2391,41.6777,2367.3638],[43.2614,41.6777,2180.1765],[43.2597,41.6835,2434.2263],[43.2484,41.7011,1815.0917],[43.2399,41.7085,1485.1716],[43.2243,41.7194,1275.7139],[43.1973,41.7301,1053.3335],[43.1955,41.7353,1103.0359],[43.1955,41.7574,1118.2896],[43.1887,41.7727,1554.7119],[43.1845,41.7756,1667.5994],[43.1683,41.7815,1867.76],[43.1453,41.7944,1787.064],[43.1231,41.824,2276.6936],[43.0996,41.833,2037.041],[43.081,41.8312,2205.3796],[43.0679,41.8281,2065.6975],[43.0342,41.8277,2000.0701],[43.0198,41.8244,1794.0752],[42.9926,41.8241,1934.7626],[42.9782,41.8209,2034.9485],[42.9605,41.8195,2350.822],[42.9446,41.8091,2155.7075]]]]}}