{"type":"Feature","properties":{"GID_2":"GEO.2.1_1","GID_0":"GEO","country":"Georgia","GID_1":"GEO.2_1","province":"Ajaria","NL_NAME_1":"NA","county":"Batumi","VARNAME_2":"NA","NL_NAME_2":"NA","TYPE_2":"K'alak'i","ENGTYPE_2":"City","CC_2":"NA","HASC_2":"GE.AJ.BT","name":"Batumi.county"},
"geometry":{"type": "MultiPolygon","coordinates": [[[[41.7032,41.6899,0.0],[41.691,41.6729,6.5958],[41.686,41.6682,2.2803],[41.6818,41.6665,1.5333],[41.6729,41.6549,6.4774],[41.6668,41.651,1.8956],[41.661,41.6501,2.4537],[41.6585,41.6526,0.0],[41.6501,41.6501,3.3213],[41.6554,41.649,1.6859],[41.656,41.6471,2.1055],[41.6465,41.6471,0.0],[41.6432,41.6565,1.8205],[41.6346,41.6571,0.0],[41.626,41.6529,0.0],[41.6132,41.6435,1.8626],[41.5865,41.6185,2.5733],[41.5838,41.6126,0.0],[41.5735,41.6043,0.0],[41.5685,41.5932,0.9229],[41.5657,41.5815,1.6623],[41.5657,41.5657,2.6251],[41.5626,41.5476,1.2575],[41.5599,41.5435,127.6033],[41.5524,41.5401,2.1427],[41.5521,41.5368,65.61],[41.549,41.5337,82.7697],[41.5482,41.5263,0.0],[41.5577,41.523,277.6707],[41.5711,41.5222,487.0649],[41.5787,41.52,656.6766],[41.5828,41.515,792.2681],[41.6079,41.508,1051.4111],[41.6209,41.499,1216.649],[41.6461,41.4865,1104.1166],[41.655,41.4836,885.0632],[41.6759,41.4868,1025.5804],[41.7088,41.4977,126.1874],[41.7186,41.4944,140.835],[41.7215,41.4898,100.0302],[41.7206,41.486,87.2018],[41.7158,41.4832,56.8264],[41.7135,41.4783,65.8461],[41.7157,41.4751,170.1918],[41.7285,41.473,303.6183],[41.754,41.4737,728.1141],[41.7812,41.4642,1299.0256],[41.7877,41.4615,1413.5151],[41.7902,41.4544,1325.1488],[41.811,41.4487,1424.4591],[41.8231,41.4346,2031.296],[41.8277,41.4344,2038.0171],[41.8413,41.4401,1783.2045],[41.8499,41.4493,1865.4512],[41.852,41.4546,1459.2837],[41.8786,41.461,1184.0269],[41.8855,41.4701,969.4765],[41.896,41.4793,433.8329],[41.8964,41.487,696.147],[41.9034,41.4917,1177.03],[41.9075,41.5004,1497.2294],[41.9229,41.5038,1592.7598],[41.9347,41.5101,1813.6947],[41.9069,41.5318,1450.5891],[41.897,41.5361,1409.9777],[41.8835,41.5449,1368.8389],[41.8783,41.5461,1261.3384],[41.8349,41.5465,480.1084],[41.8137,41.5505,282.654],[41.7853,41.5503,214.1059],[41.7668,41.5463,96.3447],[41.7589,41.5467,54.5542],[41.7549,41.5491,245.0757],[41.7499,41.5589,459.002],[41.7475,41.5739,742.8727],[41.7388,41.5943,608.0283],[41.7389,41.6009,843.8186],[41.7428,41.6046,846.6279],[41.7598,41.6126,788.2485],[41.8053,41.6289,1008.6095],[41.7881,41.6443,817.4357],[41.7851,41.6629,747.9355],[41.7805,41.6647,536.2084],[41.7595,41.6607,380.3985],[41.7523,41.6623,450.5709],[41.7375,41.6717,327.7356],[41.7205,41.6781,183.9485],[41.7032,41.6899,0.0]]]]}}