{"type": "Feature","bbox": [45.7709,41.0385,46.7214,41.5681],"geometry": {"type": "MultiPolygon","coordinates": [[[[45.7786,41.2355,730.5123],[45.7875,41.2302,658.5132],[45.806,41.2249,770.2044],[45.8208,41.2227,657.4218],[45.8448,41.2234,540.6542],[45.8568,41.221,559.3493],[45.897,41.2057,660.6127],[45.9181,41.1914,632.8015],[45.9439,41.1804,598.0282],[45.9763,41.1788,516.0927],[46.0053,41.1833,338.853],[46.0276,41.1815,283.4299],[46.0534,41.1826,325.532],[46.0819,41.1763,344.9064],[46.0955,41.1821,390.6929],[46.1026,41.2015,215.0113],[46.1212,41.2053,200.2044],[46.1398,41.1901,288.2659],[46.1525,41.1831,441.6837],[46.1887,41.185,323.6605],[46.2249,41.1771,270.0685],[46.2372,41.1751,158.2898],[46.2454,41.1758,140.1152],[46.262,41.1569,126.7721],[46.2735,41.1399,127.2059],[46.3136,41.126,109.427],[46.3182,41.1213,107.5367],[46.3404,41.1119,106.2171],[46.3459,41.1035,103.6143],[46.363,41.0995,99.9476],[46.3682,41.0962,100.5455],[46.3732,41.0873,101.887],[46.3773,41.086,95.8802],[46.3884,41.0884,94.4676],[46.4025,41.0864,94.3619],[46.407,41.091,94.3073],[46.414,41.0913,91.9329],[46.4202,41.0842,87.5],[46.4222,41.0764,94.9764],[46.4303,41.0653,88.3096],[46.4666,41.0385,86.4248],[46.5335,41.0503,75.5],[46.5684,41.0617,75.5],[46.6118,41.0651,75.5],[46.6239,41.0567,83.1668],[46.6272,41.0619,82.4722],[46.6261,41.0657,82.6886],[46.6389,41.0788,84.5257],[46.6461,41.0945,96.4792],[46.6382,41.1075,135.4051],[46.6428,41.1121,96.9845],[46.6435,41.1193,136.48],[46.6506,41.1277,118.4507],[46.6487,41.1577,118.9132],[46.6519,41.1655,128.1334],[46.6585,41.1682,112.22],[46.6585,41.1799,164.7871],[46.6622,41.1824,134.5375],[46.6535,41.1949,169.8777],[46.6514,41.2048,324.28],[46.6689,41.2228,143.8295],[46.6727,41.2302,230.8901],[46.6902,41.2435,218.5323],[46.6911,41.2639,286.0198],[46.7069,41.2792,209.6543],[46.7166,41.283,165.8684],[46.7214,41.2869,161.1735],[46.721,41.2913,161.191],[46.7156,41.2967,164.5778],[46.6894,41.299,200.5071],[46.6916,41.3031,183.9837],[46.6903,41.3062,173.7062],[46.6837,41.311,192.6517],[46.6797,41.3163,206.4547],[46.682,41.3224,186.591],[46.6781,41.3303,180.6427],[46.6816,41.3328,172.0195],[46.6804,41.3354,174.4518],[46.6756,41.3365,171.8926],[46.6652,41.3341,203.5096],[46.6584,41.3353,217.3838],[46.6588,41.3467,180.9815],[46.6561,41.3483,168.2765],[46.6506,41.3473,190.5694],[46.6479,41.3484,193.8159],[46.6514,41.3525,178.0475],[46.6517,41.3618,167.1717],[46.6492,41.3675,168.3037],[46.6444,41.3687,176.7383],[46.6421,41.3615,177.2324],[46.6427,41.3573,170.671],[46.6377,41.3517,200.9874],[46.6323,41.356,199.0791],[46.62,41.3572,205.6447],[46.6236,41.3628,186.6618],[46.6333,41.3647,169.6375],[46.6384,41.3729,178.1983],[46.6351,41.3776,193.2205],[46.6297,41.3798,174.2326],[46.626,41.3726,175.988],[46.6213,41.3737,168.7949],[46.6166,41.38,175.5333],[46.6124,41.3775,175.4322],[46.607,41.3776,169.7172],[46.6064,41.3818,169.7178],[46.6094,41.3895,177.7812],[46.6061,41.3927,168.6328],[46.6026,41.3927,178.8183],[46.599,41.3861,174.3033],[46.5949,41.3882,171.2111],[46.5937,41.3908,177.6793],[46.5637,41.3981,175.7451],[46.5612,41.4028,176.1339],[46.4888,41.4235,174.2646],[46.462,41.4381,177.9681],[46.4538,41.4496,176.1113],[46.4448,41.4565,182.2875],[46.4386,41.459,176.9685],[46.4161,41.4599,205.2768],[46.4134,41.4614,212.6337],[46.4115,41.4747,183.4993],[46.3739,41.4565,366.8996],[46.3413,41.4379,667.812],[46.3161,41.4333,599.0128],[46.3046,41.4339,593.8221],[46.2779,41.4457,622.3779],[46.2731,41.4495,639.9476],[46.2721,41.4645,511.8583],[46.2767,41.4739,326.508],[46.2778,41.4799,263.3706],[46.2775,41.4847,229.6241],[46.2748,41.4877,223.1494],[46.1532,41.489,449.1155],[46.1322,41.4959,492.0958],[46.0902,41.5056,645.8196],[46.0761,41.5111,581.1251],[46.0663,41.5184,584.3395],[46.0587,41.5275,518.1788],[46.0441,41.5391,462.3509],[46.0225,41.5657,344.296],[46.0129,41.5681,406.7552],[45.9831,41.5681,591.3729],[45.9551,41.5591,697.1874],[45.9153,41.5381,777.0744],[45.9129,41.5329,784.0304],[45.9119,41.5137,693.3643],[45.9061,41.5085,644.2224],[45.8902,41.5006,602.8015],[45.8819,41.4897,555.7158],[45.8709,41.4651,516.9249],[45.8697,41.4412,427.3985],[45.8606,41.4229,396.1898],[45.8539,41.3993,357.8358],[45.8547,41.3657,323.4494],[45.8589,41.3606,321.8992],[45.8785,41.3461,331.2204],[45.8806,41.3416,337.2201],[45.8802,41.3379,360.925],[45.8724,41.3234,303.7578],[45.8535,41.3162,312.4999],[45.8497,41.3129,329.1901],[45.8477,41.2837,316.2871],[45.8387,41.2789,322.5492],[45.8115,41.2697,397.576],[45.8035,41.2649,411.1456],[45.7709,41.2401,753.6154],[45.7786,41.2355,730.5123]]]]}
,"properties": {"GID_2": "GEO.5.2_1","GID_0": "GEO","country": "Georgia","GID_1": "GEO.5_1","province": "Kakheti","NL_NAME_1": "NA","county": "DedoplisTskaro","VARNAME_2": "NA","NL_NAME_2": "NA","TYPE_2": "Raioni","ENGTYPE_2": "District","CC_2": "NA","HASC_2": "GE.KA.DD","name": "Dedoplis_Tskaro.county","area_km2": 2565.761,"hist_schema_id": "Elevation0-9000","hist_area_km2": {"75": 27.897,"100": 79.462,"125": 55.767,"150": 46.283,"175": 67.982,"200": 67.685,"225": 86.622,"250": 95.578,"275": 97.925,"300": 86.677,"325": 73.308,"350": 66.761,"375": 76.211,"400": 92.688,"425": 95.468,"450": 95.847,"475": 98.818,"500": 96.177,"525": 93.107,"550": 123.593,"575": 187.441,"600": 143.501,"625": 117.27,"650": 102.262,"675": 87.247,"700": 72.795,"725": 59.365,"750": 41.925,"775": 36.607,"800": 35.266,"825": 27.081,"850": 15.271,"875": 8.644,"900": 5.196,"925": 1.414,"950": 0.524,"975": 0.095}}}