{"type":"Feature","properties":{"GID_2":"GEO.4.10_1","GID_0":"GEO","country":"Georgia","GID_1":"GEO.4_1","province":"Imereti","NL_NAME_1":"NA","county":"Tskaltubo","VARNAME_2":"NA","NL_NAME_2":"NA","TYPE_2":"Raioni","ENGTYPE_2":"District","CC_2":"NA","HASC_2":"GE.IM.TS","name":"Tskaltubo.county"},
"geometry":{"type": "MultiPolygon","coordinates": [[[[42.7205,42.1665,88.3423],[42.7097,42.1745,89.7744],[42.7034,42.1842,93.5303],[42.7029,42.22,141.5323],[42.6827,42.2491,139.6649],[42.6821,42.2521,138.215],[42.6849,42.2565,138.9022],[42.6928,42.2622,144.6558],[42.718,42.2753,219.7409],[42.7371,42.2906,306.8176],[42.7399,42.2949,289.5909],[42.7413,42.3032,330.9943],[42.7457,42.3135,355.8571],[42.7452,42.3377,480.4643],[42.7248,42.3686,493.7213],[42.7251,42.3791,675.6182],[42.7309,42.3859,800.1063],[42.7367,42.3872,600.0974],[42.7709,42.3868,696.687],[42.7883,42.3839,525.3639],[42.8113,42.3957,478.6255],[42.8146,42.3997,470.6914],[42.8162,42.4091,550.4963],[42.8186,42.4124,509.759],[42.8372,42.4261,512.7343],[42.8551,42.4355,519.9366],[42.8627,42.4457,555.0931],[42.8671,42.4551,695.7934],[42.8651,42.4567,805.6982],[42.85,42.4595,783.0213],[42.8381,42.4711,874.0951],[42.8193,42.4767,863.9091],[42.8135,42.4767,919.998],[42.8098,42.4737,905.3789],[42.8027,42.4549,654.4944],[42.7773,42.4497,776.0545],[42.7665,42.4509,500.1506],[42.7493,42.4611,434.9953],[42.7367,42.4624,748.22],[42.7267,42.4655,765.846],[42.7141,42.465,1021.748],[42.7089,42.4615,881.6742],[42.7012,42.4497,926.3253],[42.6959,42.4464,732.2375],[42.6529,42.4351,866.2709],[42.6321,42.4355,738.0204],[42.6182,42.4147,617.8102],[42.6159,42.4075,606.671],[42.6093,42.3959,392.2708],[42.5833,42.3883,260.6596],[42.5533,42.3831,148.8442],[42.5289,42.3741,142.7376],[42.5267,42.371,132.0273],[42.527,42.3682,134.4483],[42.5365,42.3533,117.1614],[42.5369,42.3401,134.8366],[42.5355,42.3332,116.8316],[42.5023,42.3077,90.1043],[42.4915,42.2961,93.6304],[42.4885,42.2907,90.6885],[42.489,42.2754,78.4642],[42.5041,42.2515,67.2319],[42.4979,42.2313,62.2557],[42.4933,42.2253,57.9229],[42.4943,42.2134,57.2982],[42.4991,42.2033,56.3475],[42.4985,42.1967,54.6194],[42.4835,42.1763,44.4419],[42.4609,42.1671,37.0825],[42.4544,42.1629,35.3019],[42.4419,42.1443,29.1612],[42.4459,42.1421,30.0658],[42.462,42.1479,31.0257],[42.4832,42.1484,38.5888],[42.4878,42.1456,37.4479],[42.4887,42.1365,37.778],[42.4912,42.1336,32.9773],[42.5236,42.1276,41.6359],[42.5243,42.1239,42.4849],[42.5161,42.1122,40.056399999999996],[42.5157,42.1073,41.1324],[42.5205,42.0973,42.0283],[42.5275,42.0889,58.4526],[42.5429,42.0891,46.0558],[42.5559,42.0859,70.5498],[42.5703,42.0851,75.812],[42.5817,42.0857,52.9473],[42.5945,42.0889,54.5087],[42.6119,42.0891,60.0093],[42.6309,42.0855,83.8828],[42.6438,42.0851,102.0262],[42.6499,42.0965,63.5708],[42.6559,42.1035,64.1101],[42.6915,42.1169,75.1187],[42.6959,42.1199,75.9556],[42.7069,42.1323,76.1095],[42.7126,42.1448,94.3902],[42.7143,42.1541,87.8447],[42.7205,42.1665,88.3423]]]]}}