{"type": "Feature","bbox": [41.4871,42.4066,41.9519,42.8069],"geometry": {"type": "MultiPolygon","coordinates": [[[[41.5515,42.4066,1.5442],[41.6229,42.4331,8.6129],[41.6349,42.4455,10.3191],[41.6539,42.4599,15.1152],[41.6607,42.4681,16.1344],[41.6687,42.4735,19.1473],[41.6957,42.4809,24.394],[41.7115,42.4827,31.1938],[41.7751,42.5057,57.2838],[41.8073,42.5233,87.8462],[41.8319,42.5345,112.0984],[41.8467,42.5453,119.2532],[41.8539,42.5539,137.826],[41.8745,42.5695,138.7332],[41.8793,42.5759,142.9291],[41.8925,42.5873,155.9982],[41.9001,42.5987,162.9766],[41.9095,42.6072,154.1175],[41.9264,42.6114,196.8918],[41.9359,42.6151,206.5853],[41.941,42.6193,212.2735],[41.9518,42.6474,183.6201],[41.9519,42.6714,315.7263],[41.9393,42.6865,229.6206],[41.9193,42.7017,559.8506],[41.9104,42.7178,1139.3275],[41.9092,42.7683,1823.3945],[41.9047,42.7789,1578.814],[41.9037,42.7969,1500.6488],[41.8989,42.8069,1638.4885],[41.8887,42.8061,1412.8892],[41.8627,42.7923,1354.8276],[41.8539,42.7859,1157.9423],[41.8377,42.7649,752.4696],[41.8249,42.7613,712.025],[41.8167,42.7621,573.3655],[41.8085,42.7667,843.7321],[41.7751,42.7793,680.5277],[41.7599,42.7833,597.8359],[41.7555,42.7823,386.1522],[41.7539,42.7781,373.5476],[41.7545,42.7501,213.8711],[41.7531,42.7467,205.6784],[41.7493,42.7449,189.164],[41.7071,42.7443,137.2371],[41.7001,42.7407,126.8274],[41.6943,42.7337,104.8717],[41.6871,42.7295,98.1683],[41.6221,42.7173,62.0769],[41.6159,42.7135,81.3214],[41.6085,42.7039,57.3537],[41.5877,42.6951,21.1885],[41.5457,42.6821,25.7065],[41.5385,42.6777,19.8095],[41.5297,42.6683,25.4812],[41.5191,42.6645,24.765],[41.4871,42.6585,0.0],[41.4987,42.6324,4.9256],[41.5013,42.619,0.0],[41.5093,42.5982,0.0],[41.5137,42.5918,0.0],[41.5176,42.5729,0.0],[41.5215,42.566,0.8835],[41.5207,42.5643,0.2664],[41.5318,42.5171,3.5695],[41.5343,42.4971,0.0],[41.5368,42.4912,3.0067],[41.5368,42.4799,1.7354],[41.5407,42.4546,1.1094],[41.5515,42.4066,1.5442]]]]}
,"properties": {"GID_2": "GEO.1.2_1","GID_0": "GEO","country": "Georgia","GID_1": "GEO.1_1","province": "Abkhazia","NL_NAME_1": "NA","county": "Gali","VARNAME_2": "NA","NL_NAME_2": "NA","TYPE_2": "Raioni","ENGTYPE_2": "District","CC_2": "NA","HASC_2": "GE.AB.GL","name": "Gali.county","area_km2": 923.9907,"hist_schema_id": "Elevation0-9000","hist_area_km2": {"0": 126.0723,"25": 261.466,"50": 97.5354,"75": 58.6874,"100": 47.239,"125": 43.6834,"150": 47.624,"175": 41.5057,"200": 32.1505,"225": 23.4798,"250": 14.3889,"275": 8.3555,"300": 5.2527,"325": 4.0992,"350": 3.5849,"375": 3.4284,"400": 2.7112,"425": 2.1187,"450": 2.1966,"475": 1.7602,"500": 1.7756,"525": 1.5731,"550": 1.6977,"575": 1.9779,"600": 1.7756,"625": 1.8378,"650": 1.9311,"675": 1.791,"700": 2.3205,"725": 2.1803,"750": 2.2425,"775": 2.3672,"800": 2.6784,"825": 2.3203,"850": 2.3514,"875": 2.1334,"900": 2.1334,"925": 2.1333,"950": 1.8841,"975": 1.9931,"1000": 1.8217,"1025": 2.1331,"1050": 2.2733,"1075": 2.1953,"1100": 2.4601,"1125": 1.8061,"1150": 2.1487,"1175": 2.289,"1200": 2.4448,"1225": 1.9619,"1250": 1.5881,"1275": 1.6658,"1300": 1.6035,"1325": 1.6347,"1350": 1.6036,"1375": 1.6659,"1400": 1.9462,"1425": 1.993,"1450": 1.7438,"1475": 1.5258,"1500": 1.0899,"1525": 1.339,"1550": 1.4168,"1575": 1.557,"1600": 1.6194,"1625": 1.7282,"1650": 2.0865,"1675": 1.775,"1700": 1.1989,"1725": 0.9185,"1750": 0.8251,"1775": 0.685,"1800": 0.5138,"1825": 0.2802,"1850": 0.0156}}}