{"type": "Feature","bbox": [45.5271,41.537,45.9943,41.9005],"geometry": {"type": "MultiPolygon","coordinates": [[[[45.9306,41.8013,236.1774],[45.8866,41.8167,241.9184],[45.875,41.8231,246.7729],[45.8373,41.837,250.0208],[45.8196,41.8496,256.8895],[45.809,41.863,262.9935],[45.7783,41.8726,272.8387],[45.754,41.8895,278.6196],[45.7264,41.9005,285.1014],[45.7131,41.8903,330.7155],[45.7023,41.8857,351.6799],[45.6896,41.8774,394.3014],[45.6674,41.8686,465.8849],[45.6482,41.8472,572.2085],[45.6413,41.8422,633.5833],[45.6017,41.8258,838.9957],[45.5544,41.8165,1024.922],[45.5362,41.8079,1264.6176],[45.5271,41.8018,1314.4519],[45.5421,41.7818,1111.8066],[45.5439,41.7558,1107.2086],[45.5554,41.7383,1106.2653],[45.5628,41.7326,1156.8751],[45.6088,41.7102,889.6514],[45.632,41.6887,864.8848],[45.6386,41.6792,859.3215],[45.6442,41.6665,663.9115],[45.6459,41.6572,583.4944],[45.6498,41.651,541.6949],[45.6494,41.6444,493.0057],[45.6204,41.6219,444.0256],[45.6084,41.6086,440.7292],[45.5987,41.5933,433.0555],[45.6029,41.5886,434.5708],[45.6163,41.5826,464.0102],[45.6351,41.5689,472.0225],[45.6662,41.537,504.2766],[45.6862,41.543,508.8747],[45.6957,41.5607,586.9252],[45.7171,41.5619,672.766],[45.7297,41.565,636.2964],[45.7583,41.5663,625.005],[45.7749,41.5779,648.4152],[45.7848,41.5889,653.8873],[45.8185,41.6132,728.5344],[45.8289,41.6177,760.9923],[45.8427,41.6265,851.689],[45.8831,41.6415,851.8356],[45.8945,41.6568,546.6061],[45.9201,41.6757,260.8941],[45.9349,41.6815,235.7561],[45.9489,41.6827,230.1431],[45.9619,41.6871,226.752],[45.9943,41.7097,223.0138],[45.9892,41.7177,226.8454],[45.9816,41.7367,217.5888],[45.976,41.743899999999996,232.2508],[45.9661,41.7481,233.8854],[45.9478,41.7508,234.6635],[45.9411,41.7539,239.0464],[45.9352,41.761,226.1075],[45.9291,41.7729,227.9295],[45.9291,41.7929,232.1028],[45.9306,41.8013,236.1774]]]]}
,"properties": {"GID_2": "GEO.5.3_1","GID_0": "GEO","country": "Georgia","GID_1": "GEO.5_1","province": "Kakheti","NL_NAME_1": "NA","county": "Gurjaani","VARNAME_2": "NA","NL_NAME_2": "NA","TYPE_2": "Raioni","ENGTYPE_2": "District","CC_2": "NA","HASC_2": "GE.KA.GJ","name": "Gurjaani.county","area_km2": 837.066,"hist_schema_id": "Elevation0-9000","hist_area_km2": {"200": 0.4431,"225": 65.5167,"250": 51.0743,"275": 38.5342,"300": 32.6056,"325": 28.1041,"350": 24.2328,"375": 19.4279,"400": 16.2509,"425": 14.4502,"450": 31.2758,"475": 28.4889,"500": 26.8273,"525": 25.2129,"550": 24.2301,"575": 24.9756,"600": 23.7714,"625": 27.4653,"650": 24.943,"675": 24.3357,"700": 23.1768,"725": 24.7908,"750": 27.7024,"775": 27.2398,"800": 26.1299,"825": 21.966,"850": 21.5214,"875": 19.685,"900": 16.2656,"925": 12.1519,"950": 11.7874,"975": 8.1792,"1000": 6.2796,"1025": 5.3605,"1050": 4.9963,"1075": 4.0632,"1100": 3.1779,"1125": 3.5732,"1150": 2.8619,"1175": 2.2452,"1200": 2.2767,"1225": 1.8339,"1250": 1.6442,"1275": 2.0078,"1300": 1.1698,"1325": 1.154,"1350": 0.743,"1375": 0.49,"1400": 0.3319,"1425": 0.0948}}}