{"type": "Feature","bbox": [43.1231,41.5868,43.8874,41.9204],"geometry": {"type": "MultiPolygon","coordinates": [[[[43.1231,41.824,2276.6936],[43.1453,41.7944,1787.064],[43.1683,41.7815,1867.76],[43.1845,41.7756,1667.5994],[43.1887,41.7727,1554.7119],[43.1955,41.7574,1118.2896],[43.1967,41.7308,1019.7876],[43.2243,41.7194,1275.7139],[43.2445,41.7049,1613.3795],[43.2585,41.6861,2233.512],[43.2614,41.6777,2180.1765],[43.2773,41.6779,2263.0959],[43.3012,41.6821,2250.3494],[43.3141,41.6886,2387.5466],[43.3272,41.693,2378.5295],[43.3376,41.6929,2583.1851],[43.3572,41.6879,2108.3057],[43.3649,41.6826,2308.3433],[43.3722,41.6737,2123.8586],[43.3871,41.6632,2259.2769],[43.4175,41.6564,2409.1504],[43.4369,41.6576,2789.5793],[43.4484,41.6562,2506.9683],[43.4739,41.6379,2337.7654],[43.5027,41.6241,2066.6963],[43.5109,41.6135,1940.7281],[43.5129,41.6033,1872.7872],[43.5181,41.5907,1781.2875],[43.5242,41.5868,1753.7469],[43.5395,41.5913,1821.6912],[43.5584,41.604,1801.9817],[43.5863,41.6165,1976.9536],[43.6256,41.6175,2006.5145],[43.6445,41.6223,2037.7594],[43.6498,41.6285,2010.9453],[43.6525,41.6365,2035.687],[43.6576,41.6444,2027.2842],[43.6624,41.6489,2038.3191],[43.6871,41.6665,2092.0713],[43.6999,41.6713,2126.853],[43.7103,41.6729,2177.001],[43.7109,41.6825,2329.7642],[43.7165,41.6938,2157.8948],[43.7267,41.6987,2127.1274],[43.7502,41.6989,1889.9102],[43.7977,41.6879,1753.4296],[43.8188,41.684,1727.5924],[43.8248,41.685,1682.6719],[43.8732,41.7203,2048.0254],[43.8862,41.7342,2131.2517],[43.887,41.7392,2118.2493],[43.8874,41.751,2166.8899],[43.8847,41.7572,2072.3235],[43.8652,41.7647,2207.0598],[43.8331,41.7727,2002.7474],[43.7823,41.7738,1840.6592],[43.7609,41.7663,1753.9705],[43.7294,41.7664,1730.7638],[43.7233,41.7685,1648.9216],[43.6992,41.7852,1739.7263],[43.6871,41.7893,1773.7212],[43.6647,41.7908,1702.7607],[43.6622,41.7937,1773.282],[43.6572,41.808,1677.5393],[43.6573,41.8215,1742.8748],[43.6065,41.8214,1840.5393],[43.5987,41.8237,2038.5577],[43.5906,41.8497,1533.9187],[43.5845,41.8548,1647.1184],[43.5724,41.86,1684.5845],[43.5666,41.8653,1657.5305],[43.5653,41.8862,1871.0811],[43.5616,41.891,1803.1086],[43.5383,41.8996,1219.4238],[43.5179,41.9015,937.4278],[43.5008,41.9115,818.9092],[43.4762,41.9131,746.9302],[43.4539,41.9204,951.8211],[43.4454,41.9202,1058.8425],[43.4352,41.9174,1382.5769],[43.4172,41.9161,1383.8376],[43.3934,41.9118,1411.1956],[43.3815,41.9073,1196.7839],[43.3614,41.8942,1389.8219],[43.3237,41.8885,1390.3027],[43.3119,41.884,1797.2068],[43.2982,41.8752,1730.1586],[43.2768,41.8674,1524.4386],[43.2606,41.8654,1665.2686],[43.1962,41.85,1714.761],[43.1231,41.824,2276.6936]]]]}
,"properties": {"GID_2": "GEO.10.5_1","GID_0": "GEO","country": "Georgia","GID_1": "GEO.10_1","province": "Samtskhe-Javakheti","NL_NAME_1": "NA","county": "Borjomi","VARNAME_2": "NA","NL_NAME_2": "NA","TYPE_2": "Raioni","ENGTYPE_2": "District","CC_2": "NA","HASC_2": "GE.SJ.BR","name": "Borjomi.county","area_km2": 1170.7437,"hist_schema_id": "Elevation0-9000","hist_area_km2": {"725": 0.0789,"750": 1.4203,"775": 2.5891,"800": 4.0112,"825": 4.296,"850": 5.6397,"875": 7.9957,"900": 8.2489,"925": 8.1215,"950": 7.6307,"975": 8.4839,"1000": 9.7002,"1025": 10.3162,"1050": 10.2537,"1075": 11.0272,"1100": 12.133,"1125": 12.0075,"1150": 13.5395,"1175": 14.2036,"1200": 13.5243,"1225": 15.1049,"1250": 15.9108,"1275": 15.5468,"1300": 17.2859,"1325": 17.0186,"1350": 18.4241,"1375": 18.1886,"1400": 18.2836,"1425": 17.8734,"1450": 18.2844,"1475": 18.6324,"1500": 20.5945,"1525": 20.2788,"1550": 22.0655,"1575": 22.6353,"1600": 23.206,"1625": 27.8417,"1650": 27.0999,"1675": 26.2777,"1700": 25.3624,"1725": 27.7356,"1750": 26.4249,"1775": 26.9346,"1800": 27.4976,"1825": 26.0879,"1850": 23.3179,"1875": 21.7994,"1900": 21.6277,"1925": 21.108,"1950": 20.2855,"1975": 19.1476,"2000": 40.2194,"2025": 23.5063,"2050": 31.2298,"2075": 28.5239,"2100": 22.6663,"2125": 18.6612,"2150": 17.6642,"2175": 16.0661,"2200": 16.6376,"2225": 16.1174,"2250": 14.8682,"2275": 13.6179,"2300": 11.4966,"2325": 9.0101,"2350": 7.7118,"2375": 6.9201,"2400": 7.3636,"2425": 5.368,"2450": 5.3206,"2475": 4.4023,"2500": 3.7371,"2525": 3.7055,"2550": 3.0088,"2575": 2.4387,"2600": 1.8843,"2625": 1.6943,"2650": 1.2351,"2675": 1.0768,"2700": 0.6334,"2725": 0.38,"2750": 0.2375,"2775": 0.1583,"2800": 0.0792}}}